{"type":"FeatureCollection","name":"detection_envelopes","crs":{"type":"name","properties":{"name":"urn:ogc:def:crs:OGC:1.3:CRS84"}},"features":[{"type":"Feature","properties":{"cluster_id":1,"snapshot_index":1,"estimated_time_utc":"2026-08-14T00:54:00Z","observed_until_utc":"2026-08-14T00:54:00Z","target_time_utc":"2026-08-14T00:54:00Z","arrival_h":0.0,"hours_ago":8.183333333333334,"supported_detections_cumulative":9,"sources_cumulative":"VIIRS_NOAA20_NRT","last_source":"VIIRS_NOAA20_NRT","last_satellite":"N20","last_instrument":"VIIRS","detected_area_km2":1.6604937974277705,"product_type":"cumulative_active_fire_detection_extent"},"geometry":{"type":"LineString","coordinates":[[2.19615138306027,44.56894237319015],[2.198930078828964,44.56916326888507],[2.199755561035622,44.569657637167666],[2.198525122092007,44.572705405118654],[2.200156295471067,44.57528100270992],[2.199364890407125,44.57599472660184],[2.19667048286853,44.575941090798146],[2.194734437358039,44.576677171669424],[2.193696767369731,44.57805798118759],[2.194036532608469,44.57981871879573],[2.195244102529966,44.58080684785715],[2.196960859023176,44.58127143677114],[2.201401430664411,44.58133113318943],[2.204699529815581,44.5808637990522],[2.206116773447013,44.579964153243566],[2.206756684362633,44.57850925636153],[2.204846968456172,44.575389671385054],[2.207025105733655,44.5740166241459],[2.20786801897636,44.57256966929975],[2.207444235315014,44.571031837925815],[2.205161964248578,44.56922183541125],[2.20684989829335,44.566924908248275],[2.206522466261823,44.565121010181706],[2.205315034477174,44.56413301068282],[2.203598730440479,44.563668554811585],[2.193171328486811,44.56399606238865],[2.191403955377247,44.5653617679458],[2.191397989059211,44.56742804566525],[2.193380874310165,44.56887481313071],[2.19615138306027,44.56894237319015]]}},{"type":"Feature","properties":{"cluster_id":1,"snapshot_index":2,"estimated_time_utc":"2026-08-14T04:00:00Z","observed_until_utc":"2026-08-14T04:00:00Z","target_time_utc":"2026-08-14T06:54:00Z","arrival_h":3.1,"hours_ago":5.083333333333333,"supported_detections_cumulative":21,"sources_cumulative":"MODIS_NRT, VIIRS_NOAA20_NRT, VIIRS_NOAA21_NRT, VIIRS_SNPP_NRT","last_source":"MODIS_NRT","last_satellite":"Aqua","last_instrument":"MODIS","detected_area_km2":3.6858607372573378,"product_type":"cumulative_active_fire_detection_extent"},"geometry":{"type":"LineString","coordinates":[[2.198827655032217,44.57141138667736],[2.198515910534652,44.57253638772899],[2.196339956108055,44.57388779939094],[2.194858970831669,44.57561378959759],[2.193648311780807,44.57827608667482],[2.194036532608469,44.57981871879573],[2.19679202923914,44.58294914640354],[2.199828825785641,44.58444180084716],[2.203495608378121,44.58499064103004],[2.207901273253755,44.584235556691944],[2.211343183756429,44.582064897737396],[2.212946692952161,44.578990962258246],[2.212616715303558,44.57632406004375],[2.210237996654844,44.57315126043102],[2.213646557239975,44.57041825977502],[2.21521479249461,44.56738076594126],[2.214884775560403,44.56471388305506],[2.212595260310513,44.5619203312112],[2.208691109504417,44.56019658937663],[2.204111499113959,44.55999198894788],[2.200637514237793,44.56099150672418],[2.197635513101094,44.56328298500009],[2.195631016596391,44.56331495845419],[2.192269207301619,44.564456225550444],[2.191132453828819,44.56612988988827],[2.191745636257704,44.567895306631954],[2.193786390363059,44.56898188585873],[2.196966306770417,44.568941000079455],[2.198827655032217,44.57141138667736]]}},{"type":"Feature","properties":{"cluster_id":1,"snapshot_index":3,"estimated_time_utc":"2026-08-14T09:05:00Z","observed_until_utc":"2026-08-14T09:05:00Z","target_time_utc":"2026-08-14T09:05:00Z","arrival_h":8.183333333333334,"hours_ago":0.0,"supported_detections_cumulative":22,"sources_cumulative":"MODIS_NRT, VIIRS_NOAA20_NRT, VIIRS_NOAA21_NRT, VIIRS_SNPP_NRT","last_source":"MODIS_NRT","last_satellite":"Terra","last_instrument":"MODIS","detected_area_km2":4.660075712676054,"product_type":"cumulative_active_fire_detection_extent"},"geometry":{"type":"LineString","coordinates":[[2.195281840494133,44.56340371122949],[2.192548333745315,44.56428194640996],[2.191296912997418,44.56556892279093],[2.191173118504954,44.566877895143705],[2.19192711388496,44.56807402174232],[2.193380874310165,44.56887481313071],[2.195024928017315,44.569095758355935],[2.193049734880326,44.5712036517603],[2.192316820400662,44.573987614002526],[2.189798055860449,44.57442214831714],[2.186677557852273,44.576781003529305],[2.186833940162828,44.58219695053789],[2.18794743233876,44.583293342385375],[2.189605316944373,44.58385676805235],[2.192123849092031,44.583593587222126],[2.193889361940152,44.582146965618406],[2.196560162550136,44.5837016458233],[2.201593533481501,44.584842885392796],[2.204360269542395,44.58496652615577],[2.20705806298767,44.58451081493852],[2.210193685485184,44.58304576202118],[2.21257996360624,44.58024327313115],[2.212847346277239,44.577011142496595],[2.211166380828531,44.574249874241396],[2.210941381138269,44.572308113323714],[2.21333254718753,44.57108555026518],[2.215400141128297,44.568905267887374],[2.216142429015845,44.56636948860905],[2.215471385106349,44.563779529127444],[2.214078305941743,44.562066990219144],[2.2120499502013,44.5607172673546],[2.209560992623284,44.55984656776067],[2.206825730091347,44.55952985175394],[2.202360235080443,44.560284439768225],[2.199889467279622,44.56138249075062],[2.197635513101094,44.56328298500009],[2.195281840494133,44.56340371122949]]}}],"metadata":{"generated_at_utc":"2026-08-18T13:56:59.838164Z","product_type":"cumulative_active_fire_detection_extent","product_label":"Emprises cumulées des détections actives FIRMS","not_a_burn_perimeter":true,"not_a_continuous_fire_front":true,"not_an_arrival_time_interpolation":true,"snapshot_step_hours":6,"confidence_filter":{"VIIRS":["nominal","high"],"MODIS_minimum":30},"footprint_radius_m":{"VIIRS":300.0,"MODIS":750.0},"same_pass_neighbour_m":2000.0,"continuity_distance_m":3000.0,"clusters":[{"cluster_id":1,"first_supported_detection_utc":"2026-08-14T00:54:00Z","last_supported_detection_utc":"2026-08-14T09:05:00Z","pass_states":6,"published_snapshots":3,"final_detected_area_km2":3.968085000337618}]},"bbox":[2.1866775578522732,44.55952985175394,2.2161424290158447,44.58499064103004]}