{"type":"FeatureCollection","name":"fire_progression_arrival_v1","features":[{"type":"Feature","properties":{"category":"arrival_step","arrival_snapshot_index":4,"first_detected_utc":"2026-08-13T02:34:00+00:00","first_detected_local":"2026-08-13T04:34:00+02:00","area_km2":3.125,"label":"Première détection FIRMS","model_version":"fire_progression_arrival_v1"},"geometry":{"type":"Polygon","coordinates":[[[2.1874582847166546,44.58584749486071],[2.187490690182371,44.58359699580361],[2.181192618166942,44.583550500244534],[2.1812252721794074,44.58130000511007],[2.1780763656387725,44.58127662365931],[2.1782074578095614,44.57227466726495],[2.181355862189536,44.57229804490161],[2.1813885031836926,44.570047559948584],[2.184536784651252,44.57007084690392],[2.184569297537232,44.567820363047495],[2.190865617228682,44.56786666588557],[2.190897876530435,44.56561618219049],[2.194045914743394,44.56563919808399],[2.1940137809380116,44.56788968271778],[2.2003101160338527,44.567935447208015],[2.200278230679743,44.57018593575814],[2.2034265275535354,44.570208684343704],[2.203299462836401,44.579210662687906],[2.2001506638333668,44.57918791039088],[2.2001187657627668,44.581438409140404],[2.196969843746608,44.581415566168545],[2.1969378175647534,44.58366606601626],[2.190639730071948,44.58362010895805],[2.1906074501823674,44.58587060895784],[2.1874582847166546,44.58584749486071]]]}},{"type":"Feature","properties":{"category":"arrival_step","arrival_snapshot_index":7,"first_detected_utc":"2026-08-13T19:30:00+00:00","first_detected_local":"2026-08-13T21:30:00+02:00","area_km2":3.438,"label":"Première détection FIRMS","model_version":"fire_progression_arrival_v1"},"geometry":{"type":"Polygon","coordinates":[[[2.1969378175647534,44.58366606601626],[2.196969843746608,44.581415566168545],[2.2001187657627668,44.581438409140404],[2.2001506638333668,44.57918791039088],[2.203299462836401,44.579210662687906],[2.2034265275535354,44.570208684343704],[2.200278230679743,44.57018593575814],[2.2003101160338527,44.567935447208015],[2.1940137809380116,44.56788968271778],[2.194045914743394,44.56563919808399],[2.1971939555184425,44.56566212425647],[2.197257964479903,44.561161159281816],[2.2004057568430846,44.5611839938705],[2.2004376320294767,44.5589335135401],[2.2035853014668545,44.55895625748723],[2.2036170486548,44.55670577829257],[2.213059695740305,44.55677346911044],[2.2130283249260003,44.55902395106587],[2.2161760044280507,44.55904633617076],[2.2161447565810595,44.5612968211026],[2.219292564043055,44.561319117405986],[2.219199182018457,44.56807058727716],[2.2160509980901084,44.56804828824561],[2.2159572171679307,44.574799773839636],[2.2128086591764324,44.57477738234311],[2.2127458750088307,44.57927838111857],[2.209597068434144,44.579255898051855],[2.2095655470364597,44.58150639957431],[2.2064166174177053,44.58148382584339],[2.2063849679378946,44.583734328475124],[2.1969378175647534,44.58366606601626]]]}},{"type":"Feature","properties":{"category":"arrival_step","arrival_snapshot_index":8,"first_detected_utc":"2026-08-14T00:54:00+00:00","first_detected_local":"2026-08-14T02:54:00+02:00","area_km2":0.562,"label":"Première détection FIRMS","model_version":"fire_progression_arrival_v1"},"geometry":{"type":"Polygon","coordinates":[[[2.187717456091754,44.56784355932878],[2.187782223105287,44.56334259587643],[2.190930133260094,44.56336570054854],[2.190994639004362,44.55886474343743],[2.2004376320294767,44.5589335135401],[2.2004057568430846,44.5611839938705],[2.197257964479903,44.561161159281816],[2.1971939555184425,44.56566212425647],[2.190897876530435,44.56561618219049],[2.190865617228682,44.56786666588557],[2.187717456091754,44.56784355932878]]]}},{"type":"Feature","properties":{"category":"arrival_step","arrival_snapshot_index":13,"first_detected_utc":"2026-08-14T09:05:00+00:00","first_detected_local":"2026-08-14T11:05:00+02:00","area_km2":0.625,"label":"Première détection FIRMS","model_version":"fire_progression_arrival_v1"},"geometry":{"type":"Polygon","coordinates":[[[2.212777268344412,44.577027880712485],[2.2128086591764324,44.57477738234311],[2.2159572171679307,44.574799773839636],[2.2160509980901084,44.56804828824561],[2.219199182018457,44.56807058727716],[2.2192614391833807,44.56356960530733],[2.2224093746059164,44.563591812801796],[2.2222543406206765,44.57484428762324],[2.2191057776526817,44.574822075599705],[2.2190746378979984,44.577072575791924],[2.212777268344412,44.577027880712485]]]}},{"type":"Feature","properties":{"category":"firms_extent_snapshot","snapshot_index":2,"pass_time_utc":"2026-08-13T01:13:00+00:00","dt_local":"2026-08-13T03:13:00+02:00","label":"Emprise FIRMS cumulée à ce passage","interpretation":"Enveloppe des détections FIRMS, pas une surface brûlée","cumulative":true,"point_count":2,"extent_method":"cumulative_detection_extent_smoothed_landmasked_web_v1","local_cluster_link_m":10000.0,"model_version":"fire_progression_arrival_v1"},"geometry":{"type":"MultiPolygon","coordinates":[[[[2.1871282507952805,44.58245754226205],[2.1897047126003883,44.58293803491526],[2.1940837905279778,44.58069184154899],[2.1938639492048915,44.57741497133655],[2.1930838100059393,44.5761689848482],[2.1912732944872886,44.57528502403894],[2.1890072683873996,44.575285726041216],[2.1870666166844375,44.57629252529226],[2.1863634357214465,44.577832250398295],[2.186625772663753,44.58165491089204],[2.1871282507952805,44.58245754226205]]],[[[2.1927161222618006,44.583314074941704],[2.194124109154818,44.581292774623876],[2.1940920454022246,44.58081487819313],[2.1915941147048508,44.58295187571354],[2.1883258636664555,44.5832611341023],[2.1899412497713677,44.58389353016415],[2.1927161222618006,44.583314074941704]]]]}},{"type":"Feature","properties":{"category":"observed_front","snapshot_index":2,"pass_time_utc":"2026-08-13T01:13:00+00:00","dt_local":"2026-08-13T03:13:00+02:00","area_km2":2.5,"label":"Activité observée","coherence_level":"indisponible","coherence_fraction":0.0,"projection_displayed":false,"model_version":"fire_progression_arrival_v1"},"geometry":{"type":"Polygon","coordinates":[[[2.1874582847166546,44.58584749486071],[2.187490690182371,44.58359699580361],[2.181192618166942,44.583550500244534],[2.1812252721794074,44.58130000511007],[2.1780763656387725,44.58127662365931],[2.1782074578095614,44.57227466726495],[2.181355862189536,44.57229804490161],[2.1813885031836926,44.570047559948584],[2.1876850687115326,44.570094044131245],[2.187717456091754,44.56784355932878],[2.190865617228682,44.56786666588557],[2.1908333553545285,44.57011715163044],[2.19712993634864,44.570163097444],[2.197097922934847,44.57241358710923],[2.2002463427829437,44.57243642635483],[2.2001187657627668,44.581438409140404],[2.196969843746608,44.581415566168545],[2.1969378175647534,44.58366606601626],[2.190639730071948,44.58362010895805],[2.1906074501823674,44.58587060895784],[2.1874582847166546,44.58584749486071]]]}},{"type":"Feature","properties":{"category":"firms_extent_snapshot","snapshot_index":4,"pass_time_utc":"2026-08-13T02:34:00+00:00","dt_local":"2026-08-13T04:34:00+02:00","label":"Emprise FIRMS cumulée à ce passage","interpretation":"Enveloppe des détections FIRMS, pas une surface brûlée","cumulative":true,"point_count":5,"extent_method":"cumulative_detection_extent_smoothed_landmasked_web_v1","local_cluster_link_m":10000.0,"model_version":"fire_progression_arrival_v1"},"geometry":{"type":"MultiPolygon","coordinates":[[[[2.1897047126003883,44.58293803491526],[2.1935156812706853,44.58071518599206],[2.1945451258972035,44.58058915851631],[2.1961823721365943,44.57898862356683],[2.196434872025208,44.57600614222177],[2.1945355814898737,44.57431716300102],[2.1909054069924028,44.574064794520446],[2.187245336938228,44.57612618450536],[2.1863634357214465,44.577832250398295],[2.1871174436005427,44.58245552664995],[2.1897047126003883,44.58293803491526]]],[[[2.1913346920339882,44.58381521793705],[2.193468855002899,44.582732587162965],[2.1943139679443973,44.58095973726525],[2.194142243646428,44.58094483120264],[2.1903280550700295,44.583392751802194],[2.1883810884622874,44.5833784666052],[2.188940608104494,44.58371356417011],[2.1913346920339882,44.58381521793705]]]]}},{"type":"Feature","properties":{"category":"historical_support","snapshot_index":4,"pass_time_utc":"2026-08-13T02:34:00+00:00","dt_local":"2026-08-13T04:34:00+02:00","area_km2":3.125,"label":"Isoline temporelle","coherence_level":"indisponible","coherence_fraction":0.0,"projection_displayed":false,"model_version":"fire_progression_arrival_v1"},"geometry":{"type":"Polygon","coordinates":[[[2.1874582847166546,44.58584749486071],[2.187490690182371,44.58359699580361],[2.181192618166942,44.583550500244534],[2.1812252721794074,44.58130000511007],[2.1780763656387725,44.58127662365931],[2.1782074578095614,44.57227466726495],[2.181355862189536,44.57229804490161],[2.1813885031836926,44.570047559948584],[2.184536784651252,44.57007084690392],[2.184569297537232,44.567820363047495],[2.190865617228682,44.56786666588557],[2.190897876530435,44.56561618219049],[2.194045914743394,44.56563919808399],[2.1940137809380116,44.56788968271778],[2.2003101160338527,44.567935447208015],[2.200278230679743,44.57018593575814],[2.2034265275535354,44.570208684343704],[2.203299462836401,44.579210662687906],[2.2001506638333668,44.57918791039088],[2.2001187657627668,44.581438409140404],[2.196969843746608,44.581415566168545],[2.1969378175647534,44.58366606601626],[2.190639730071948,44.58362010895805],[2.1906074501823674,44.58587060895784],[2.1874582847166546,44.58584749486071]]]}},{"type":"Feature","properties":{"category":"observed_front","snapshot_index":4,"pass_time_utc":"2026-08-13T02:34:00+00:00","dt_local":"2026-08-13T04:34:00+02:00","area_km2":3.125,"label":"Activité observée","coherence_level":"indisponible","coherence_fraction":0.0,"projection_displayed":false,"model_version":"fire_progression_arrival_v1"},"geometry":{"type":"Polygon","coordinates":[[[2.1874582847166546,44.58584749486071],[2.187490690182371,44.58359699580361],[2.181192618166942,44.583550500244534],[2.1812252721794074,44.58130000511007],[2.1780763656387725,44.58127662365931],[2.1782074578095614,44.57227466726495],[2.181355862189536,44.57229804490161],[2.1813885031836926,44.570047559948584],[2.184536784651252,44.57007084690392],[2.184569297537232,44.567820363047495],[2.190865617228682,44.56786666588557],[2.190897876530435,44.56561618219049],[2.194045914743394,44.56563919808399],[2.1940137809380116,44.56788968271778],[2.2003101160338527,44.567935447208015],[2.200278230679743,44.57018593575814],[2.2034265275535354,44.570208684343704],[2.203299462836401,44.579210662687906],[2.2001506638333668,44.57918791039088],[2.2001187657627668,44.581438409140404],[2.196969843746608,44.581415566168545],[2.1969378175647534,44.58366606601626],[2.190639730071948,44.58362010895805],[2.1906074501823674,44.58587060895784],[2.1874582847166546,44.58584749486071]]]}},{"type":"Feature","properties":{"category":"historical_support","snapshot_index":5,"pass_time_utc":"2026-08-13T12:38:00+00:00","dt_local":"2026-08-13T14:38:00+02:00","area_km2":3.125,"label":"Isoline temporelle","coherence_level":"indisponible","coherence_fraction":0.0,"projection_displayed":false,"model_version":"fire_progression_arrival_v1"},"geometry":{"type":"Polygon","coordinates":[[[2.1874582847166546,44.58584749486071],[2.187490690182371,44.58359699580361],[2.181192618166942,44.583550500244534],[2.1812252721794074,44.58130000511007],[2.1780763656387725,44.58127662365931],[2.1782074578095614,44.57227466726495],[2.181355862189536,44.57229804490161],[2.1813885031836926,44.570047559948584],[2.184536784651252,44.57007084690392],[2.184569297537232,44.567820363047495],[2.190865617228682,44.56786666588557],[2.190897876530435,44.56561618219049],[2.194045914743394,44.56563919808399],[2.1940137809380116,44.56788968271778],[2.2003101160338527,44.567935447208015],[2.200278230679743,44.57018593575814],[2.2034265275535354,44.570208684343704],[2.203299462836401,44.579210662687906],[2.2001506638333668,44.57918791039088],[2.2001187657627668,44.581438409140404],[2.196969843746608,44.581415566168545],[2.1969378175647534,44.58366606601626],[2.190639730071948,44.58362010895805],[2.1906074501823674,44.58587060895784],[2.1874582847166546,44.58584749486071]]]}},{"type":"Feature","properties":{"category":"historical_support","snapshot_index":6,"pass_time_utc":"2026-08-13T13:23:00+00:00","dt_local":"2026-08-13T15:23:00+02:00","area_km2":3.125,"label":"Isoline temporelle","coherence_level":"indisponible","coherence_fraction":0.0,"projection_displayed":false,"model_version":"fire_progression_arrival_v1"},"geometry":{"type":"Polygon","coordinates":[[[2.1874582847166546,44.58584749486071],[2.187490690182371,44.58359699580361],[2.181192618166942,44.583550500244534],[2.1812252721794074,44.58130000511007],[2.1780763656387725,44.58127662365931],[2.1782074578095614,44.57227466726495],[2.181355862189536,44.57229804490161],[2.1813885031836926,44.570047559948584],[2.184536784651252,44.57007084690392],[2.184569297537232,44.567820363047495],[2.190865617228682,44.56786666588557],[2.190897876530435,44.56561618219049],[2.194045914743394,44.56563919808399],[2.1940137809380116,44.56788968271778],[2.2003101160338527,44.567935447208015],[2.200278230679743,44.57018593575814],[2.2034265275535354,44.570208684343704],[2.203299462836401,44.579210662687906],[2.2001506638333668,44.57918791039088],[2.2001187657627668,44.581438409140404],[2.196969843746608,44.581415566168545],[2.1969378175647534,44.58366606601626],[2.190639730071948,44.58362010895805],[2.1906074501823674,44.58587060895784],[2.1874582847166546,44.58584749486071]]]}},{"type":"Feature","properties":{"category":"observed_front","snapshot_index":6,"pass_time_utc":"2026-08-13T13:23:00+00:00","dt_local":"2026-08-13T15:23:00+02:00","area_km2":1.312,"label":"Activité observée","coherence_level":"indisponible","coherence_fraction":0.0,"projection_displayed":false,"model_version":"fire_progression_arrival_v1"},"geometry":{"type":"Polygon","coordinates":[[[2.190672007386971,44.581369610984666],[2.190704282127747,44.57911911504098],[2.187555493360406,44.57909600377177],[2.187652678748596,44.572344530980125],[2.190801090907666,44.57236763942177],[2.1908333553545285,44.57011715163044],[2.200278230679743,44.57018593575814],[2.2002463427829437,44.57243642635483],[2.203394765174034,44.57245917586819],[2.203299462836401,44.579210662687906],[2.2001506638333668,44.57918791039088],[2.2001187657627668,44.581438409140404],[2.190672007386971,44.581369610984666]]]}},{"type":"Feature","properties":{"category":"historical_support","snapshot_index":7,"pass_time_utc":"2026-08-13T19:30:00+00:00","dt_local":"2026-08-13T21:30:00+02:00","area_km2":6.562,"label":"Isoline temporelle","coherence_level":"indisponible","coherence_fraction":0.0,"projection_displayed":false,"model_version":"fire_progression_arrival_v1"},"geometry":{"type":"Polygon","coordinates":[[[2.1874582847166546,44.58584749486071],[2.187490690182371,44.58359699580361],[2.181192618166942,44.583550500244534],[2.1812252721794074,44.58130000511007],[2.1780763656387725,44.58127662365931],[2.1782074578095614,44.57227466726495],[2.181355862189536,44.57229804490161],[2.1813885031836926,44.570047559948584],[2.184536784651252,44.57007084690392],[2.184569297537232,44.567820363047495],[2.190865617228682,44.56786666588557],[2.190897876530435,44.56561618219049],[2.1971939555184425,44.56566212425647],[2.197257964479903,44.561161159281816],[2.2004057568430846,44.5611839938705],[2.2004376320294767,44.5589335135401],[2.2035853014668545,44.55895625748723],[2.2036170486548,44.55670577829257],[2.213059695740305,44.55677346911044],[2.2130283249260003,44.55902395106587],[2.2161760044280507,44.55904633617076],[2.2161447565810595,44.5612968211026],[2.219292564043055,44.561319117405986],[2.219199182018457,44.56807058727716],[2.2160509980901084,44.56804828824561],[2.2159572171679307,44.574799773839636],[2.2128086591764324,44.57477738234311],[2.2127458750088307,44.57927838111857],[2.209597068434144,44.579255898051855],[2.2095655470364597,44.58150639957431],[2.2064166174177053,44.58148382584339],[2.2063849679378946,44.583734328475124],[2.190639730071948,44.58362010895805],[2.1906074501823674,44.58587060895784],[2.1874582847166546,44.58584749486071]]]}},{"type":"Feature","properties":{"category":"observed_front","snapshot_index":7,"pass_time_utc":"2026-08-13T19:30:00+00:00","dt_local":"2026-08-13T21:30:00+02:00","area_km2":4.625,"label":"Activité observée","coherence_level":"indisponible","coherence_fraction":0.0,"projection_displayed":false,"model_version":"fire_progression_arrival_v1"},"geometry":{"type":"Polygon","coordinates":[[[2.1969378175647534,44.58366606601626],[2.196969843746608,44.581415566168545],[2.1938209242846716,44.58139263344993],[2.1938530734690285,44.57914213656731],[2.190704282127747,44.57911911504098],[2.190801090907666,44.57236763942177],[2.1939495056397518,44.5723906581315],[2.194045914743394,44.56563919808399],[2.1971939555184425,44.56566212425647],[2.197257964479903,44.561161159281816],[2.2004057568430846,44.5611839938705],[2.2004376320294767,44.5589335135401],[2.2035853014668545,44.55895625748723],[2.2036170486548,44.55670577829257],[2.213059695740305,44.55677346911044],[2.2130283249260003,44.55902395106587],[2.2161760044280507,44.55904633617076],[2.2161447565810595,44.5612968211026],[2.219292564043055,44.561319117405986],[2.219199182018457,44.56807058727716],[2.2160509980901084,44.56804828824561],[2.2159572171679307,44.574799773839636],[2.2128086591764324,44.57477738234311],[2.2127458750088307,44.57927838111857],[2.209597068434144,44.579255898051855],[2.2095655470364597,44.58150639957431],[2.2064166174177053,44.58148382584339],[2.2063849679378946,44.583734328475124],[2.1969378175647534,44.58366606601626]]]}},{"type":"Feature","properties":{"category":"firms_extent_snapshot","snapshot_index":8,"pass_time_utc":"2026-08-14T00:54:00+00:00","dt_local":"2026-08-14T02:54:00+02:00","label":"Emprise FIRMS cumulée à ce passage","interpretation":"Enveloppe des détections FIRMS, pas une surface brûlée","cumulative":true,"point_count":16,"extent_method":"cumulative_detection_extent_smoothed_landmasked_web_v1","local_cluster_link_m":10000.0,"model_version":"fire_progression_arrival_v1"},"geometry":{"type":"MultiPolygon","coordinates":[[[[2.187112244751327,44.58245455703034],[2.1897047126003883,44.58293803491526],[2.1947816559332836,44.5802742738532],[2.1976156275229553,44.58029489268647],[2.2013687804325333,44.58212267133236],[2.2027435161723234,44.58434342343292],[2.204596268140437,44.58403239925377],[2.2069880586074913,44.58303109976744],[2.208912020337425,44.581530356615374],[2.21031437486183,44.57915348624157],[2.209925198659183,44.57339187719558],[2.2144537573548138,44.570131082292654],[2.2159249670565764,44.56771673922774],[2.215963046714922,44.56497527381945],[2.214058661669716,44.56204995934758],[2.2103289211189794,44.560049234355205],[2.2077197996435247,44.559569047924654],[2.2050273303947523,44.55963747046362],[2.2014699459904143,44.5606610223221],[2.197472974707997,44.56341907594697],[2.1925245056641054,44.56429598602762],[2.1912880105972468,44.56559006019845],[2.1912457289901517,44.56710380407711],[2.1921401260886,44.56824878539814],[2.194769635914077,44.56984595685552],[2.1951424963336503,44.572022771469626],[2.193507979669747,44.573553757594716],[2.189303510220663,44.57470414101195],[2.18702150407129,44.57633732186618],[2.1863634357214465,44.577832250398295],[2.186748015376406,44.582019586888585],[2.187112244751327,44.58245455703034]]],[[[2.190972638741534,44.58387165225676],[2.19461720256953,44.58316067412178],[2.1990583862018513,44.584364460609116],[2.2014905082956275,44.584481771363784],[2.2007294254758896,44.58279326730096],[2.1963496745396522,44.58073583730195],[2.194142243646428,44.58094483120264],[2.1903280550700295,44.583392751802194],[2.1882739916503615,44.58337767982351],[2.189143463004985,44.58376712185414],[2.190972638741534,44.58387165225676]]]]}},{"type":"Feature","properties":{"category":"historical_support","snapshot_index":8,"pass_time_utc":"2026-08-14T00:54:00+00:00","dt_local":"2026-08-14T02:54:00+02:00","area_km2":7.125,"label":"Isoline temporelle","coherence_level":"indisponible","coherence_fraction":0.0,"projection_displayed":false,"model_version":"fire_progression_arrival_v1"},"geometry":{"type":"Polygon","coordinates":[[[2.1874582847166546,44.58584749486071],[2.187490690182371,44.58359699580361],[2.181192618166942,44.583550500244534],[2.1812252721794074,44.58130000511007],[2.1780763656387725,44.58127662365931],[2.1782074578095614,44.57227466726495],[2.181355862189536,44.57229804490161],[2.1813885031836926,44.570047559948584],[2.184536784651252,44.57007084690392],[2.184569297537232,44.567820363047495],[2.187717456091754,44.56784355932878],[2.187782223105287,44.56334259587643],[2.190930133260094,44.56336570054854],[2.190994639004362,44.55886474343743],[2.2035853014668545,44.55895625748723],[2.2036170486548,44.55670577829257],[2.213059695740305,44.55677346911044],[2.2130283249260003,44.55902395106587],[2.2161760044280507,44.55904633617076],[2.2161447565810595,44.5612968211026],[2.219292564043055,44.561319117405986],[2.219199182018457,44.56807058727716],[2.2160509980901084,44.56804828824561],[2.2159572171679307,44.574799773839636],[2.2128086591764324,44.57477738234311],[2.2127458750088307,44.57927838111857],[2.209597068434144,44.579255898051855],[2.2095655470364597,44.58150639957431],[2.2064166174177053,44.58148382584339],[2.2063849679378946,44.583734328475124],[2.190639730071948,44.58362010895805],[2.1906074501823674,44.58587060895784],[2.1874582847166546,44.58584749486071]]]}},{"type":"Feature","properties":{"category":"observed_front","snapshot_index":8,"pass_time_utc":"2026-08-14T00:54:00+00:00","dt_local":"2026-08-14T02:54:00+02:00","area_km2":3.875,"label":"Activité observée","coherence_level":"indisponible","coherence_fraction":0.0,"projection_displayed":false,"model_version":"fire_progression_arrival_v1"},"geometry":{"type":"Polygon","coordinates":[[[2.196969843746608,44.581415566168545],[2.1970018673742384,44.57916506835064],[2.1938530734690285,44.57914213656731],[2.1938852200894563,44.5768916417178],[2.190736554294583,44.57686862113039],[2.1908333553545285,44.57011715163044],[2.1876850687115326,44.570094044131245],[2.187782223105287,44.56334259587643],[2.190930133260094,44.56336570054854],[2.190994639004362,44.55886474343743],[2.2067329734354018,44.55897891172398],[2.2067013491838665,44.56122939390593],[2.2098491491414634,44.56125195935247],[2.2097861440394517,44.5657529317338],[2.2129341974748864,44.565775409299434],[2.2128086591764324,44.57477738234311],[2.209660103688196,44.57475490111025],[2.209597068434144,44.579255898051855],[2.2064482643733307,44.579233325241596],[2.2064166174177053,44.58148382584339],[2.196969843746608,44.581415566168545]]]}},{"type":"Feature","properties":{"category":"historical_support","snapshot_index":9,"pass_time_utc":"2026-08-14T01:39:00+00:00","dt_local":"2026-08-14T03:39:00+02:00","area_km2":7.125,"label":"Isoline temporelle","coherence_level":"indisponible","coherence_fraction":0.0,"projection_displayed":false,"model_version":"fire_progression_arrival_v1"},"geometry":{"type":"Polygon","coordinates":[[[2.1874582847166546,44.58584749486071],[2.187490690182371,44.58359699580361],[2.181192618166942,44.583550500244534],[2.1812252721794074,44.58130000511007],[2.1780763656387725,44.58127662365931],[2.1782074578095614,44.57227466726495],[2.181355862189536,44.57229804490161],[2.1813885031836926,44.570047559948584],[2.184536784651252,44.57007084690392],[2.184569297537232,44.567820363047495],[2.187717456091754,44.56784355932878],[2.187782223105287,44.56334259587643],[2.190930133260094,44.56336570054854],[2.190994639004362,44.55886474343743],[2.2035853014668545,44.55895625748723],[2.2036170486548,44.55670577829257],[2.213059695740305,44.55677346911044],[2.2130283249260003,44.55902395106587],[2.2161760044280507,44.55904633617076],[2.2161447565810595,44.5612968211026],[2.219292564043055,44.561319117405986],[2.219199182018457,44.56807058727716],[2.2160509980901084,44.56804828824561],[2.2159572171679307,44.574799773839636],[2.2128086591764324,44.57477738234311],[2.2127458750088307,44.57927838111857],[2.209597068434144,44.579255898051855],[2.2095655470364597,44.58150639957431],[2.2064166174177053,44.58148382584339],[2.2063849679378946,44.583734328475124],[2.190639730071948,44.58362010895805],[2.1906074501823674,44.58587060895784],[2.1874582847166546,44.58584749486071]]]}},{"type":"Feature","properties":{"category":"observed_front","snapshot_index":9,"pass_time_utc":"2026-08-14T01:39:00+00:00","dt_local":"2026-08-14T03:39:00+02:00","area_km2":3.5,"label":"Activité observée","coherence_level":"indisponible","coherence_fraction":0.0,"projection_displayed":false,"model_version":"fire_progression_arrival_v1"},"geometry":{"type":"Polygon","coordinates":[[[2.2001506638333668,44.57918791039088],[2.2001825593600595,44.576937413674536],[2.197033888447952,44.57691457256589],[2.197065906968053,44.57466407881765],[2.193917364146262,44.57464114890476],[2.1939495056397518,44.5723906581315],[2.190801090907666,44.57236763942177],[2.1908333553545285,44.57011715163044],[2.1876850687115326,44.570094044131245],[2.187782223105287,44.56334259587643],[2.190930133260094,44.56336570054854],[2.190994639004362,44.55886474343743],[2.2035853014668545,44.55895625748723],[2.2036170486548,44.55670577829257],[2.206764595165768,44.5567284316054],[2.2067329734354018,44.55897891172398],[2.2098806479251167,44.55900147625023],[2.209817647846342,44.56350244451478],[2.21296557579359,44.563524921163705],[2.2128086591764324,44.57477738234311],[2.209660103688196,44.57475490111025],[2.2096285873179564,44.57700539856272],[2.206479908805072,44.57698282667306],[2.2064482643733307,44.579233325241596],[2.2001506638333668,44.57918791039088]]]}},{"type":"Feature","properties":{"category":"historical_support","snapshot_index":10,"pass_time_utc":"2026-08-14T02:15:00+00:00","dt_local":"2026-08-14T04:15:00+02:00","area_km2":7.125,"label":"Isoline temporelle","coherence_level":"indisponible","coherence_fraction":0.0,"projection_displayed":false,"model_version":"fire_progression_arrival_v1"},"geometry":{"type":"Polygon","coordinates":[[[2.1874582847166546,44.58584749486071],[2.187490690182371,44.58359699580361],[2.181192618166942,44.583550500244534],[2.1812252721794074,44.58130000511007],[2.1780763656387725,44.58127662365931],[2.1782074578095614,44.57227466726495],[2.181355862189536,44.57229804490161],[2.1813885031836926,44.570047559948584],[2.184536784651252,44.57007084690392],[2.184569297537232,44.567820363047495],[2.187717456091754,44.56784355932878],[2.187782223105287,44.56334259587643],[2.190930133260094,44.56336570054854],[2.190994639004362,44.55886474343743],[2.2035853014668545,44.55895625748723],[2.2036170486548,44.55670577829257],[2.213059695740305,44.55677346911044],[2.2130283249260003,44.55902395106587],[2.2161760044280507,44.55904633617076],[2.2161447565810595,44.5612968211026],[2.219292564043055,44.561319117405986],[2.219199182018457,44.56807058727716],[2.2160509980901084,44.56804828824561],[2.2159572171679307,44.574799773839636],[2.2128086591764324,44.57477738234311],[2.2127458750088307,44.57927838111857],[2.209597068434144,44.579255898051855],[2.2095655470364597,44.58150639957431],[2.2064166174177053,44.58148382584339],[2.2063849679378946,44.583734328475124],[2.190639730071948,44.58362010895805],[2.1906074501823674,44.58587060895784],[2.1874582847166546,44.58584749486071]]]}},{"type":"Feature","properties":{"category":"observed_front","snapshot_index":10,"pass_time_utc":"2026-08-14T02:15:00+00:00","dt_local":"2026-08-14T04:15:00+02:00","area_km2":3.188,"label":"Activité observée","coherence_level":"indisponible","coherence_fraction":0.0,"projection_displayed":false,"model_version":"fire_progression_arrival_v1"},"geometry":{"type":"Polygon","coordinates":[[[2.2001506638333668,44.57918791039088],[2.2001825593600595,44.576937413674536],[2.1938852200894563,44.5768916417178],[2.1939495056397518,44.5723906581315],[2.190801090907666,44.57236763942177],[2.190930133260094,44.56336570054854],[2.194078045986687,44.563388715503386],[2.1941423007882297,44.55888775651507],[2.2098806479251167,44.55900147625023],[2.2098491491414634,44.56125195935247],[2.2129969516105286,44.56127443508473],[2.2128086591764324,44.57477738234311],[2.209660103688196,44.57475490111025],[2.2096285873179564,44.57700539856272],[2.20333123281577,44.57696016504364],[2.203299462836401,44.579210662687906],[2.2001506638333668,44.57918791039088]]]}},{"type":"Feature","properties":{"category":"historical_support","snapshot_index":11,"pass_time_utc":"2026-08-14T02:36:00+00:00","dt_local":"2026-08-14T04:36:00+02:00","area_km2":7.125,"label":"Isoline temporelle","coherence_level":"indisponible","coherence_fraction":0.0,"projection_displayed":false,"model_version":"fire_progression_arrival_v1"},"geometry":{"type":"Polygon","coordinates":[[[2.1874582847166546,44.58584749486071],[2.187490690182371,44.58359699580361],[2.181192618166942,44.583550500244534],[2.1812252721794074,44.58130000511007],[2.1780763656387725,44.58127662365931],[2.1782074578095614,44.57227466726495],[2.181355862189536,44.57229804490161],[2.1813885031836926,44.570047559948584],[2.184536784651252,44.57007084690392],[2.184569297537232,44.567820363047495],[2.187717456091754,44.56784355932878],[2.187782223105287,44.56334259587643],[2.190930133260094,44.56336570054854],[2.190994639004362,44.55886474343743],[2.2035853014668545,44.55895625748723],[2.2036170486548,44.55670577829257],[2.213059695740305,44.55677346911044],[2.2130283249260003,44.55902395106587],[2.2161760044280507,44.55904633617076],[2.2161447565810595,44.5612968211026],[2.219292564043055,44.561319117405986],[2.219199182018457,44.56807058727716],[2.2160509980901084,44.56804828824561],[2.2159572171679307,44.574799773839636],[2.2128086591764324,44.57477738234311],[2.2127458750088307,44.57927838111857],[2.209597068434144,44.579255898051855],[2.2095655470364597,44.58150639957431],[2.2064166174177053,44.58148382584339],[2.2063849679378946,44.583734328475124],[2.190639730071948,44.58362010895805],[2.1906074501823674,44.58587060895784],[2.1874582847166546,44.58584749486071]]]}},{"type":"Feature","properties":{"category":"observed_front","snapshot_index":11,"pass_time_utc":"2026-08-14T02:36:00+00:00","dt_local":"2026-08-14T04:36:00+02:00","area_km2":2.875,"label":"Activité observée","coherence_level":"indisponible","coherence_fraction":0.0,"projection_displayed":false,"model_version":"fire_progression_arrival_v1"},"geometry":{"type":"Polygon","coordinates":[[[2.1938530734690285,44.57914213656731],[2.1938852200894563,44.5768916417178],[2.190736554294583,44.57686862113039],[2.190930133260094,44.56336570054854],[2.194078045986687,44.563388715503386],[2.194110174668197,44.561138234979296],[2.197257964479903,44.561161159281816],[2.197289965133268,44.558910679882665],[2.2067329734354018,44.55897891172398],[2.2067013491838665,44.56122939390593],[2.2098491491414634,44.56125195935247],[2.209660103688196,44.57475490111025],[2.206511550713232,44.57473233014116],[2.206479908805072,44.57698282667306],[2.20333123281577,44.57696016504364],[2.203299462836401,44.579210662687906],[2.1938530734690285,44.57914213656731]]]}},{"type":"Feature","properties":{"category":"firms_extent_snapshot","snapshot_index":12,"pass_time_utc":"2026-08-14T04:00:00+00:00","dt_local":"2026-08-14T06:00:00+02:00","label":"Emprise FIRMS cumulée à ce passage","interpretation":"Enveloppe des détections FIRMS, pas une surface brûlée","cumulative":true,"point_count":28,"extent_method":"cumulative_detection_extent_smoothed_landmasked_web_v1","local_cluster_link_m":10000.0,"model_version":"fire_progression_arrival_v1"},"geometry":{"type":"MultiPolygon","coordinates":[[[[2.187112244751327,44.58245455703034],[2.1897047126003883,44.58293803491526],[2.1947816559332836,44.5802742738532],[2.1976156275229553,44.58029489268647],[2.2013687804325333,44.58212267133236],[2.202908294397077,44.584609593909775],[2.2029042463233077,44.58489616801563],[2.2035419524591364,44.584989348693924],[2.2070142404508872,44.5845216671186],[2.209478340029564,44.583500967375684],[2.2118447352010624,44.581481731025846],[2.212949648220971,44.57896898870843],[2.212841249942843,44.576989501996515],[2.211420007950075,44.574299912249614],[2.2114259265000986,44.57287754199876],[2.2149831600868666,44.569521479928596],[2.216077487797464,44.567063427798615],[2.2157629938532666,44.56438507348711],[2.214058661669716,44.56204995934758],[2.2103289211189794,44.560049234355205],[2.2077197996435247,44.559569047924654],[2.2050273303947523,44.55963747046362],[2.2007292033616155,44.56095060234162],[2.1974242243185262,44.56295625553987],[2.1925245056641054,44.56429598602762],[2.1912880105972468,44.56559006019845],[2.1912457289901517,44.56710380407711],[2.1921401260886,44.56824878539814],[2.194769635914077,44.56984595685552],[2.1951424963336503,44.572022771469626],[2.193507979669747,44.573553757594716],[2.189303510220663,44.57470414101195],[2.18702150407129,44.57633732186618],[2.1863634357214465,44.577832250398295],[2.186748015376406,44.582019586888585],[2.187112244751327,44.58245455703034]]],[[[2.190972638741534,44.58387165225676],[2.19461720256953,44.58316067412178],[2.1983109307829243,44.584224881814805],[2.2016775018002437,44.58471690671282],[2.2007294254758896,44.58279326730096],[2.1963496745396522,44.58073583730195],[2.194142243646428,44.58094483120264],[2.1903280550700295,44.583392751802194],[2.1882739916503615,44.58337767982351],[2.189143463004985,44.58376712185414],[2.190972638741534,44.58387165225676]]]]}},{"type":"Feature","properties":{"category":"historical_support","snapshot_index":12,"pass_time_utc":"2026-08-14T04:00:00+00:00","dt_local":"2026-08-14T06:00:00+02:00","area_km2":7.125,"label":"Isoline temporelle","coherence_level":"indisponible","coherence_fraction":0.0,"projection_displayed":false,"model_version":"fire_progression_arrival_v1"},"geometry":{"type":"Polygon","coordinates":[[[2.1874582847166546,44.58584749486071],[2.187490690182371,44.58359699580361],[2.181192618166942,44.583550500244534],[2.1812252721794074,44.58130000511007],[2.1780763656387725,44.58127662365931],[2.1782074578095614,44.57227466726495],[2.181355862189536,44.57229804490161],[2.1813885031836926,44.570047559948584],[2.184536784651252,44.57007084690392],[2.184569297537232,44.567820363047495],[2.187717456091754,44.56784355932878],[2.187782223105287,44.56334259587643],[2.190930133260094,44.56336570054854],[2.190994639004362,44.55886474343743],[2.2035853014668545,44.55895625748723],[2.2036170486548,44.55670577829257],[2.213059695740305,44.55677346911044],[2.2130283249260003,44.55902395106587],[2.2161760044280507,44.55904633617076],[2.2161447565810595,44.5612968211026],[2.219292564043055,44.561319117405986],[2.219199182018457,44.56807058727716],[2.2160509980901084,44.56804828824561],[2.2159572171679307,44.574799773839636],[2.2128086591764324,44.57477738234311],[2.2127458750088307,44.57927838111857],[2.209597068434144,44.579255898051855],[2.2095655470364597,44.58150639957431],[2.2064166174177053,44.58148382584339],[2.2063849679378946,44.583734328475124],[2.190639730071948,44.58362010895805],[2.1906074501823674,44.58587060895784],[2.1874582847166546,44.58584749486071]]]}},{"type":"Feature","properties":{"category":"observed_front","snapshot_index":12,"pass_time_utc":"2026-08-14T04:00:00+00:00","dt_local":"2026-08-14T06:00:00+02:00","area_km2":4.188,"label":"Activité observée","coherence_level":"indisponible","coherence_fraction":0.0,"projection_displayed":false,"model_version":"fire_progression_arrival_v1"},"geometry":{"type":"Polygon","coordinates":[[[2.200086865147956,44.58368890991978],[2.2001187657627668,44.581438409140404],[2.196969843746608,44.581415566168545],[2.1970018673742384,44.57916506835064],[2.1938530734690285,44.57914213656731],[2.194110174668197,44.561138234979296],[2.197257964479903,44.561161159281816],[2.197289965133268,44.558910679882665],[2.2035853014668545,44.55895625748723],[2.2036170486548,44.55670577829257],[2.2099121441976024,44.5567509952114],[2.2098806479251167,44.55900147625023],[2.2130283249260003,44.55902395106587],[2.2129969516105286,44.56127443508473],[2.2161447565810595,44.5612968211026],[2.2159572171679307,44.574799773839636],[2.2128086591764324,44.57477738234311],[2.2127458750088307,44.57927838111857],[2.209597068434144,44.579255898051855],[2.2095655470364597,44.58150639957431],[2.2064166174177053,44.58148382584339],[2.2063849679378946,44.583734328475124],[2.200086865147956,44.58368890991978]]]}},{"type":"Feature","properties":{"category":"firms_extent_snapshot","snapshot_index":13,"pass_time_utc":"2026-08-14T09:05:00+00:00","dt_local":"2026-08-14T11:05:00+02:00","label":"Emprise FIRMS cumulée à ce passage","interpretation":"Enveloppe des détections FIRMS, pas une surface brûlée","cumulative":true,"point_count":29,"extent_method":"cumulative_detection_extent_smoothed_landmasked_web_v1","local_cluster_link_m":10000.0,"model_version":"fire_progression_arrival_v1"},"geometry":{"type":"MultiPolygon","coordinates":[[[[2.187112244751327,44.58245455703034],[2.1897047126003883,44.58293803491526],[2.1947816559332836,44.5802742738532],[2.1976156275229553,44.58029489268647],[2.2013687804325333,44.58212267133236],[2.202908294397077,44.584609593909775],[2.2029042463233077,44.58489616801563],[2.2035419524591364,44.584989348693924],[2.2070142404508872,44.5845216671186],[2.209478340029564,44.583500967375684],[2.2118447352010624,44.581481731025846],[2.212949648220971,44.57896898870843],[2.212841249942843,44.576989501996515],[2.211420007950075,44.574299912249614],[2.2114259265000986,44.57287754199876],[2.2149831600868666,44.569521479928596],[2.216077487797464,44.567063427798615],[2.2157629938532666,44.56438507348711],[2.214058661669716,44.56204995934758],[2.2103289211189794,44.560049234355205],[2.2077197996435247,44.559569047924654],[2.2050273303947523,44.55963747046362],[2.2007292033616155,44.56095060234162],[2.1974242243185262,44.56295625553987],[2.1925245056641054,44.56429598602762],[2.1911142000950963,44.56637241291251],[2.1932758810946518,44.56981972464946],[2.192451748966091,44.57256947427807],[2.191431244959466,44.57370443318204],[2.187245336938228,44.57612618450536],[2.1863634357214465,44.577832250398295],[2.186748015376406,44.582019586888585],[2.187112244751327,44.58245455703034]]],[[[2.190972638741534,44.58387165225676],[2.19461720256953,44.58316067412178],[2.1983109307829243,44.584224881814805],[2.2016775018002437,44.58471690671282],[2.2007294254758896,44.58279326730096],[2.1963496745396522,44.58073583730195],[2.194142243646428,44.58094483120264],[2.1903280550700295,44.583392751802194],[2.1882739916503615,44.58337767982351],[2.189143463004985,44.58376712185414],[2.190972638741534,44.58387165225676]]]]}},{"type":"Feature","properties":{"category":"historical_support","snapshot_index":13,"pass_time_utc":"2026-08-14T09:05:00+00:00","dt_local":"2026-08-14T11:05:00+02:00","area_km2":7.75,"label":"Isoline temporelle","coherence_level":"indisponible","coherence_fraction":0.0,"projection_displayed":false,"model_version":"fire_progression_arrival_v1"},"geometry":{"type":"Polygon","coordinates":[[[2.1874582847166546,44.58584749486071],[2.187490690182371,44.58359699580361],[2.181192618166942,44.583550500244534],[2.1812252721794074,44.58130000511007],[2.1780763656387725,44.58127662365931],[2.1782074578095614,44.57227466726495],[2.181355862189536,44.57229804490161],[2.1813885031836926,44.570047559948584],[2.184536784651252,44.57007084690392],[2.184569297537232,44.567820363047495],[2.187717456091754,44.56784355932878],[2.187782223105287,44.56334259587643],[2.190930133260094,44.56336570054854],[2.190994639004362,44.55886474343743],[2.2035853014668545,44.55895625748723],[2.2036170486548,44.55670577829257],[2.213059695740305,44.55677346911044],[2.2130283249260003,44.55902395106587],[2.2161760044280507,44.55904633617076],[2.2161447565810595,44.5612968211026],[2.219292564043055,44.561319117405986],[2.2192614391833807,44.56356960530733],[2.2224093746059164,44.563591812801796],[2.2222543406206765,44.57484428762324],[2.2191057776526817,44.574822075599705],[2.2190746378979984,44.577072575791924],[2.212777268344412,44.577027880712485],[2.2127458750088307,44.57927838111857],[2.209597068434144,44.579255898051855],[2.2095655470364597,44.58150639957431],[2.2064166174177053,44.58148382584339],[2.2063849679378946,44.583734328475124],[2.190639730071948,44.58362010895805],[2.1906074501823674,44.58587060895784],[2.1874582847166546,44.58584749486071]]]}},{"type":"Feature","properties":{"category":"observed_front","snapshot_index":13,"pass_time_utc":"2026-08-14T09:05:00+00:00","dt_local":"2026-08-14T11:05:00+02:00","area_km2":3.625,"label":"Activité observée","coherence_level":"indisponible","coherence_fraction":0.0,"projection_displayed":false,"model_version":"fire_progression_arrival_v1"},"geometry":{"type":"Polygon","coordinates":[[[2.2001506638333668,44.57918791039088],[2.2001825593600595,44.576937413674536],[2.1938852200894563,44.5768916417178],[2.194045914743394,44.56563919808399],[2.1971939555184425,44.56566212425647],[2.197225961275063,44.56341164074086],[2.206669722410862,44.563479878147916],[2.2067013491838665,44.56122939390593],[2.2161447565810595,44.5612968211026],[2.2161135062426043,44.563547308094584],[2.2224093746059164,44.563591812801796],[2.2222543406206765,44.57484428762324],[2.2191057776526817,44.574822075599705],[2.2190746378979984,44.577072575791924],[2.2096285873179564,44.57700539856272],[2.209597068434144,44.579255898051855],[2.2001506638333668,44.57918791039088]]]}}]}