{"type":"FeatureCollection","name":"detection_envelopes","crs":{"type":"name","properties":{"name":"urn:ogc:def:crs:OGC:1.3:CRS84"}},"features":[{"type":"Feature","properties":{"cluster_id":1,"snapshot_index":1,"estimated_time_utc":"2026-08-13T01:11:00Z","observed_until_utc":"2026-08-13T01:11:00Z","target_time_utc":"2026-08-13T01:11:00Z","arrival_h":0.0,"hours_ago":13.3,"supported_detections_cumulative":3,"sources_cumulative":"VIIRS_NOAA20_NRT","last_source":"VIIRS_NOAA20_NRT","last_satellite":"N20","last_instrument":"VIIRS","detected_area_km2":0.7636936415254663,"product_type":"cumulative_active_fire_detection_extent"},"geometry":{"type":"MultiLineString","coordinates":[[[-1.978048180295246,47.76435732133368],[-1.979296534848666,47.76247075066197],[-1.982157688645125,47.7617318585197],[-1.984955767611636,47.76257343355391],[-1.986051830620647,47.76450254192144],[-1.984803667817323,47.76638918245678],[-1.981942300438979,47.76712813732141],[-1.979144029722373,47.76628649242354],[-1.978048180295246,47.76435732133368]],[[-2.006975507359458,47.761920331585294],[-2.010539193228149,47.76233294085215],[-2.012458232152079,47.76361089129037],[-2.012627596290905,47.76567354681256],[-2.010584006091047,47.76721279074993],[-2.008287008830868,47.76745229118748],[-2.005716200654158,47.76661734871769],[-2.003056296761167,47.76650111321305],[-2.000711566854054,47.76510885775256],[-2.000430908567321,47.763300119265935],[-2.001915762453764,47.76178189131798],[-2.004491977279844,47.76124337291265],[-2.006975507359458,47.761920331585294]]]}},{"type":"Feature","properties":{"cluster_id":1,"snapshot_index":2,"estimated_time_utc":"2026-08-13T02:53:00Z","observed_until_utc":"2026-08-13T02:53:00Z","target_time_utc":"2026-08-13T07:11:00Z","arrival_h":1.7,"hours_ago":11.6,"supported_detections_cumulative":11,"sources_cumulative":"VIIRS_NOAA20_NRT, VIIRS_NOAA21_NRT, VIIRS_SNPP_NRT","last_source":"VIIRS_NOAA20_NRT","last_satellite":"N20","last_instrument":"VIIRS","detected_area_km2":1.5469922154064155,"product_type":"cumulative_active_fire_detection_extent"},"geometry":{"type":"MultiLineString","coordinates":[[[-1.969951327817625,47.76257910688853],[-1.97108689956536,47.761260556329354],[-1.973505109691199,47.76016556844016],[-1.975764988469537,47.760219189760974],[-1.977895641849373,47.76103314200305],[-1.981036376448048,47.76084787785757],[-1.985211674781621,47.762774403557955],[-1.98595396495876,47.76502753082546],[-1.9847557841095,47.76641927865753],[-1.982335086349444,47.767122261807465],[-1.980359430812543,47.766876645202],[-1.976754276054093,47.76522692097889],[-1.974834963835606,47.765834424264604],[-1.972953228262951,47.76585206418282],[-1.97041810684767,47.76462080794509],[-1.969951327817625,47.76257910688853]],[[-2.007407882725125,47.76164022566015],[-2.007526103492423,47.76211544744375],[-2.009734979163328,47.76214766272078],[-2.011470869582099,47.76273974355155],[-2.012851893182108,47.7648516261484],[-2.012296466788069,47.7661532614864],[-2.010184674120172,47.76778858407988],[-2.007323583971886,47.76852815841247],[-2.001767964986102,47.76690349126814],[-2.00021945424515,47.765414407130756],[-1.999446792567072,47.76111018575821],[-2.00100110119152,47.75828086456453],[-2.002173943070434,47.75728868709585],[-2.005128215190445,47.756741863224974],[-2.007790675047294,47.75776378943591],[-2.008629210885121,47.75953588014626],[-2.007407882725125,47.76164022566015]]]}},{"type":"Feature","properties":{"cluster_id":1,"snapshot_index":3,"estimated_time_utc":"2026-08-13T12:40:00Z","observed_until_utc":"2026-08-13T12:40:00Z","target_time_utc":"2026-08-13T13:11:00Z","arrival_h":11.483333333333333,"hours_ago":1.8166666666666667,"supported_detections_cumulative":15,"sources_cumulative":"VIIRS_NOAA20_NRT, VIIRS_NOAA21_NRT, VIIRS_SNPP_NRT","last_source":"VIIRS_NOAA20_NRT","last_satellite":"N20","last_instrument":"VIIRS","detected_area_km2":1.9840108605139433,"product_type":"cumulative_active_fire_detection_extent"},"geometry":{"type":"MultiLineString","coordinates":[[[-1.970361844320139,47.76188377243534],[-1.972097023731507,47.76062127790312],[-1.973889947548975,47.760112406700685],[-1.975764988469537,47.760219189760974],[-1.977895641849373,47.76103314200305],[-1.981414733346994,47.76091912973689],[-1.985437136126693,47.76299131775825],[-1.985848306803935,47.76528265044917],[-1.98348200361001,47.766950531999115],[-1.981099894559881,47.767052000575056],[-1.979080072969801,47.76623877940258],[-1.977483345887018,47.76828865425197],[-1.97569018104505,47.76879757814716],[-1.973814838123418,47.76869079439753],[-1.971318362025405,47.76705382096047],[-1.971275927038954,47.765290749247114],[-1.969883543380779,47.76363125841967],[-1.970361844320139,47.76188377243534]],[[-1.999373190541522,47.7637881583091],[-1.997167931377501,47.76329340489054],[-1.995742065743736,47.76205594832227],[-1.995576171997701,47.76049291875422],[-1.996726066248417,47.759131156860036],[-1.999860323536641,47.75840518336002],[-2.000993877089432,47.75717115102654],[-2.003023926260844,47.75649965219672],[-2.007395002768184,47.75660767228855],[-2.0094146313543,47.757382821401],[-2.010370013651209,47.75852538306658],[-2.010398867906237,47.759879680308565],[-2.009535749796471,47.76100714328816],[-2.007526103492423,47.76211544744375],[-2.011161649678262,47.76257636632816],[-2.012847178921617,47.76463086213734],[-2.012329310486945,47.766115082151195],[-2.010184674120172,47.76778858407988],[-2.00686692644472,47.7685022827942],[-2.002099448212273,47.76704567224725],[-2.000658807636334,47.7661016902593],[-2.000164108968954,47.76414608086838],[-1.999373190541522,47.7637881583091]]]}},{"type":"Feature","properties":{"cluster_id":1,"snapshot_index":4,"estimated_time_utc":"2026-08-13T14:29:00Z","observed_until_utc":"2026-08-13T14:29:00Z","target_time_utc":"2026-08-13T14:29:00Z","arrival_h":13.3,"hours_ago":0.0,"supported_detections_cumulative":27,"sources_cumulative":"MODIS_NRT, VIIRS_NOAA20_NRT, VIIRS_NOAA21_NRT, VIIRS_SNPP_NRT","last_source":"MODIS_NRT","last_satellite":"Aqua","last_instrument":"MODIS","detected_area_km2":12.733338506858008,"product_type":"cumulative_active_fire_detection_extent"},"geometry":{"type":"LineString","coordinates":[[-1.965565999580691,47.75526948504416],[-1.966661323140455,47.75343172356383],[-1.969201012356584,47.75148869355477],[-1.971767029666081,47.750525238449555],[-1.974702513194878,47.750102769530635],[-1.979482256642397,47.75070827026504],[-1.983497699588282,47.752980116229004],[-1.990484103820503,47.75277902022097],[-1.992865614304961,47.754230322395685],[-1.996407618624572,47.75243058498991],[-1.997316561390185,47.74979152415741],[-2.000360373212065,47.74723350763763],[-2.004832450975835,47.745945101507736],[-2.009615025692634,47.74621620917989],[-2.012282061636492,47.74714470219494],[-2.01438162660335,47.74852955675253],[-2.015794833713753,47.750265811390804],[-2.016716255069282,47.75282726396525],[-2.020831961481016,47.75419429477648],[-2.023930772448589,47.75666648755604],[-2.024947023769288,47.75920919170704],[-2.024665393131964,47.76129878349766],[-2.026587740299002,47.762835316885074],[-2.02793452269877,47.76526104534055],[-2.027544199001164,47.76853032382422],[-2.024913859660085,47.77128948139222],[-2.020601243937802,47.77289814975548],[-2.016701882309405,47.77305681557552],[-2.0115775929143,47.771815725222346],[-2.008041379107092,47.77375035168708],[-2.004442569967103,47.77465774483413],[-2.000537935428812,47.77457466872923],[-1.996298218767797,47.77343718285857],[-1.992805566030193,47.77535780712162],[-1.990047652514906,47.77615880021566],[-1.986147961262083,47.776316448616356],[-1.981053570922615,47.77508691230995],[-1.977594090346109,47.77697848948401],[-1.974899152320934,47.77776780487352],[-1.971980297166581,47.7779957472416],[-1.969088984774607,47.77764267942979],[-1.965704216018279,47.77632764081806],[-1.963323868382832,47.77423953200001],[-1.962293546702885,47.771034075959705],[-1.963269438770201,47.76834510562011],[-1.961248710419572,47.76754375592601],[-1.960206713380443,47.76591152641768],[-1.960835085839093,47.76426185304202],[-1.960157919886231,47.76220208513654],[-1.960669331526232,47.75963502116147],[-1.962047967592618,47.75783681122112],[-1.965399109791633,47.75586717626426],[-1.965565999580691,47.75526948504416]]}}],"metadata":{"generated_at_utc":"2026-08-17T16:42:59.924893Z","product_type":"cumulative_active_fire_detection_extent","product_label":"Emprises cumulées des détections actives FIRMS","not_a_burn_perimeter":true,"not_a_continuous_fire_front":true,"not_an_arrival_time_interpolation":true,"snapshot_step_hours":6,"confidence_filter":{"VIIRS":["nominal","high"],"MODIS_minimum":30},"footprint_radius_m":{"VIIRS":300.0,"MODIS":750.0},"same_pass_neighbour_m":2000.0,"continuity_distance_m":3000.0,"clusters":[{"cluster_id":1,"first_supported_detection_utc":"2026-08-13T01:11:00Z","last_supported_detection_utc":"2026-08-13T14:29:00Z","pass_states":11,"published_snapshots":4,"final_detected_area_km2":4.3234483970238236}]},"bbox":[-2.02793452269877,47.745945101507736,-1.9601579198862313,47.7779957472416]}