{"type":"FeatureCollection","name":"fire_progression_arrival_v1","features":[{"type":"Feature","properties":{"category":"arrival_step","arrival_snapshot_index":1,"first_detected_utc":"2026-08-13T01:11:00+00:00","first_detected_local":"2026-08-13T03:11:00+02:00","area_km2":2.5,"label":"Première détection FIRMS","model_version":"fire_progression_arrival_v1"},"geometry":{"type":"Polygon","coordinates":[[[-2.013177857237923,47.770149918839955],[-2.0129661074836775,47.76790436585819],[-2.0162968829979135,47.767761566662266],[-2.0158731572407382,47.76327046278948],[-2.019203635048365,47.76312758055709],[-2.0189916590782984,47.76088202967625],[-2.0156613211689396,47.76102490606108],[-2.0152377026276254,47.75653378303805],[-2.0119076266160216,47.75667655301558],[-2.011695984007407,47.754430980885175],[-1.9983760610425667,47.75500109031718],[-1.9985871441669805,47.75724668578051],[-1.9952569790125787,47.757388982181745],[-1.9956789188906494,47.76188017520836],[-1.992348456149834,47.76202238853239],[-1.9925593128706238,47.76426798608552],[-1.995889915525482,47.76412576694098],[-1.9963119621979866,47.76861694082701],[-1.99964282691136,47.76847461530383],[-1.999854016900451,47.770720191624946],[-2.013177857237923,47.770149918839955]]]}},{"type":"Feature","properties":{"category":"arrival_step","arrival_snapshot_index":2,"first_detected_utc":"2026-08-13T01:58:00+00:00","first_detected_local":"2026-08-13T03:58:00+02:00","area_km2":3.125,"label":"Première détection FIRMS","model_version":"fire_progression_arrival_v1"},"geometry":{"type":"Polygon","coordinates":[[[-1.9894394270085578,47.76665571067875],[-1.9892286924272777,47.76441011050028],[-1.9925593128706238,47.76426798608552],[-1.992348456149834,47.76202238853239],[-1.9956789188906494,47.76188017520836],[-1.9952569790125787,47.757388982181745],[-1.9985871441669805,47.75724668578051],[-1.9983760610425667,47.75500109031718],[-2.011695984007407,47.754430980885175],[-2.011484359248503,47.75218540557576],[-2.004824713132891,47.75247063804092],[-2.0046133859122346,47.750225047882964],[-2.0012836759612704,47.75036751622385],[-2.001494863333151,47.75261311221256],[-1.9915052071066026,47.75303996647483],[-1.9917159926959154,47.75528557675886],[-1.9850558532312672,47.75556968434315],[-1.9848453473831387,47.753324062431794],[-1.9715254149836332,47.75389111779623],[-1.9717353613224884,47.756136762915965],[-1.9684051940428433,47.75627829576409],[-1.9690347196050324,47.76301522943325],[-1.965704114902121,47.76315668492924],[-1.9659138522297799,47.76540232890765],[-1.969244596864674,47.76526086762202],[-1.9694544918308345,47.76750650262104],[-1.9894394270085578,47.76665571067875]]]}},{"type":"Feature","properties":{"category":"arrival_step","arrival_snapshot_index":5,"first_detected_utc":"2026-08-13T11:45:00+00:00","first_detected_local":"2026-08-13T13:45:00+02:00","area_km2":0.562,"label":"Première détection FIRMS","model_version":"fire_progression_arrival_v1"},"geometry":{"type":"Polygon","coordinates":[[[-2.011484359248503,47.75218540557576],[-2.011272752337054,47.74993982709093],[-2.007943078041395,47.750082484838416],[-2.0077316288077176,47.74783689734346],[-1.9944133127598533,47.74840655798238],[-1.9946242026407268,47.750652168791596],[-1.9912944392945446,47.75079435301698],[-1.9915052071066026,47.75303996647483],[-2.001494863333151,47.75261311221256],[-2.0012836759612704,47.75036751622385],[-2.0046133859122346,47.750225047882964],[-2.004824713132891,47.75247063804092],[-2.011484359248503,47.75218540557576]]]}},{"type":"Feature","properties":{"category":"arrival_step","arrival_snapshot_index":8,"first_detected_utc":"2026-08-13T13:25:00+00:00","first_detected_local":"2026-08-13T15:25:00+02:00","area_km2":1.5,"label":"Première détection FIRMS","model_version":"fire_progression_arrival_v1"},"geometry":{"type":"Polygon","coordinates":[[[-1.9831988156466467,47.77143090095309],[-1.9829883254146496,47.769185295544624],[-1.9896501793688632,47.76890130766231],[-1.9894394270085578,47.76665571067875],[-1.9694544918308345,47.76750650262104],[-1.969244596864674,47.76526086762202],[-1.9659138522297799,47.76540232890765],[-1.965704114902121,47.76315668492924],[-1.9690347196050324,47.76301522943325],[-1.9684051940428433,47.75627829576409],[-1.961744806402546,47.7565610773011],[-1.9621639127940598,47.76105239274355],[-1.9588334126424614,47.761193652993505],[-1.9594617850156546,47.76793061962835],[-1.9627927049766152,47.767789342032586],[-1.9630023377384793,47.77003498541483],[-1.9696644045057512,47.76975213442675],[-1.9698743348916614,47.77199776303564],[-1.9831988156466467,47.77143090095309]]]}},{"type":"Feature","properties":{"category":"arrival_step","arrival_snapshot_index":10,"first_detected_utc":"2026-08-13T14:20:00+00:00","first_detected_local":"2026-08-13T16:20:00+02:00","area_km2":0.375,"label":"Première détection FIRMS","model_version":"fire_progression_arrival_v1"},"geometry":{"type":"Polygon","coordinates":[[[-1.9594617850156546,47.76793061962835],[-1.9588334126424614,47.761193652993505],[-1.9621639127940598,47.76105239274355],[-1.961744806402546,47.7565610773011],[-1.9584145860653066,47.756702325988535],[-1.9586239905215426,47.75894799108016],[-1.9552936126182916,47.75908915082318],[-1.9561308473810766,47.7680718024831],[-1.9594617850156546,47.76793061962835]]]}},{"type":"Feature","properties":{"category":"arrival_step","arrival_snapshot_index":11,"first_detected_utc":"2026-08-13T14:29:00+00:00","first_detected_local":"2026-08-13T16:29:00+02:00","area_km2":1.125,"label":"Première détection FIRMS","model_version":"fire_progression_arrival_v1"},"geometry":{"type":"Polygon","coordinates":[[[-1.9883859318474888,47.755427677908564],[-1.9879646581733554,47.75093644253573],[-1.984634859288859,47.75107843734712],[-1.9844243889461863,47.74883280909273],[-1.9810947121606373,47.74897470338866],[-1.9808843994061833,47.746729066160995],[-1.9708956822003483,47.747154163417875],[-1.9711055754248,47.74939981804363],[-1.9677758277587918,47.74954133351522],[-1.9679855988262986,47.75178699076777],[-1.9646556936076813,47.7519284173195],[-1.9650750090656282,47.75641973389272],[-1.9717353613224884,47.756136762915965],[-1.9715254149836332,47.75389111779623],[-1.9848453473831387,47.753324062431794],[-1.9850558532312672,47.75556968434315],[-1.9883859318474888,47.755427677908564]]]}},{"type":"Feature","properties":{"category":"firms_extent_snapshot","snapshot_index":1,"pass_time_utc":"2026-08-13T01:11:00+00:00","dt_local":"2026-08-13T03:11:00+02:00","label":"Emprise FIRMS cumulée à ce passage","interpretation":"Enveloppe des détections FIRMS, pas une surface brûlée","cumulative":true,"point_count":3,"extent_method":"cumulative_detection_extent_smoothed_landmasked_web_v1","local_cluster_link_m":10000.0,"model_version":"fire_progression_arrival_v1"},"geometry":{"type":"MultiPolygon","coordinates":[[[[-1.9860447599105329,47.764259769879324],[-1.9850532916558252,47.766214148305025],[-1.9823023935404631,47.76712338212949],[-1.979403628653448,47.76645480204169],[-1.9780552145531867,47.76460009384412],[-1.97904690963617,47.76264577290893],[-1.9817976319958146,47.76173661328107],[-1.9846961700545542,47.762405135878346],[-1.9860447599105329,47.764259769879324]]],[[[-2.0128447002154206,47.764608855785546],[-2.0115804626723066,47.766753406715445],[-2.0083195062378136,47.7674549465767],[-2.0019816774958668,47.76613038456701],[-2.0006921136507354,47.765078426878134],[-2.0003526620605716,47.763582126204355],[-2.0018899993762336,47.76179550456233],[-2.0048506596803963,47.761265066298954],[-2.0109280460695773,47.76247436685877],[-2.0122533201923374,47.76335944927181],[-2.0128447002154206,47.764608855785546]]]]}},{"type":"Feature","properties":{"category":"historical_support","snapshot_index":1,"pass_time_utc":"2026-08-13T01:11:00+00:00","dt_local":"2026-08-13T03:11:00+02:00","area_km2":2.5,"label":"Isoline temporelle","coherence_level":"indisponible","coherence_fraction":0.0,"projection_displayed":false,"model_version":"fire_progression_arrival_v1"},"geometry":{"type":"Polygon","coordinates":[[[-2.013177857237923,47.770149918839955],[-2.0129661074836775,47.76790436585819],[-2.0162968829979135,47.767761566662266],[-2.0158731572407382,47.76327046278948],[-2.019203635048365,47.76312758055709],[-2.0189916590782984,47.76088202967625],[-2.0156613211689396,47.76102490606108],[-2.0152377026276254,47.75653378303805],[-2.0119076266160216,47.75667655301558],[-2.011695984007407,47.754430980885175],[-1.9983760610425667,47.75500109031718],[-1.9985871441669805,47.75724668578051],[-1.9952569790125787,47.757388982181745],[-1.9956789188906494,47.76188017520836],[-1.992348456149834,47.76202238853239],[-1.9925593128706238,47.76426798608552],[-1.995889915525482,47.76412576694098],[-1.9963119621979866,47.76861694082701],[-1.99964282691136,47.76847461530383],[-1.999854016900451,47.770720191624946],[-2.013177857237923,47.770149918839955]]]}},{"type":"Feature","properties":{"category":"observed_front","snapshot_index":1,"pass_time_utc":"2026-08-13T01:11:00+00:00","dt_local":"2026-08-13T03:11:00+02:00","area_km2":2.5,"label":"Activité observée","coherence_level":"indisponible","coherence_fraction":0.0,"projection_displayed":false,"model_version":"fire_progression_arrival_v1"},"geometry":{"type":"Polygon","coordinates":[[[-2.013177857237923,47.770149918839955],[-2.0129661074836775,47.76790436585819],[-2.0162968829979135,47.767761566662266],[-2.0158731572407382,47.76327046278948],[-2.019203635048365,47.76312758055709],[-2.0189916590782984,47.76088202967625],[-2.0156613211689396,47.76102490606108],[-2.0152377026276254,47.75653378303805],[-2.0119076266160216,47.75667655301558],[-2.011695984007407,47.754430980885175],[-1.9983760610425667,47.75500109031718],[-1.9985871441669805,47.75724668578051],[-1.9952569790125787,47.757388982181745],[-1.9956789188906494,47.76188017520836],[-1.992348456149834,47.76202238853239],[-1.9925593128706238,47.76426798608552],[-1.995889915525482,47.76412576694098],[-1.9963119621979866,47.76861694082701],[-1.99964282691136,47.76847461530383],[-1.999854016900451,47.770720191624946],[-2.013177857237923,47.770149918839955]]]}},{"type":"Feature","properties":{"category":"historical_support","snapshot_index":2,"pass_time_utc":"2026-08-13T01:58:00+00:00","dt_local":"2026-08-13T03:58:00+02:00","area_km2":5.625,"label":"Isoline temporelle","coherence_level":"indisponible","coherence_fraction":0.0,"projection_displayed":false,"model_version":"fire_progression_arrival_v1"},"geometry":{"type":"Polygon","coordinates":[[[-2.013177857237923,47.770149918839955],[-2.0129661074836775,47.76790436585819],[-2.0162968829979135,47.767761566662266],[-2.0158731572407382,47.76327046278948],[-2.019203635048365,47.76312758055709],[-2.0189916590782984,47.76088202967625],[-2.0156613211689396,47.76102490606108],[-2.0152377026276254,47.75653378303805],[-2.0119076266160216,47.75667655301558],[-2.011484359248503,47.75218540557576],[-2.004824713132891,47.75247063804092],[-2.0046133859122346,47.750225047882964],[-2.0012836759612704,47.75036751622385],[-2.001494863333151,47.75261311221256],[-1.9915052071066026,47.75303996647483],[-1.9917159926959154,47.75528557675886],[-1.9850558532312672,47.75556968434315],[-1.9848453473831387,47.753324062431794],[-1.9715254149836332,47.75389111779623],[-1.9717353613224884,47.756136762915965],[-1.9684051940428433,47.75627829576409],[-1.9690347196050324,47.76301522943325],[-1.965704114902121,47.76315668492924],[-1.9659138522297799,47.76540232890765],[-1.969244596864674,47.76526086762202],[-1.9694544918308345,47.76750650262104],[-1.9894394270085578,47.76665571067875],[-1.9892286924272777,47.76441011050028],[-1.995889915525482,47.76412576694098],[-1.9963119621979866,47.76861694082701],[-1.99964282691136,47.76847461530383],[-1.999854016900451,47.770720191624946],[-2.013177857237923,47.770149918839955]]]}},{"type":"Feature","properties":{"category":"observed_front","snapshot_index":2,"pass_time_utc":"2026-08-13T01:58:00+00:00","dt_local":"2026-08-13T03:58:00+02:00","area_km2":4.938,"label":"Activité observée","coherence_level":"indisponible","coherence_fraction":0.0,"projection_displayed":false,"model_version":"fire_progression_arrival_v1"},"geometry":{"type":"Polygon","coordinates":[[[-2.0063045028771738,47.768189680050114],[-2.0060930508408243,47.76594411219118],[-2.0127543755926802,47.76565880967612],[-2.012542661562672,47.76341325029726],[-2.0158731572407382,47.76327046278948],[-2.0152377026276254,47.75653378303805],[-2.0119076266160216,47.75667655301558],[-2.011484359248503,47.75218540557576],[-2.004824713132891,47.75247063804092],[-2.0046133859122346,47.750225047882964],[-2.0012836759612704,47.75036751622385],[-2.001494863333151,47.75261311221256],[-1.9915052071066026,47.75303996647483],[-1.9917159926959154,47.75528557675886],[-1.9850558532312672,47.75556968434315],[-1.9848453473831387,47.753324062431794],[-1.9715254149836332,47.75389111779623],[-1.9717353613224884,47.756136762915965],[-1.9684051940428433,47.75627829576409],[-1.9690347196050324,47.76301522943325],[-1.965704114902121,47.76315668492924],[-1.9659138522297799,47.76540232890765],[-1.969244596864674,47.76526086762202],[-1.9694544918308345,47.76750650262104],[-1.9894394270085578,47.76665571067875],[-1.9892286924272777,47.76441011050028],[-1.995889915525482,47.76412576694098],[-1.9961009299605115,47.76637135548171],[-2.0027623617026804,47.76608662135304],[-2.002973673808325,47.76833219504463],[-2.0063045028771738,47.768189680050114]]]}},{"type":"Feature","properties":{"category":"historical_support","snapshot_index":3,"pass_time_utc":"2026-08-13T02:34:00+00:00","dt_local":"2026-08-13T04:34:00+02:00","area_km2":5.625,"label":"Isoline temporelle","coherence_level":"indisponible","coherence_fraction":0.0,"projection_displayed":false,"model_version":"fire_progression_arrival_v1"},"geometry":{"type":"Polygon","coordinates":[[[-2.013177857237923,47.770149918839955],[-2.0129661074836775,47.76790436585819],[-2.0162968829979135,47.767761566662266],[-2.0158731572407382,47.76327046278948],[-2.019203635048365,47.76312758055709],[-2.0189916590782984,47.76088202967625],[-2.0156613211689396,47.76102490606108],[-2.0152377026276254,47.75653378303805],[-2.0119076266160216,47.75667655301558],[-2.011484359248503,47.75218540557576],[-2.004824713132891,47.75247063804092],[-2.0046133859122346,47.750225047882964],[-2.0012836759612704,47.75036751622385],[-2.001494863333151,47.75261311221256],[-1.9915052071066026,47.75303996647483],[-1.9917159926959154,47.75528557675886],[-1.9850558532312672,47.75556968434315],[-1.9848453473831387,47.753324062431794],[-1.9715254149836332,47.75389111779623],[-1.9717353613224884,47.756136762915965],[-1.9684051940428433,47.75627829576409],[-1.9690347196050324,47.76301522943325],[-1.965704114902121,47.76315668492924],[-1.9659138522297799,47.76540232890765],[-1.969244596864674,47.76526086762202],[-1.9694544918308345,47.76750650262104],[-1.9894394270085578,47.76665571067875],[-1.9892286924272777,47.76441011050028],[-1.995889915525482,47.76412576694098],[-1.9963119621979866,47.76861694082701],[-1.99964282691136,47.76847461530383],[-1.999854016900451,47.770720191624946],[-2.013177857237923,47.770149918839955]]]}},{"type":"Feature","properties":{"category":"observed_front","snapshot_index":3,"pass_time_utc":"2026-08-13T02:34:00+00:00","dt_local":"2026-08-13T04:34:00+02:00","area_km2":3.125,"label":"Activité observée","coherence_level":"indisponible","coherence_fraction":0.0,"projection_displayed":false,"model_version":"fire_progression_arrival_v1"},"geometry":{"type":"MultiPolygon","coordinates":[[[[-1.99964282691136,47.76847461530383],[-1.999431654738674,47.76622903578346],[-1.9961009299605115,47.76637135548171],[-1.9956789188906494,47.76188017520836],[-1.992348456149834,47.76202238853239],[-1.991926796064727,47.75753118386551],[-1.9952569790125787,47.757388982181745],[-1.994835110308307,47.752897776430274],[-2.011484359248503,47.75218540557576],[-2.0119076266160216,47.75667655301558],[-2.0152377026276254,47.75653378303805],[-2.0156613211689396,47.76102490606108],[-2.0189916590782984,47.76088202967625],[-2.019203635048365,47.76312758055709],[-2.0158731572407382,47.76327046278948],[-2.016085011182978,47.765516016324405],[-2.0127543755926802,47.76565880967612],[-2.0129661074836775,47.76790436585819],[-1.99964282691136,47.76847461530383]]],[[[-1.969244596864674,47.76526086762202],[-1.9686150181963538,47.75852394350074],[-1.9786058865729066,47.758099043411086],[-1.979236724483401,47.76483591535844],[-1.969244596864674,47.76526086762202]]]]}},{"type":"Feature","properties":{"category":"firms_extent_snapshot","snapshot_index":4,"pass_time_utc":"2026-08-13T02:53:00+00:00","dt_local":"2026-08-13T04:53:00+02:00","label":"Emprise FIRMS cumulée à ce passage","interpretation":"Enveloppe des détections FIRMS, pas une surface brûlée","cumulative":true,"point_count":11,"extent_method":"cumulative_detection_extent_smoothed_landmasked_web_v1","local_cluster_link_m":10000.0,"model_version":"fire_progression_arrival_v1"},"geometry":{"type":"MultiPolygon","coordinates":[[[[-1.981518163136446,47.76710482555122],[-1.977488684756922,47.76569854441691],[-1.9736991894397073,47.765917083684464],[-1.9719018340839487,47.76558037623126],[-1.9702457115602543,47.764407616063345],[-1.969872920929838,47.76286109355496],[-1.9705461112649032,47.761688149430135],[-1.972071253593248,47.76063488459544],[-1.975032146240937,47.76010519987995],[-1.9778177751574508,47.760811743915006],[-1.9821594891898955,47.76114600837134],[-1.9851799659813325,47.76274908608479],[-1.9860447599105329,47.764259769879324],[-1.984779451141717,47.766404031805045],[-1.981518163136446,47.76710482555122]]],[[[-2.008458193688569,47.76843820372583],[-2.0061355573419957,47.76838375057536],[-2.001374376801568,47.76668782285858],[-2.0002114394639454,47.76539300918119],[-1.9994099157254792,47.76139600588478],[-2.001682012951774,47.75759584331758],[-2.0043765135769234,47.75672665453912],[-2.007335132344998,47.75743209389205],[-2.008475113592659,47.75867387608124],[-2.0090603799241324,47.7612852372198],[-2.012030415203287,47.76314137975699],[-2.0128447002154206,47.764608855785546],[-2.0120495993384435,47.766400324759395],[-2.008458193688569,47.76843820372583]]]]}},{"type":"Feature","properties":{"category":"historical_support","snapshot_index":4,"pass_time_utc":"2026-08-13T02:53:00+00:00","dt_local":"2026-08-13T04:53:00+02:00","area_km2":5.625,"label":"Isoline temporelle","coherence_level":"indisponible","coherence_fraction":0.0,"projection_displayed":false,"model_version":"fire_progression_arrival_v1"},"geometry":{"type":"Polygon","coordinates":[[[-2.013177857237923,47.770149918839955],[-2.0129661074836775,47.76790436585819],[-2.0162968829979135,47.767761566662266],[-2.0158731572407382,47.76327046278948],[-2.019203635048365,47.76312758055709],[-2.0189916590782984,47.76088202967625],[-2.0156613211689396,47.76102490606108],[-2.0152377026276254,47.75653378303805],[-2.0119076266160216,47.75667655301558],[-2.011484359248503,47.75218540557576],[-2.004824713132891,47.75247063804092],[-2.0046133859122346,47.750225047882964],[-2.0012836759612704,47.75036751622385],[-2.001494863333151,47.75261311221256],[-1.9915052071066026,47.75303996647483],[-1.9917159926959154,47.75528557675886],[-1.9850558532312672,47.75556968434315],[-1.9848453473831387,47.753324062431794],[-1.9715254149836332,47.75389111779623],[-1.9717353613224884,47.756136762915965],[-1.9684051940428433,47.75627829576409],[-1.9690347196050324,47.76301522943325],[-1.965704114902121,47.76315668492924],[-1.9659138522297799,47.76540232890765],[-1.969244596864674,47.76526086762202],[-1.9694544918308345,47.76750650262104],[-1.9894394270085578,47.76665571067875],[-1.9892286924272777,47.76441011050028],[-1.995889915525482,47.76412576694098],[-1.9963119621979866,47.76861694082701],[-1.99964282691136,47.76847461530383],[-1.999854016900451,47.770720191624946],[-2.013177857237923,47.770149918839955]]]}},{"type":"Feature","properties":{"category":"observed_front","snapshot_index":4,"pass_time_utc":"2026-08-13T02:53:00+00:00","dt_local":"2026-08-13T04:53:00+02:00","area_km2":1.312,"label":"Activité observée","coherence_level":"indisponible","coherence_fraction":0.0,"projection_displayed":false,"model_version":"fire_progression_arrival_v1"},"geometry":{"type":"Polygon","coordinates":[[[-2.0096353141061947,47.768047070321074],[-2.009423722141393,47.76580150829863],[-2.0127543755926802,47.76565880967612],[-2.012119287076599,47.75892212196344],[-2.008789053333656,47.75906480306647],[-2.0085775327524513,47.756819228279326],[-1.9985871441669805,47.75724668578051],[-1.9987982450965474,47.759492278062346],[-1.9954679400537652,47.75963458028743],[-1.9961009299605115,47.76637135548171],[-1.999431654738674,47.76622903578346],[-1.99964282691136,47.76847461530383],[-2.0096353141061947,47.768047070321074]]]}},{"type":"Feature","properties":{"category":"historical_support","snapshot_index":5,"pass_time_utc":"2026-08-13T11:45:00+00:00","dt_local":"2026-08-13T13:45:00+02:00","area_km2":6.188,"label":"Isoline temporelle","coherence_level":"indisponible","coherence_fraction":0.0,"projection_displayed":false,"model_version":"fire_progression_arrival_v1"},"geometry":{"type":"Polygon","coordinates":[[[-2.013177857237923,47.770149918839955],[-2.0129661074836775,47.76790436585819],[-2.0162968829979135,47.767761566662266],[-2.0158731572407382,47.76327046278948],[-2.019203635048365,47.76312758055709],[-2.0189916590782984,47.76088202967625],[-2.0156613211689396,47.76102490606108],[-2.0152377026276254,47.75653378303805],[-2.0119076266160216,47.75667655301558],[-2.011272752337054,47.74993982709093],[-2.007943078041395,47.750082484838416],[-2.0077316288077176,47.74783689734346],[-1.9944133127598533,47.74840655798238],[-1.9946242026407268,47.750652168791596],[-1.9912944392945446,47.75079435301698],[-1.9917159926959154,47.75528557675886],[-1.9850558532312672,47.75556968434315],[-1.9848453473831387,47.753324062431794],[-1.9715254149836332,47.75389111779623],[-1.9717353613224884,47.756136762915965],[-1.9684051940428433,47.75627829576409],[-1.9690347196050324,47.76301522943325],[-1.965704114902121,47.76315668492924],[-1.9659138522297799,47.76540232890765],[-1.969244596864674,47.76526086762202],[-1.9694544918308345,47.76750650262104],[-1.9894394270085578,47.76665571067875],[-1.9892286924272777,47.76441011050028],[-1.995889915525482,47.76412576694098],[-1.9963119621979866,47.76861694082701],[-1.99964282691136,47.76847461530383],[-1.999854016900451,47.770720191624946],[-2.013177857237923,47.770149918839955]]]}},{"type":"Feature","properties":{"category":"observed_front","snapshot_index":5,"pass_time_utc":"2026-08-13T11:45:00+00:00","dt_local":"2026-08-13T13:45:00+02:00","area_km2":2.438,"label":"Activité observée","coherence_level":"indisponible","coherence_fraction":0.0,"projection_displayed":false,"model_version":"fire_progression_arrival_v1"},"geometry":{"type":"Polygon","coordinates":[[[-2.0092121480258727,47.76355594307968],[-2.0090005917573794,47.761310374667765],[-2.012330965391397,47.76116768772516],[-2.011272752337054,47.74993982709093],[-2.007943078041395,47.750082484838416],[-2.0077316288077176,47.74783689734346],[-1.9944133127598533,47.74840655798238],[-1.9946242026407268,47.750652168791596],[-1.9912944392945446,47.75079435301698],[-1.9917159926959154,47.75528557675886],[-1.9883859318474888,47.755427677908564],[-1.9885965953351286,47.75767329083107],[-1.991926796064727,47.75753118386551],[-1.992348456149834,47.76202238853239],[-1.9956789188906494,47.76188017520836],[-1.995889915525482,47.76412576694098],[-2.0092121480258727,47.76355594307968]]]}},{"type":"Feature","properties":{"category":"historical_support","snapshot_index":6,"pass_time_utc":"2026-08-13T12:19:00+00:00","dt_local":"2026-08-13T14:19:00+02:00","area_km2":6.188,"label":"Isoline temporelle","coherence_level":"indisponible","coherence_fraction":0.0,"projection_displayed":false,"model_version":"fire_progression_arrival_v1"},"geometry":{"type":"Polygon","coordinates":[[[-2.013177857237923,47.770149918839955],[-2.0129661074836775,47.76790436585819],[-2.0162968829979135,47.767761566662266],[-2.0158731572407382,47.76327046278948],[-2.019203635048365,47.76312758055709],[-2.0189916590782984,47.76088202967625],[-2.0156613211689396,47.76102490606108],[-2.0152377026276254,47.75653378303805],[-2.0119076266160216,47.75667655301558],[-2.011272752337054,47.74993982709093],[-2.007943078041395,47.750082484838416],[-2.0077316288077176,47.74783689734346],[-1.9944133127598533,47.74840655798238],[-1.9946242026407268,47.750652168791596],[-1.9912944392945446,47.75079435301698],[-1.9917159926959154,47.75528557675886],[-1.9850558532312672,47.75556968434315],[-1.9848453473831387,47.753324062431794],[-1.9715254149836332,47.75389111779623],[-1.9717353613224884,47.756136762915965],[-1.9684051940428433,47.75627829576409],[-1.9690347196050324,47.76301522943325],[-1.965704114902121,47.76315668492924],[-1.9659138522297799,47.76540232890765],[-1.969244596864674,47.76526086762202],[-1.9694544918308345,47.76750650262104],[-1.9894394270085578,47.76665571067875],[-1.9892286924272777,47.76441011050028],[-1.995889915525482,47.76412576694098],[-1.9963119621979866,47.76861694082701],[-1.99964282691136,47.76847461530383],[-1.999854016900451,47.770720191624946],[-2.013177857237923,47.770149918839955]]]}},{"type":"Feature","properties":{"category":"observed_front","snapshot_index":6,"pass_time_utc":"2026-08-13T12:19:00+00:00","dt_local":"2026-08-13T14:19:00+02:00","area_km2":2.438,"label":"Activité observée","coherence_level":"indisponible","coherence_fraction":0.0,"projection_displayed":false,"model_version":"fire_progression_arrival_v1"},"geometry":{"type":"Polygon","coordinates":[[[-2.009423722141393,47.76580150829863],[-2.0092121480258727,47.76355594307968],[-2.0158731572407382,47.76327046278948],[-2.0152377026276254,47.75653378303805],[-2.0119076266160216,47.75667655301558],[-2.011484359248503,47.75218540557576],[-2.008154545108574,47.752328069161756],[-2.007943078041395,47.750082484838416],[-1.997953948200201,47.75050988986029],[-1.9981649957210563,47.75275549167591],[-1.9915052071066026,47.75303996647483],[-1.9925593128706238,47.76426798608552],[-1.9992205003801442,47.76398345306738],[-1.999431654738674,47.76622903578346],[-2.009423722141393,47.76580150829863]]]}},{"type":"Feature","properties":{"category":"firms_extent_snapshot","snapshot_index":7,"pass_time_utc":"2026-08-13T12:40:00+00:00","dt_local":"2026-08-13T14:40:00+02:00","label":"Emprise FIRMS cumulée à ce passage","interpretation":"Enveloppe des détections FIRMS, pas une surface brûlée","cumulative":true,"point_count":15,"extent_method":"cumulative_detection_extent_smoothed_landmasked_web_v1","local_cluster_link_m":10000.0,"model_version":"fire_progression_arrival_v1"},"geometry":{"type":"MultiPolygon","coordinates":[[[[-1.9841557935571568,47.76672511879408],[-1.9797434922836608,47.767211996971135],[-1.9767673627743796,47.76857639515486],[-1.9745477959377855,47.768804791350206],[-1.9727403783713315,47.76831979792975],[-1.9715233536235048,47.76736659286635],[-1.969872920929838,47.76286109355496],[-1.9705461112649032,47.761688149430135],[-1.972071253593248,47.76063488459544],[-1.975032146240937,47.76010519987995],[-1.9778177751574508,47.760811743915006],[-1.9821594891898955,47.76114600837134],[-1.9851799659813325,47.76274908608479],[-1.9860447599105329,47.764259769879324],[-1.9856563549844615,47.76559915959511],[-1.9841557935571568,47.76672511879408]]],[[[-2.009924204294503,47.7679398050276],[-2.008074040669222,47.768493590998915],[-2.0060587776707846,47.768364629780066],[-2.0014344532163473,47.766725299452354],[-1.999386763120961,47.764309537212704],[-1.9964984616081387,47.76288933507838],[-1.9955446917621646,47.76157809277289],[-1.9957211106330097,47.760165235456135],[-1.997050324392508,47.75894540073979],[-2.0022221213999623,47.756652820717264],[-2.0078809658689116,47.75670535205452],[-2.0102280850186585,47.75824327707766],[-2.0103009751638354,47.76139861852521],[-2.0128447002154206,47.764608855785546],[-2.0123125400042983,47.76613403549238],[-2.009924204294503,47.7679398050276]],[[-1.999363521600712,47.76194818982048],[-1.9980735587223892,47.76245424615176],[-1.9991149298804838,47.76286066051207],[-1.9971377284276386,47.763170617380496],[-1.9995113263536395,47.763520099660106],[-1.999363521600712,47.76194818982048]]]]}},{"type":"Feature","properties":{"category":"historical_support","snapshot_index":7,"pass_time_utc":"2026-08-13T12:40:00+00:00","dt_local":"2026-08-13T14:40:00+02:00","area_km2":6.188,"label":"Isoline temporelle","coherence_level":"indisponible","coherence_fraction":0.0,"projection_displayed":false,"model_version":"fire_progression_arrival_v1"},"geometry":{"type":"Polygon","coordinates":[[[-2.013177857237923,47.770149918839955],[-2.0129661074836775,47.76790436585819],[-2.0162968829979135,47.767761566662266],[-2.0158731572407382,47.76327046278948],[-2.019203635048365,47.76312758055709],[-2.0189916590782984,47.76088202967625],[-2.0156613211689396,47.76102490606108],[-2.0152377026276254,47.75653378303805],[-2.0119076266160216,47.75667655301558],[-2.011272752337054,47.74993982709093],[-2.007943078041395,47.750082484838416],[-2.0077316288077176,47.74783689734346],[-1.9944133127598533,47.74840655798238],[-1.9946242026407268,47.750652168791596],[-1.9912944392945446,47.75079435301698],[-1.9917159926959154,47.75528557675886],[-1.9850558532312672,47.75556968434315],[-1.9848453473831387,47.753324062431794],[-1.9715254149836332,47.75389111779623],[-1.9717353613224884,47.756136762915965],[-1.9684051940428433,47.75627829576409],[-1.9690347196050324,47.76301522943325],[-1.965704114902121,47.76315668492924],[-1.9659138522297799,47.76540232890765],[-1.969244596864674,47.76526086762202],[-1.9694544918308345,47.76750650262104],[-1.9894394270085578,47.76665571067875],[-1.9892286924272777,47.76441011050028],[-1.995889915525482,47.76412576694098],[-1.9963119621979866,47.76861694082701],[-1.99964282691136,47.76847461530383],[-1.999854016900451,47.770720191624946],[-2.013177857237923,47.770149918839955]]]}},{"type":"Feature","properties":{"category":"observed_front","snapshot_index":7,"pass_time_utc":"2026-08-13T12:40:00+00:00","dt_local":"2026-08-13T14:40:00+02:00","area_km2":1.75,"label":"Activité observée","coherence_level":"indisponible","coherence_fraction":0.0,"projection_displayed":false,"model_version":"fire_progression_arrival_v1"},"geometry":{"type":"MultiPolygon","coordinates":[[[[-1.9992205003801442,47.76398345306738],[-1.999009363833519,47.76173786715916],[-1.992348456149834,47.76202238853239],[-1.9917159926959154,47.75528557675886],[-1.9983760610425667,47.75500109031718],[-1.9981649957210563,47.75275549167591],[-2.001494863333151,47.75261311221256],[-2.001706068517387,47.75485870502664],[-2.005036058177602,47.75471622502398],[-2.00524742104862,47.756961808828564],[-2.0085775327524513,47.756819228279326],[-2.008789053333656,47.75906480306647],[-2.005458801748199,47.75920738945113],[-2.005670200278589,47.761452966888115],[-2.002339790966734,47.761595464385486],[-2.002551067422902,47.76384104446547],[-1.9992205003801442,47.76398345306738]]],[[[-1.9694544918308345,47.76750650262104],[-1.969244596864674,47.76526086762202],[-1.9659138522297799,47.76540232890765],[-1.965704114902121,47.76315668492924],[-1.9690347196050324,47.76301522943325],[-1.9688248600496718,47.76076958805832],[-1.9721553071302653,47.7606280436245],[-1.9719453253706198,47.75838240485991],[-1.9752756148333737,47.758240771496446],[-1.9754857364971077,47.7604864044642],[-1.9821465420427067,47.76020284196709],[-1.9825673982219565,47.76469407513748],[-1.979236724483401,47.76483591535844],[-1.9794470392672117,47.767081532964546],[-1.9694544918308345,47.76750650262104]]]]}},{"type":"Feature","properties":{"category":"historical_support","snapshot_index":8,"pass_time_utc":"2026-08-13T13:25:00+00:00","dt_local":"2026-08-13T15:25:00+02:00","area_km2":7.688,"label":"Isoline temporelle","coherence_level":"indisponible","coherence_fraction":0.0,"projection_displayed":false,"model_version":"fire_progression_arrival_v1"},"geometry":{"type":"Polygon","coordinates":[[[-2.013177857237923,47.770149918839955],[-2.0129661074836775,47.76790436585819],[-2.0162968829979135,47.767761566662266],[-2.0158731572407382,47.76327046278948],[-2.019203635048365,47.76312758055709],[-2.0189916590782984,47.76088202967625],[-2.0156613211689396,47.76102490606108],[-2.0152377026276254,47.75653378303805],[-2.0119076266160216,47.75667655301558],[-2.011272752337054,47.74993982709093],[-2.007943078041395,47.750082484838416],[-2.0077316288077176,47.74783689734346],[-1.9944133127598533,47.74840655798238],[-1.9946242026407268,47.750652168791596],[-1.9912944392945446,47.75079435301698],[-1.9917159926959154,47.75528557675886],[-1.9850558532312672,47.75556968434315],[-1.9848453473831387,47.753324062431794],[-1.9715254149836332,47.75389111779623],[-1.9717353613224884,47.756136762915965],[-1.961744806402546,47.7565610773011],[-1.9621639127940598,47.76105239274355],[-1.9588334126424614,47.761193652993505],[-1.9594617850156546,47.76793061962835],[-1.9627927049766152,47.767789342032586],[-1.9630023377384793,47.77003498541483],[-1.9696644045057512,47.76975213442675],[-1.9698743348916614,47.77199776303564],[-1.9831988156466467,47.77143090095309],[-1.9829883254146496,47.769185295544624],[-1.9896501793688632,47.76890130766231],[-1.9892286924272777,47.76441011050028],[-1.995889915525482,47.76412576694098],[-1.9963119621979866,47.76861694082701],[-1.99964282691136,47.76847461530383],[-1.999854016900451,47.770720191624946],[-2.013177857237923,47.770149918839955]]]}},{"type":"Feature","properties":{"category":"observed_front","snapshot_index":8,"pass_time_utc":"2026-08-13T13:25:00+00:00","dt_local":"2026-08-13T15:25:00+02:00","area_km2":5.5,"label":"Activité observée","coherence_level":"indisponible","coherence_fraction":0.0,"projection_displayed":false,"model_version":"fire_progression_arrival_v1"},"geometry":{"type":"Polygon","coordinates":[[[-1.9831988156466467,47.77143090095309],[-1.9829883254146496,47.769185295544624],[-1.9896501793688632,47.76890130766231],[-1.9892286924272777,47.76441011050028],[-1.9992205003801442,47.76398345306738],[-1.999431654738674,47.76622903578346],[-2.0060930508408243,47.76594411219118],[-2.005881616642048,47.76369854113599],[-2.012542661562672,47.76341325029726],[-2.011484359248503,47.75218540557576],[-2.004824713132891,47.75247063804092],[-2.0046133859122346,47.750225047882964],[-2.0012836759612704,47.75036751622385],[-2.001494863333151,47.75261311221256],[-1.994835110308307,47.752897776430274],[-1.9952569790125787,47.757388982181745],[-1.991926796064727,47.75753118386551],[-1.9921376172152832,47.75977678779119],[-1.9888072765928086,47.759918900572885],[-1.9885965953351286,47.75767329083107],[-1.981936140577514,47.75795722060458],[-1.981725756858952,47.755711596061936],[-1.978395642742248,47.75585341306415],[-1.9781854166442758,47.75360777954087],[-1.9715254149836332,47.75389111779623],[-1.9717353613224884,47.756136762915965],[-1.961744806402546,47.7565610773011],[-1.9621639127940598,47.76105239274355],[-1.9588334126424614,47.761193652993505],[-1.9594617850156546,47.76793061962835],[-1.9627927049766152,47.767789342032586],[-1.9630023377384793,47.77003498541483],[-1.9696644045057512,47.76975213442675],[-1.9698743348916614,47.77199776303564],[-1.9831988156466467,47.77143090095309]]]}},{"type":"Feature","properties":{"category":"historical_support","snapshot_index":9,"pass_time_utc":"2026-08-13T14:01:00+00:00","dt_local":"2026-08-13T16:01:00+02:00","area_km2":7.688,"label":"Isoline temporelle","coherence_level":"indisponible","coherence_fraction":0.0,"projection_displayed":false,"model_version":"fire_progression_arrival_v1"},"geometry":{"type":"Polygon","coordinates":[[[-2.013177857237923,47.770149918839955],[-2.0129661074836775,47.76790436585819],[-2.0162968829979135,47.767761566662266],[-2.0158731572407382,47.76327046278948],[-2.019203635048365,47.76312758055709],[-2.0189916590782984,47.76088202967625],[-2.0156613211689396,47.76102490606108],[-2.0152377026276254,47.75653378303805],[-2.0119076266160216,47.75667655301558],[-2.011272752337054,47.74993982709093],[-2.007943078041395,47.750082484838416],[-2.0077316288077176,47.74783689734346],[-1.9944133127598533,47.74840655798238],[-1.9946242026407268,47.750652168791596],[-1.9912944392945446,47.75079435301698],[-1.9917159926959154,47.75528557675886],[-1.9850558532312672,47.75556968434315],[-1.9848453473831387,47.753324062431794],[-1.9715254149836332,47.75389111779623],[-1.9717353613224884,47.756136762915965],[-1.961744806402546,47.7565610773011],[-1.9621639127940598,47.76105239274355],[-1.9588334126424614,47.761193652993505],[-1.9594617850156546,47.76793061962835],[-1.9627927049766152,47.767789342032586],[-1.9630023377384793,47.77003498541483],[-1.9696644045057512,47.76975213442675],[-1.9698743348916614,47.77199776303564],[-1.9831988156466467,47.77143090095309],[-1.9829883254146496,47.769185295544624],[-1.9896501793688632,47.76890130766231],[-1.9892286924272777,47.76441011050028],[-1.995889915525482,47.76412576694098],[-1.9963119621979866,47.76861694082701],[-1.99964282691136,47.76847461530383],[-1.999854016900451,47.770720191624946],[-2.013177857237923,47.770149918839955]]]}},{"type":"Feature","properties":{"category":"observed_front","snapshot_index":9,"pass_time_utc":"2026-08-13T14:01:00+00:00","dt_local":"2026-08-13T16:01:00+02:00","area_km2":4.812,"label":"Activité observée","coherence_level":"indisponible","coherence_fraction":0.0,"projection_displayed":false,"model_version":"fire_progression_arrival_v1"},"geometry":{"type":"Polygon","coordinates":[[[-1.9798677220687533,47.771572758590935],[-1.9796573717949155,47.76932714737658],[-1.9863192612765372,47.76904334897295],[-1.9861086488581872,47.76679774617605],[-1.9894394270085578,47.76665571067875],[-1.989017975622777,47.76216450713048],[-2.0090005917573794,47.761310374667765],[-2.008789053333656,47.75906480306647],[-2.012119287076599,47.75892212196344],[-2.011484359248503,47.75218540557576],[-2.008154545108574,47.752328069161756],[-2.007943078041395,47.750082484838416],[-1.997953948200201,47.75050988986029],[-1.9981649957210563,47.75275549167591],[-1.994835110308307,47.752897776430274],[-1.9950460357648419,47.75514338089482],[-1.9917159926959154,47.75528557675886],[-1.991926796064727,47.75753118386551],[-1.9786058865729066,47.758099043411086],[-1.978395642742248,47.75585341306415],[-1.961744806402546,47.7565610773011],[-1.9621639127940598,47.76105239274355],[-1.9588334126424614,47.761193652993505],[-1.9594617850156546,47.76793061962835],[-1.9627927049766152,47.767789342032586],[-1.9630023377384793,47.77003498541483],[-1.9696644045057512,47.76975213442675],[-1.9698743348916614,47.77199776303564],[-1.9798677220687533,47.771572758590935]]]}},{"type":"Feature","properties":{"category":"historical_support","snapshot_index":10,"pass_time_utc":"2026-08-13T14:20:00+00:00","dt_local":"2026-08-13T16:20:00+02:00","area_km2":8.062,"label":"Isoline temporelle","coherence_level":"indisponible","coherence_fraction":0.0,"projection_displayed":false,"model_version":"fire_progression_arrival_v1"},"geometry":{"type":"Polygon","coordinates":[[[-2.013177857237923,47.770149918839955],[-2.0129661074836775,47.76790436585819],[-2.0162968829979135,47.767761566662266],[-2.0158731572407382,47.76327046278948],[-2.019203635048365,47.76312758055709],[-2.0189916590782984,47.76088202967625],[-2.0156613211689396,47.76102490606108],[-2.0152377026276254,47.75653378303805],[-2.0119076266160216,47.75667655301558],[-2.011272752337054,47.74993982709093],[-2.007943078041395,47.750082484838416],[-2.0077316288077176,47.74783689734346],[-1.9944133127598533,47.74840655798238],[-1.9946242026407268,47.750652168791596],[-1.9912944392945446,47.75079435301698],[-1.9917159926959154,47.75528557675886],[-1.9850558532312672,47.75556968434315],[-1.9848453473831387,47.753324062431794],[-1.9715254149836332,47.75389111779623],[-1.9717353613224884,47.756136762915965],[-1.9584145860653066,47.756702325988535],[-1.9586239905215426,47.75894799108016],[-1.9552936126182916,47.75908915082318],[-1.9561308473810766,47.7680718024831],[-1.9627927049766152,47.767789342032586],[-1.9630023377384793,47.77003498541483],[-1.9696644045057512,47.76975213442675],[-1.9698743348916614,47.77199776303564],[-1.9831988156466467,47.77143090095309],[-1.9829883254146496,47.769185295544624],[-1.9896501793688632,47.76890130766231],[-1.9892286924272777,47.76441011050028],[-1.995889915525482,47.76412576694098],[-1.9963119621979866,47.76861694082701],[-1.99964282691136,47.76847461530383],[-1.999854016900451,47.770720191624946],[-2.013177857237923,47.770149918839955]]]}},{"type":"Feature","properties":{"category":"observed_front","snapshot_index":10,"pass_time_utc":"2026-08-13T14:20:00+00:00","dt_local":"2026-08-13T16:20:00+02:00","area_km2":2.312,"label":"Activité observée","coherence_level":"indisponible","coherence_fraction":0.0,"projection_displayed":false,"model_version":"fire_progression_arrival_v1"},"geometry":{"type":"Polygon","coordinates":[[[-1.9763264004290437,47.76946890446808],[-1.9761162078500294,47.76722328425428],[-1.9794470392672117,47.767081532964546],[-1.9786058865729066,47.758099043411086],[-1.9752756148333737,47.758240771496446],[-1.9750655108928592,47.75599513534907],[-1.9584145860653066,47.756702325988535],[-1.9586239905215426,47.75894799108016],[-1.9552936126182916,47.75908915082318],[-1.9561308473810766,47.7680718024831],[-1.9627927049766152,47.767789342032586],[-1.9630023377384793,47.77003498541483],[-1.9763264004290437,47.76946890446808]]]}},{"type":"Feature","properties":{"category":"firms_extent_snapshot","snapshot_index":11,"pass_time_utc":"2026-08-13T14:29:00+00:00","dt_local":"2026-08-13T16:29:00+02:00","label":"Emprise FIRMS cumulée à ce passage","interpretation":"Enveloppe des détections FIRMS, pas une surface brûlée","cumulative":true,"point_count":27,"extent_method":"cumulative_detection_extent_smoothed_landmasked_web_v1","local_cluster_link_m":10000.0,"model_version":"fire_progression_arrival_v1"},"geometry":{"type":"Polygon","coordinates":[[[-2.0261862866151312,47.77031122008828],[-2.024073119643928,47.77176432885958],[-2.0207113442284106,47.77287672842128],[-2.0168157619415474,47.773065431575006],[-2.011662404133969,47.77230185071254],[-2.00449064101428,47.774650816399436],[-2.001472425186588,47.77468928967612],[-1.9963835003186174,47.77392578690981],[-1.9899995782265485,47.776165722717316],[-1.9862618429139247,47.77632509430414],[-1.9812194032051675,47.77556077619594],[-1.9757262319190905,47.77759017843663],[-1.9709685109973967,47.77793893128492],[-1.9663827467756303,47.77669255231904],[-1.964341928810079,47.77534490314044],[-1.9629518911942605,47.77366245869655],[-1.9623086203900078,47.771674273711696],[-1.962392597435701,47.76881989537325],[-1.9602489278425173,47.76615267126945],[-1.960229739959288,47.76090189783814],[-1.9614947588959413,47.75841057210428],[-1.9651119081715247,47.75576176049055],[-1.9671795373952534,47.752895220763236],[-1.970895812907567,47.75077968986303],[-1.9736939859284979,47.7501785078977],[-1.9766304173923515,47.75015094080702],[-1.979525909687556,47.75072348115558],[-1.98414483142705,47.75273924534034],[-1.9894416778528377,47.75264616497591],[-1.9934737634363775,47.753152821051756],[-1.9959001002674113,47.75216687965875],[-1.9977539453956885,47.74922323512622],[-2.000334616774696,47.74724712064974],[-2.003839944946459,47.746087398777675],[-2.007736404246383,47.74592057220232],[-2.010558398917726,47.74646824473913],[-2.013083319321284,47.747582258997404],[-2.0153562808647005,47.749588134840195],[-2.0170446933918367,47.75257433947005],[-2.0215105878244,47.75455889137288],[-2.023424518717357,47.756060724051466],[-2.0246516952056814,47.75797915037627],[-2.025105112708676,47.76122712729881],[-2.0274043285166092,47.763953134164176],[-2.02804993686874,47.76594096955862],[-2.027557779643592,47.76849847686736],[-2.0261862866151312,47.77031122008828]],[[-1.999363521600712,47.76194818982048],[-1.9980735587223892,47.76245424615176],[-1.9991149298804838,47.76286066051207],[-1.9971377284276386,47.763170617380496],[-1.9995113263536395,47.763520099660106],[-1.999363521600712,47.76194818982048]]]}},{"type":"Feature","properties":{"category":"historical_support","snapshot_index":11,"pass_time_utc":"2026-08-13T14:29:00+00:00","dt_local":"2026-08-13T16:29:00+02:00","area_km2":9.188,"label":"Isoline temporelle","coherence_level":"indisponible","coherence_fraction":0.0,"projection_displayed":false,"model_version":"fire_progression_arrival_v1"},"geometry":{"type":"Polygon","coordinates":[[[-2.013177857237923,47.770149918839955],[-2.0129661074836775,47.76790436585819],[-2.0162968829979135,47.767761566662266],[-2.0158731572407382,47.76327046278948],[-2.019203635048365,47.76312758055709],[-2.0189916590782984,47.76088202967625],[-2.0156613211689396,47.76102490606108],[-2.0152377026276254,47.75653378303805],[-2.0119076266160216,47.75667655301558],[-2.011272752337054,47.74993982709093],[-2.007943078041395,47.750082484838416],[-2.0077316288077176,47.74783689734346],[-1.9944133127598533,47.74840655798238],[-1.9946242026407268,47.750652168791596],[-1.9912944392945446,47.75079435301698],[-1.9917159926959154,47.75528557675886],[-1.9883859318474888,47.755427677908564],[-1.9879646581733554,47.75093644253573],[-1.984634859288859,47.75107843734712],[-1.9844243889461863,47.74883280909273],[-1.9810947121606373,47.74897470338866],[-1.9808843994061833,47.746729066160995],[-1.9708956822003483,47.747154163417875],[-1.9711055754248,47.74939981804363],[-1.9677758277587918,47.74954133351522],[-1.9679855988262986,47.75178699076777],[-1.9646556936076813,47.7519284173195],[-1.9650750090656282,47.75641973389272],[-1.9584145860653066,47.756702325988535],[-1.9586239905215426,47.75894799108016],[-1.9552936126182916,47.75908915082318],[-1.9561308473810766,47.7680718024831],[-1.9627927049766152,47.767789342032586],[-1.9630023377384793,47.77003498541483],[-1.9696644045057512,47.76975213442675],[-1.9698743348916614,47.77199776303564],[-1.9831988156466467,47.77143090095309],[-1.9829883254146496,47.769185295544624],[-1.9896501793688632,47.76890130766231],[-1.9892286924272777,47.76441011050028],[-1.995889915525482,47.76412576694098],[-1.9963119621979866,47.76861694082701],[-1.99964282691136,47.76847461530383],[-1.999854016900451,47.770720191624946],[-2.013177857237923,47.770149918839955]]]}},{"type":"Feature","properties":{"category":"observed_front","snapshot_index":11,"pass_time_utc":"2026-08-13T14:29:00+00:00","dt_local":"2026-08-13T16:29:00+02:00","area_km2":2.312,"label":"Activité observée","coherence_level":"indisponible","coherence_fraction":0.0,"projection_displayed":false,"model_version":"fire_progression_arrival_v1"},"geometry":{"type":"Polygon","coordinates":[[[-1.9823569612567726,47.762448460145905],[-1.9821465420427067,47.76020284196709],[-1.985476918198048,47.76006091863176],[-1.9852663768354897,47.75781530307767],[-1.9885965953351286,47.75767329083107],[-1.9879646581733554,47.75093644253573],[-1.984634859288859,47.75107843734712],[-1.9844243889461863,47.74883280909273],[-1.9810947121606373,47.74897470338866],[-1.9808843994061833,47.746729066160995],[-1.9708956822003483,47.747154163417875],[-1.9711055754248,47.74939981804363],[-1.9677758277587918,47.74954133351522],[-1.9679855988262986,47.75178699076777],[-1.9646556936076813,47.7519284173195],[-1.9652846933222805,47.75866538741822],[-1.9686150181963538,47.75852394350074],[-1.9688248600496718,47.76076958805832],[-1.9721553071302653,47.7606280436245],[-1.972365306603661,47.7628736792062],[-1.9823569612567726,47.762448460145905]]]}}]}