{"type":"FeatureCollection","name":"detection_envelopes","crs":{"type":"name","properties":{"name":"urn:ogc:def:crs:OGC:1.3:CRS84"}},"features":[{"type":"Feature","properties":{"cluster_id":1,"snapshot_index":1,"estimated_time_utc":"2026-08-31T00:37:00Z","observed_until_utc":"2026-08-31T00:37:00Z","target_time_utc":"2026-08-31T00:37:00Z","arrival_h":0.0,"hours_ago":26.066666666666666,"supported_detections_cumulative":2,"sources_cumulative":"VIIRS_NOAA20_NRT","last_source":"VIIRS_NOAA20_NRT","last_satellite":"N20","last_instrument":"VIIRS","detected_area_km2":0.5645409244296111,"product_type":"cumulative_active_fire_detection_extent"},"geometry":{"type":"MultiLineString","coordinates":[[[3.191890531089632,45.88793081840899],[3.190510410253799,45.88610243386937],[3.187683288221544,45.88549103144277],[3.185065098512597,45.886454724978314],[3.184189434119081,45.88842905046631],[3.185569403588544,45.89025751221689],[3.188396746569746,45.89086896753873],[3.191015087645061,45.88990519679221],[3.191890531089632,45.88793081840899]],[[3.191761035907633,45.895150822802655],[3.190380738643864,45.893322436495794],[3.187553247851781,45.89271103075864],[3.184934713025057,45.89367472137897],[3.184058929292579,45.8956490460553],[3.185439075149606,45.89747750957384],[3.188266786948007,45.8980889682071],[3.190885473181474,45.89712520037505],[3.191761035907633,45.895150822802655]]]}},{"type":"Feature","properties":{"cluster_id":1,"snapshot_index":2,"estimated_time_utc":"2026-08-31T03:02:00Z","observed_until_utc":"2026-08-31T03:02:00Z","target_time_utc":"2026-08-31T06:37:00Z","arrival_h":2.4166666666666665,"hours_ago":23.65,"supported_detections_cumulative":9,"sources_cumulative":"VIIRS_NOAA20_NRT, VIIRS_NOAA21_NRT, VIIRS_SNPP_NRT","last_source":"VIIRS_NOAA21_NRT","last_satellite":"N21","last_instrument":"VIIRS","detected_area_km2":1.172692835029124,"product_type":"cumulative_active_fire_detection_extent"},"geometry":{"type":"LineString","coordinates":[[3.19189007259433,45.886231507263936],[3.189916295969288,45.88548449328347],[3.187245617467653,45.88553711296781],[3.185321577200656,45.88625940447432],[3.184346096236382,45.887381069344755],[3.184458741675261,45.8891988986942],[3.186266816289014,45.890662580026316],[3.186429389244413,45.89290534295965],[3.184509835014285,45.89411316665991],[3.184112424868048,45.89591141335023],[3.184946320178058,45.897135069093196],[3.186765824250614,45.89797960831438],[3.188642556067762,45.89805160106747],[3.190346266299749,45.89749737056482],[3.191604492655491,45.8961988143047],[3.191675994536967,45.89479268665224],[3.19350994127371,45.89496451580203],[3.195220194916292,45.89453391059785],[3.196815966901998,45.892998597917945],[3.198913604847212,45.89222903199341],[3.199844272965887,45.89113854505699],[3.199706769566653,45.88927997680845],[3.197240200587275,45.887082286809076],[3.195546040369635,45.88651445459657],[3.19189007259433,45.886231507263936]]}},{"type":"Feature","properties":{"cluster_id":1,"snapshot_index":3,"estimated_time_utc":"2026-08-31T12:02:00Z","observed_until_utc":"2026-08-31T12:02:00Z","target_time_utc":"2026-08-31T12:37:00Z","arrival_h":11.416666666666666,"hours_ago":14.65,"supported_detections_cumulative":10,"sources_cumulative":"VIIRS_NOAA20_NRT, VIIRS_NOAA21_NRT, VIIRS_SNPP_NRT","last_source":"VIIRS_NOAA20_NRT","last_satellite":"N20","last_instrument":"VIIRS","detected_area_km2":1.1748305935707475,"product_type":"cumulative_active_fire_detection_extent"},"geometry":{"type":"LineString","coordinates":[[3.19440368542577,45.88641032630783],[3.191981211189476,45.886301389185405],[3.189854250537282,45.8854759825736],[3.187683288221544,45.88549103144277],[3.185857851843344,45.88595057384428],[3.184610600019389,45.886932163537686],[3.184255404454392,45.88873470740492],[3.186266816289014,45.890662580026316],[3.186429389244413,45.89290534295965],[3.184671839753306,45.893923430527714],[3.184058929292579,45.8956490460553],[3.184681767115683,45.896887221861114],[3.186122880329989,45.89779490411492],[3.188266786948007,45.8980889682071],[3.190040103696405,45.89765400826117],[3.191498634012047,45.89640698012542],[3.191675994536967,45.89479268665224],[3.194949247112911,45.89464794300787],[3.196815966901998,45.892998597917945],[3.198332738001418,45.89256922764422],[3.199579873032663,45.891587486518986],[3.200000645246405,45.89009054222529],[3.19934227624476,45.88881579657644],[3.196936684353717,45.88692321232857],[3.19440368542577,45.88641032630783]]}},{"type":"Feature","properties":{"cluster_id":1,"snapshot_index":4,"estimated_time_utc":"2026-08-31T12:46:00Z","observed_until_utc":"2026-08-31T12:46:00Z","target_time_utc":"2026-08-31T18:37:00Z","arrival_h":12.15,"hours_ago":13.916666666666666,"supported_detections_cumulative":11,"sources_cumulative":"VIIRS_NOAA20_NRT, VIIRS_NOAA21_NRT, VIIRS_SNPP_NRT","last_source":"VIIRS_NOAA21_NRT","last_satellite":"N21","last_instrument":"VIIRS","detected_area_km2":1.1748305935707484,"product_type":"cumulative_active_fire_detection_extent"},"geometry":{"type":"LineString","coordinates":[[3.194343131203125,45.88639761184717],[3.191981211189476,45.886301389185405],[3.189854250537282,45.8854759825736],[3.187683288221544,45.88549103144277],[3.185857851843344,45.88595057384428],[3.184610600019389,45.886932163537686],[3.184255404454392,45.88873470740492],[3.186266816289014,45.890662580026316],[3.186429389244413,45.89290534295965],[3.184671839753306,45.893923430527714],[3.184058929292579,45.8956490460553],[3.184681767115683,45.896887221861114],[3.186122880329989,45.89779490411492],[3.188266786948007,45.8980889682071],[3.190040103696405,45.89765400826117],[3.191498634012047,45.89640698012542],[3.191675994536967,45.89479268665224],[3.194949247112911,45.89464794300787],[3.196815966901998,45.892998597917945],[3.198332738001418,45.89256922764422],[3.199579873032663,45.891587486518986],[3.200000645246405,45.89009054222529],[3.19934227624476,45.88881579657644],[3.196936684353717,45.88692321232857],[3.194343131203125,45.88639761184717]]}},{"type":"Feature","properties":{"cluster_id":1,"snapshot_index":5,"estimated_time_utc":"2026-09-01T02:41:00Z","observed_until_utc":"2026-09-01T02:41:00Z","target_time_utc":"2026-09-01T02:41:00Z","arrival_h":26.066666666666666,"hours_ago":0.0,"supported_detections_cumulative":14,"sources_cumulative":"VIIRS_NOAA20_NRT, VIIRS_NOAA21_NRT, VIIRS_SNPP_NRT","last_source":"VIIRS_NOAA21_NRT","last_satellite":"N21","last_instrument":"VIIRS","detected_area_km2":1.1748324787772635,"product_type":"cumulative_active_fire_detection_extent"},"geometry":{"type":"LineString","coordinates":[[3.194608558313174,45.886461121865885],[3.191981211189476,45.886301389185405],[3.189916295969288,45.88548449328347],[3.187683288221544,45.88549103144277],[3.185857851843344,45.88595057384428],[3.184610600019389,45.886932163537686],[3.184255404454392,45.88873470740492],[3.186266816289014,45.890662580026316],[3.186429389244413,45.89290534295965],[3.184671839753306,45.893923430527714],[3.184058929292579,45.8956490460553],[3.184681767115683,45.896887221861114],[3.186122880329989,45.89779490411492],[3.188266786948007,45.8980889682071],[3.190040103696405,45.89765400826117],[3.191498634012047,45.89640698012542],[3.191675994536967,45.89479268665224],[3.194949247112911,45.89464794300787],[3.196815966901998,45.892998597917945],[3.198332738001418,45.89256922764422],[3.199579873032663,45.891587486518986],[3.200000645246405,45.89009054222529],[3.19934227624476,45.88881579657644],[3.196936684353717,45.88692321232857],[3.194608558313174,45.886461121865885]]}}],"metadata":{"generated_at_utc":"2026-09-03T05:47:21.295765Z","product_type":"cumulative_active_fire_detection_extent","product_label":"Emprises cumulées des détections actives FIRMS","not_a_burn_perimeter":true,"not_a_continuous_fire_front":true,"not_an_arrival_time_interpolation":true,"snapshot_step_hours":6,"confidence_filter":{"VIIRS":["nominal","high"],"MODIS_minimum":30},"footprint_radius_m":{"VIIRS":300.0,"MODIS":750.0},"same_pass_neighbour_m":2000.0,"continuity_distance_m":3000.0,"clusters":[{"cluster_id":1,"first_supported_detection_utc":"2026-08-31T00:37:00Z","last_supported_detection_utc":"2026-09-01T02:41:00Z","pass_states":10,"published_snapshots":5,"final_detected_area_km2":1.1748324787772635}]},"bbox":[3.184058929292579,45.8854759825736,3.200000645246405,45.8980889682071]}