{"type":"FeatureCollection","name":"fire_progression_arrival_v1","features":[{"type":"Feature","properties":{"category":"arrival_step","arrival_snapshot_index":4,"first_detected_utc":"2026-08-31T01:58:00+00:00","first_detected_local":"2026-08-31T03:58:00+02:00","area_km2":3.0,"label":"Première détection FIRMS","model_version":"fire_progression_arrival_v1"},"geometry":{"type":"Polygon","coordinates":[[[3.1837799161418956,45.89652944748772],[3.18376490912822,45.892026997078204],[3.1805409746902162,45.892032190280005],[3.180504125883719,45.8807760644559],[3.1869506781327592,45.88076558827815],[3.1869430470380045,45.87851436378489],[3.196612476004937,45.87849796097026],[3.196620501806715,45.88074918479334],[3.2030670476642964,45.88073778965828],[3.2031085025140524,45.89199390766223],[3.199884571913273,45.89199965235106],[3.1999008953154657,45.896502100525936],[3.1837799161418956,45.89652944748772]]]}},{"type":"Feature","properties":{"category":"firms_extent_snapshot","snapshot_index":2,"pass_time_utc":"2026-08-31T00:37:00+00:00","dt_local":"2026-08-31T02:37:00+02:00","label":"Emprise FIRMS cumulée à ce passage","interpretation":"Enveloppe des détections FIRMS, pas une surface brûlée","cumulative":true,"point_count":2,"extent_method":"cumulative_detection_extent_smoothed_landmasked_web_v1","local_cluster_link_m":10000.0,"model_version":"fire_progression_arrival_v1"},"geometry":{"type":"Polygon","coordinates":[[[3.1840429851907226,45.89540635945906],[3.184926502519988,45.8971178615132],[3.1871645727774287,45.89804948264021],[3.1897410928151833,45.89777824364688],[3.1914862436998366,45.896427295670044],[3.19168336750087,45.89481302966363],[3.1898653381577216,45.891665707136546],[3.1916440522869243,45.889155733149934],[3.1918771000298523,45.8878541002284],[3.1910717057654834,45.886505498620984],[3.1895110751769367,45.885682950558675],[3.1865519119236705,45.88568787165999],[3.184464355377474,45.88715259547459],[3.184267047626219,45.88876684872112],[3.1860846618322847,45.89191426112196],[3.1840429851907226,45.89540635945906]]]}},{"type":"Feature","properties":{"category":"observed_front","snapshot_index":3,"pass_time_utc":"2026-08-31T01:20:00+00:00","dt_local":"2026-08-31T03:20:00+02:00","area_km2":2.562,"label":"Activité observée","coherence_level":"indisponible","coherence_fraction":0.0,"projection_displayed":false,"model_version":"fire_progression_arrival_v1"},"geometry":{"type":"Polygon","coordinates":[[[3.1869964777876563,45.89427293691803],[3.186988842953557,45.8920217119618],[3.1805409746902162,45.892032190280005],[3.180504125883719,45.8807760644559],[3.1869506781327592,45.88076558827815],[3.1869430470380045,45.87851436378489],[3.196612476004937,45.87849796097026],[3.196620501806715,45.88074918479334],[3.2030670476642964,45.88073778965828],[3.2031085025140524,45.89199390766223],[3.196660640646086,45.89200530512549],[3.196668670380618,45.894256529411315],[3.1869964777876563,45.89427293691803]]]}},{"type":"Feature","properties":{"category":"historical_support","snapshot_index":4,"pass_time_utc":"2026-08-31T01:58:00+00:00","dt_local":"2026-08-31T03:58:00+02:00","area_km2":3.0,"label":"Isoline temporelle","coherence_level":"indisponible","coherence_fraction":0.0,"projection_displayed":false,"model_version":"fire_progression_arrival_v1"},"geometry":{"type":"Polygon","coordinates":[[[3.1837799161418956,45.89652944748772],[3.18376490912822,45.892026997078204],[3.1805409746902162,45.892032190280005],[3.180504125883719,45.8807760644559],[3.1869506781327592,45.88076558827815],[3.1869430470380045,45.87851436378489],[3.196612476004937,45.87849796097026],[3.196620501806715,45.88074918479334],[3.2030670476642964,45.88073778965828],[3.2031085025140524,45.89199390766223],[3.199884571913273,45.89199965235106],[3.1999008953154657,45.896502100525936],[3.1837799161418956,45.89652944748772]]]}},{"type":"Feature","properties":{"category":"observed_front","snapshot_index":4,"pass_time_utc":"2026-08-31T01:58:00+00:00","dt_local":"2026-08-31T03:58:00+02:00","area_km2":3.0,"label":"Activité observée","coherence_level":"indisponible","coherence_fraction":0.0,"projection_displayed":false,"model_version":"fire_progression_arrival_v1"},"geometry":{"type":"Polygon","coordinates":[[[3.1837799161418956,45.89652944748772],[3.18376490912822,45.892026997078204],[3.1805409746902162,45.892032190280005],[3.180504125883719,45.8807760644559],[3.1869506781327592,45.88076558827815],[3.1869430470380045,45.87851436378489],[3.196612476004937,45.87849796097026],[3.196620501806715,45.88074918479334],[3.2030670476642964,45.88073778965828],[3.2031085025140524,45.89199390766223],[3.199884571913273,45.89199965235106],[3.1999008953154657,45.896502100525936],[3.1837799161418956,45.89652944748772]]]}},{"type":"Feature","properties":{"category":"historical_support","snapshot_index":5,"pass_time_utc":"2026-08-31T02:15:00+00:00","dt_local":"2026-08-31T04:15:00+02:00","area_km2":3.0,"label":"Isoline temporelle","coherence_level":"indisponible","coherence_fraction":0.0,"projection_displayed":false,"model_version":"fire_progression_arrival_v1"},"geometry":{"type":"Polygon","coordinates":[[[3.1837799161418956,45.89652944748772],[3.18376490912822,45.892026997078204],[3.1805409746902162,45.892032190280005],[3.180504125883719,45.8807760644559],[3.1869506781327592,45.88076558827815],[3.1869430470380045,45.87851436378489],[3.196612476004937,45.87849796097026],[3.196620501806715,45.88074918479334],[3.2030670476642964,45.88073778965828],[3.2031085025140524,45.89199390766223],[3.199884571913273,45.89199965235106],[3.1999008953154657,45.896502100525936],[3.1837799161418956,45.89652944748772]]]}},{"type":"Feature","properties":{"category":"observed_front","snapshot_index":5,"pass_time_utc":"2026-08-31T02:15:00+00:00","dt_local":"2026-08-31T04:15:00+02:00","area_km2":2.438,"label":"Activité observée","coherence_level":"indisponible","coherence_fraction":0.0,"projection_displayed":false,"model_version":"fire_progression_arrival_v1"},"geometry":{"type":"Polygon","coordinates":[[[3.187004113245247,45.896524161939425],[3.1869964777876563,45.89427293691803],[3.183772412328687,45.894278222250364],[3.18376490912822,45.892026997078204],[3.1805409746902162,45.892032190280005],[3.1805114944416237,45.88302728946295],[3.186958309850547,45.88301681285714],[3.1869506781327592,45.88076558827815],[3.196620501806715,45.88074918479334],[3.196628528263751,45.88300040870209],[3.2030753372804326,45.88298901310142],[3.2031085025140524,45.89199390766223],[3.199884571913273,45.89199965235106],[3.1998927332811244,45.894250876405934],[3.196668670380618,45.894256529411315],[3.1966767007708903,45.896507753762286],[3.187004113245247,45.896524161939425]]]}},{"type":"Feature","properties":{"category":"firms_extent_snapshot","snapshot_index":6,"pass_time_utc":"2026-08-31T03:02:00+00:00","dt_local":"2026-08-31T05:02:00+02:00","label":"Emprise FIRMS cumulée à ce passage","interpretation":"Enveloppe des détections FIRMS, pas une surface brûlée","cumulative":true,"point_count":9,"extent_method":"cumulative_detection_extent_smoothed_landmasked_web_v1","local_cluster_link_m":10000.0,"model_version":"fire_progression_arrival_v1"},"geometry":{"type":"Polygon","coordinates":[[[3.1840429851907226,45.89540635945906],[3.1845429916672954,45.896726413734655],[3.18602624747097,45.897757202403966],[3.1879192029498578,45.898100113452664],[3.189809799265866,45.89775091551314],[3.1925349033944648,45.89544374962264],[3.1953107581006983,45.89448947128296],[3.199193639384547,45.89200409886809],[3.199998998975625,45.89059791676009],[3.1995163391179573,45.889013240826074],[3.197497243461274,45.88724598976102],[3.195958356889339,45.88659140270791],[3.192555714773327,45.88630798604998],[3.1895097487629553,45.885442254254784],[3.1861406059153614,45.885829055068356],[3.1842326911317156,45.887713895630604],[3.184342602392736,45.88896989416821],[3.185701454308629,45.89063117916883],[3.1859949414927278,45.89191221262103],[3.1840429851907226,45.89540635945906]]]}},{"type":"Feature","properties":{"category":"historical_support","snapshot_index":6,"pass_time_utc":"2026-08-31T03:02:00+00:00","dt_local":"2026-08-31T05:02:00+02:00","area_km2":3.0,"label":"Isoline temporelle","coherence_level":"indisponible","coherence_fraction":0.0,"projection_displayed":false,"model_version":"fire_progression_arrival_v1"},"geometry":{"type":"Polygon","coordinates":[[[3.1837799161418956,45.89652944748772],[3.18376490912822,45.892026997078204],[3.1805409746902162,45.892032190280005],[3.180504125883719,45.8807760644559],[3.1869506781327592,45.88076558827815],[3.1869430470380045,45.87851436378489],[3.196612476004937,45.87849796097026],[3.196620501806715,45.88074918479334],[3.2030670476642964,45.88073778965828],[3.2031085025140524,45.89199390766223],[3.199884571913273,45.89199965235106],[3.1999008953154657,45.896502100525936],[3.1837799161418956,45.89652944748772]]]}},{"type":"Feature","properties":{"category":"observed_front","snapshot_index":6,"pass_time_utc":"2026-08-31T03:02:00+00:00","dt_local":"2026-08-31T05:02:00+02:00","area_km2":2.062,"label":"Activité observée","coherence_level":"indisponible","coherence_fraction":0.0,"projection_displayed":false,"model_version":"fire_progression_arrival_v1"},"geometry":{"type":"Polygon","coordinates":[[[3.183772412328687,45.894278222250364],[3.18376490912822,45.892026997078204],[3.1805409746902162,45.892032190280005],[3.180504125883719,45.8807760644559],[3.1869506781327592,45.88076558827815],[3.1869430470380045,45.87851436378489],[3.1933893336568175,45.87850352046711],[3.1933972278896663,45.880754744517326],[3.196620501806715,45.88074918479334],[3.196628528263751,45.88300040870209],[3.1998519331051325,45.88299475685147],[3.19987641121183,45.88974842836477],[3.196652611567213,45.889754080908226],[3.196660640646086,45.89200530512549],[3.1934367087232385,45.89201086598543],[3.1934446068243716,45.89426209049848],[3.183772412328687,45.894278222250364]]]}},{"type":"Feature","properties":{"category":"firms_extent_snapshot","snapshot_index":7,"pass_time_utc":"2026-08-31T12:02:00+00:00","dt_local":"2026-08-31T14:02:00+02:00","label":"Emprise FIRMS cumulée à ce passage","interpretation":"Enveloppe des détections FIRMS, pas une surface brûlée","cumulative":true,"point_count":10,"extent_method":"cumulative_detection_extent_smoothed_landmasked_web_v1","local_cluster_link_m":10000.0,"model_version":"fire_progression_arrival_v1"},"geometry":{"type":"Polygon","coordinates":[[[3.1840429851907226,45.89540635945906],[3.1845429916672954,45.896726413734655],[3.18602624747097,45.897757202403966],[3.1879192029498578,45.898100113452664],[3.189809799265866,45.89775091551314],[3.1925349033944648,45.89544374962264],[3.1953107581006983,45.89448947128296],[3.199193639384547,45.89200409886809],[3.199998998975625,45.89059791676009],[3.1995163391179573,45.889013240826074],[3.197497243461274,45.88724598976102],[3.195958356889339,45.88659140270791],[3.1895097487629553,45.885442254254784],[3.1861406059153614,45.885829055068356],[3.1842326911317156,45.887713895630604],[3.184342602392736,45.88896989416821],[3.185701454308629,45.89063117916883],[3.1859949414927278,45.89191221262103],[3.1840429851907226,45.89540635945906]]]}},{"type":"Feature","properties":{"category":"historical_support","snapshot_index":7,"pass_time_utc":"2026-08-31T12:02:00+00:00","dt_local":"2026-08-31T14:02:00+02:00","area_km2":3.0,"label":"Isoline temporelle","coherence_level":"indisponible","coherence_fraction":0.0,"projection_displayed":false,"model_version":"fire_progression_arrival_v1"},"geometry":{"type":"Polygon","coordinates":[[[3.1837799161418956,45.89652944748772],[3.18376490912822,45.892026997078204],[3.1805409746902162,45.892032190280005],[3.180504125883719,45.8807760644559],[3.1869506781327592,45.88076558827815],[3.1869430470380045,45.87851436378489],[3.196612476004937,45.87849796097026],[3.196620501806715,45.88074918479334],[3.2030670476642964,45.88073778965828],[3.2031085025140524,45.89199390766223],[3.199884571913273,45.89199965235106],[3.1999008953154657,45.896502100525936],[3.1837799161418956,45.89652944748772]]]}},{"type":"Feature","properties":{"category":"observed_front","snapshot_index":7,"pass_time_utc":"2026-08-31T12:02:00+00:00","dt_local":"2026-08-31T14:02:00+02:00","area_km2":2.312,"label":"Activité observée","coherence_level":"indisponible","coherence_fraction":0.0,"projection_displayed":false,"model_version":"fire_progression_arrival_v1"},"geometry":{"type":"Polygon","coordinates":[[[3.1869964777876563,45.89427293691803],[3.186988842953557,45.8920217119618],[3.18376490912822,45.892026997078204],[3.18375740654042,45.88977577197463],[3.180533603725375,45.88978096496426],[3.1805114944416237,45.88302728946295],[3.1837349024522688,45.88302209710983],[3.1837274023143847,45.88077087231492],[3.1869506781327592,45.88076558827815],[3.1869430470380045,45.87851436378489],[3.196612476004937,45.87849796097026],[3.196620501806715,45.88074918479334],[3.1998437750685054,45.880743533173636],[3.1998519331051325,45.88299475685147],[3.2030753372804326,45.88298901310142],[3.2031002101901205,45.88974268391065],[3.19987641121183,45.88974842836477],[3.199884571913273,45.89199965235106],[3.196660640646086,45.89200530512549],[3.196668670380618,45.894256529411315],[3.1869964777876563,45.89427293691803]]]}},{"type":"Feature","properties":{"category":"firms_extent_snapshot","snapshot_index":8,"pass_time_utc":"2026-08-31T12:46:00+00:00","dt_local":"2026-08-31T14:46:00+02:00","label":"Emprise FIRMS cumulée à ce passage","interpretation":"Enveloppe des détections FIRMS, pas une surface brûlée","cumulative":true,"point_count":11,"extent_method":"cumulative_detection_extent_smoothed_landmasked_web_v1","local_cluster_link_m":10000.0,"model_version":"fire_progression_arrival_v1"},"geometry":{"type":"Polygon","coordinates":[[[3.1840429851907226,45.89540635945906],[3.1845429916672954,45.896726413734655],[3.18602624747097,45.897757202403966],[3.1879192029498578,45.898100113452664],[3.189809799265866,45.89775091551314],[3.1925349033944648,45.89544374962264],[3.1953107581006983,45.89448947128296],[3.199193639384547,45.89200409886809],[3.199998998975625,45.89059791676009],[3.1995163391179573,45.889013240826074],[3.197497243461274,45.88724598976102],[3.195958356889339,45.88659140270791],[3.1895097487629553,45.885442254254784],[3.1861406059153614,45.885829055068356],[3.1842326911317156,45.887713895630604],[3.184342602392736,45.88896989416821],[3.185701454308629,45.89063117916883],[3.1859949414927278,45.89191221262103],[3.1840429851907226,45.89540635945906]]]}},{"type":"Feature","properties":{"category":"historical_support","snapshot_index":8,"pass_time_utc":"2026-08-31T12:46:00+00:00","dt_local":"2026-08-31T14:46:00+02:00","area_km2":3.0,"label":"Isoline temporelle","coherence_level":"indisponible","coherence_fraction":0.0,"projection_displayed":false,"model_version":"fire_progression_arrival_v1"},"geometry":{"type":"Polygon","coordinates":[[[3.1837799161418956,45.89652944748772],[3.18376490912822,45.892026997078204],[3.1805409746902162,45.892032190280005],[3.180504125883719,45.8807760644559],[3.1869506781327592,45.88076558827815],[3.1869430470380045,45.87851436378489],[3.196612476004937,45.87849796097026],[3.196620501806715,45.88074918479334],[3.2030670476642964,45.88073778965828],[3.2031085025140524,45.89199390766223],[3.199884571913273,45.89199965235106],[3.1999008953154657,45.896502100525936],[3.1837799161418956,45.89652944748772]]]}},{"type":"Feature","properties":{"category":"observed_front","snapshot_index":8,"pass_time_utc":"2026-08-31T12:46:00+00:00","dt_local":"2026-08-31T14:46:00+02:00","area_km2":2.312,"label":"Activité observée","coherence_level":"indisponible","coherence_fraction":0.0,"projection_displayed":false,"model_version":"fire_progression_arrival_v1"},"geometry":{"type":"Polygon","coordinates":[[[3.187004113245247,45.896524161939425],[3.1869964777876563,45.89427293691803],[3.183772412328687,45.894278222250364],[3.18376490912822,45.892026997078204],[3.1805409746902162,45.892032190280005],[3.1805188636011525,45.8852785145523],[3.183742403202519,45.88527332198702],[3.1837349024522688,45.88302209710983],[3.186958309850547,45.88301681285714],[3.1869506781327592,45.88076558827815],[3.196620501806715,45.88074918479334],[3.196628528263751,45.88300040870209],[3.1998519331051325,45.88299475685147],[3.1998600918078415,45.88524598061154],[3.203083627573393,45.885240236626835],[3.2031085025140524,45.89199390766223],[3.199884571913273,45.89199965235106],[3.1998927332811244,45.894250876405934],[3.196668670380618,45.894256529411315],[3.1966767007708903,45.896507753762286],[3.187004113245247,45.896524161939425]]]}},{"type":"Feature","properties":{"category":"historical_support","snapshot_index":9,"pass_time_utc":"2026-09-01T01:37:00+00:00","dt_local":"2026-09-01T03:37:00+02:00","area_km2":3.0,"label":"Isoline temporelle","coherence_level":"indisponible","coherence_fraction":0.0,"projection_displayed":false,"model_version":"fire_progression_arrival_v1"},"geometry":{"type":"Polygon","coordinates":[[[3.1837799161418956,45.89652944748772],[3.18376490912822,45.892026997078204],[3.1805409746902162,45.892032190280005],[3.180504125883719,45.8807760644559],[3.1869506781327592,45.88076558827815],[3.1869430470380045,45.87851436378489],[3.196612476004937,45.87849796097026],[3.196620501806715,45.88074918479334],[3.2030670476642964,45.88073778965828],[3.2031085025140524,45.89199390766223],[3.199884571913273,45.89199965235106],[3.1999008953154657,45.896502100525936],[3.1837799161418956,45.89652944748772]]]}},{"type":"Feature","properties":{"category":"observed_front","snapshot_index":9,"pass_time_utc":"2026-09-01T01:37:00+00:00","dt_local":"2026-09-01T03:37:00+02:00","area_km2":2.062,"label":"Activité observée","coherence_level":"indisponible","coherence_fraction":0.0,"projection_displayed":false,"model_version":"fire_progression_arrival_v1"},"geometry":{"type":"Polygon","coordinates":[[[3.1902205426231345,45.8942675596674],[3.1902127761554793,45.89201633493087],[3.186988842953557,45.8920217119618],[3.1869812087428726,45.889770487074195],[3.18375740654042,45.88977577197463],[3.1837349024522688,45.88302209710983],[3.186958309850547,45.88301681285714],[3.1869506781327592,45.88076558827815],[3.1901739533280997,45.88076021234562],[3.19016619066426,45.87850898807199],[3.196612476004937,45.87849796097026],[3.196620501806715,45.88074918479334],[3.2030670476642964,45.88073778965828],[3.2031085025140524,45.89199390766223],[3.199884571913273,45.89199965235106],[3.1998927332811244,45.894250876405934],[3.1902205426231345,45.8942675596674]]]}},{"type":"Feature","properties":{"category":"historical_support","snapshot_index":10,"pass_time_utc":"2026-09-01T01:58:00+00:00","dt_local":"2026-09-01T03:58:00+02:00","area_km2":3.0,"label":"Isoline temporelle","coherence_level":"indisponible","coherence_fraction":0.0,"projection_displayed":false,"model_version":"fire_progression_arrival_v1"},"geometry":{"type":"Polygon","coordinates":[[[3.1837799161418956,45.89652944748772],[3.18376490912822,45.892026997078204],[3.1805409746902162,45.892032190280005],[3.180504125883719,45.8807760644559],[3.1869506781327592,45.88076558827815],[3.1869430470380045,45.87851436378489],[3.196612476004937,45.87849796097026],[3.196620501806715,45.88074918479334],[3.2030670476642964,45.88073778965828],[3.2031085025140524,45.89199390766223],[3.199884571913273,45.89199965235106],[3.1999008953154657,45.896502100525936],[3.1837799161418956,45.89652944748772]]]}},{"type":"Feature","properties":{"category":"observed_front","snapshot_index":10,"pass_time_utc":"2026-09-01T01:58:00+00:00","dt_local":"2026-09-01T03:58:00+02:00","area_km2":2.312,"label":"Activité observée","coherence_level":"indisponible","coherence_fraction":0.0,"projection_displayed":false,"model_version":"fire_progression_arrival_v1"},"geometry":{"type":"Polygon","coordinates":[[[3.187004113245247,45.896524161939425],[3.1869964777876563,45.89427293691803],[3.183772412328687,45.894278222250364],[3.18376490912822,45.892026997078204],[3.1805409746902162,45.892032190280005],[3.1805188636011525,45.8852785145523],[3.183742403202519,45.88527332198702],[3.1837349024522688,45.88302209710983],[3.186958309850547,45.88301681285714],[3.1869506781327592,45.88076558827815],[3.196620501806715,45.88074918479334],[3.196628528263751,45.88300040870209],[3.1998519331051325,45.88299475685147],[3.1998600918078415,45.88524598061154],[3.203083627573393,45.885240236626835],[3.2031085025140524,45.89199390766223],[3.199884571913273,45.89199965235106],[3.1998927332811244,45.894250876405934],[3.196668670380618,45.894256529411315],[3.1966767007708903,45.896507753762286],[3.187004113245247,45.896524161939425]]]}},{"type":"Feature","properties":{"category":"firms_extent_snapshot","snapshot_index":11,"pass_time_utc":"2026-09-01T02:41:00+00:00","dt_local":"2026-09-01T04:41:00+02:00","label":"Emprise FIRMS cumulée à ce passage","interpretation":"Enveloppe des détections FIRMS, pas une surface brûlée","cumulative":true,"point_count":14,"extent_method":"cumulative_detection_extent_smoothed_landmasked_web_v1","local_cluster_link_m":10000.0,"model_version":"fire_progression_arrival_v1"},"geometry":{"type":"Polygon","coordinates":[[[3.1840429851907226,45.89540635945906],[3.1845429916672954,45.896726413734655],[3.18602624747097,45.897757202403966],[3.1879192029498578,45.898100113452664],[3.189809799265866,45.89775091551314],[3.1925349033944648,45.89544374962264],[3.1953107581006983,45.89448947128296],[3.199193639384547,45.89200409886809],[3.199998998975625,45.89059791676009],[3.1995163391179573,45.889013240826074],[3.197497243461274,45.88724598976102],[3.195958356889339,45.88659140270791],[3.1895097487629553,45.885442254254784],[3.1861406059153614,45.885829055068356],[3.1842326911317156,45.887713895630604],[3.184342602392736,45.88896989416821],[3.185701454308629,45.89063117916883],[3.1859949414927278,45.89191221262103],[3.1840429851907226,45.89540635945906]]]}},{"type":"Feature","properties":{"category":"historical_support","snapshot_index":11,"pass_time_utc":"2026-09-01T02:41:00+00:00","dt_local":"2026-09-01T04:41:00+02:00","area_km2":3.0,"label":"Isoline temporelle","coherence_level":"indisponible","coherence_fraction":0.0,"projection_displayed":false,"model_version":"fire_progression_arrival_v1"},"geometry":{"type":"Polygon","coordinates":[[[3.1837799161418956,45.89652944748772],[3.18376490912822,45.892026997078204],[3.1805409746902162,45.892032190280005],[3.180504125883719,45.8807760644559],[3.1869506781327592,45.88076558827815],[3.1869430470380045,45.87851436378489],[3.196612476004937,45.87849796097026],[3.196620501806715,45.88074918479334],[3.2030670476642964,45.88073778965828],[3.2031085025140524,45.89199390766223],[3.199884571913273,45.89199965235106],[3.1999008953154657,45.896502100525936],[3.1837799161418956,45.89652944748772]]]}},{"type":"Feature","properties":{"category":"observed_front","snapshot_index":11,"pass_time_utc":"2026-09-01T02:41:00+00:00","dt_local":"2026-09-01T04:41:00+02:00","area_km2":2.312,"label":"Activité observée","coherence_level":"indisponible","coherence_fraction":0.0,"projection_displayed":false,"model_version":"fire_progression_arrival_v1"},"geometry":{"type":"Polygon","coordinates":[[[3.187004113245247,45.896524161939425],[3.1869964777876563,45.89427293691803],[3.183772412328687,45.894278222250364],[3.18376490912822,45.892026997078204],[3.1805409746902162,45.892032190280005],[3.1805188636011525,45.8852785145523],[3.183742403202519,45.88527332198702],[3.1837349024522688,45.88302209710983],[3.186958309850547,45.88301681285714],[3.1869506781327592,45.88076558827815],[3.196620501806715,45.88074918479334],[3.196628528263751,45.88300040870209],[3.1998519331051325,45.88299475685147],[3.1998600918078415,45.88524598061154],[3.203083627573393,45.885240236626835],[3.2031085025140524,45.89199390766223],[3.199884571913273,45.89199965235106],[3.1998927332811244,45.894250876405934],[3.196668670380618,45.894256529411315],[3.1966767007708903,45.896507753762286],[3.187004113245247,45.896524161939425]]]}}]}