{"type":"FeatureCollection","name":"detection_envelopes","crs":{"type":"name","properties":{"name":"urn:ogc:def:crs:OGC:1.3:CRS84"}},"features":[{"type":"Feature","properties":{"cluster_id":1,"snapshot_index":1,"estimated_time_utc":"2026-10-02T02:15:00Z","observed_until_utc":"2026-10-02T02:15:00Z","target_time_utc":"2026-10-02T02:15:00Z","arrival_h":0.0,"hours_ago":106.2,"supported_detections_cumulative":2,"sources_cumulative":"VIIRS_NOAA20_NRT","last_source":"VIIRS_NOAA20_NRT","last_satellite":"N20","last_instrument":"VIIRS","detected_area_km2":0.5128113566691158,"product_type":"cumulative_active_fire_detection_extent"},"geometry":{"type":"LineString","coordinates":[[1.759154923067627,48.980994390549256],[1.755203148163042,48.98132463354321],[1.753113952998535,48.98251222983323],[1.752731883767672,48.98456078278644],[1.754662644915105,48.98618712979336],[1.757775274163027,48.98643851426765],[1.76026293589124,48.98541862808055],[1.763719524407259,48.98530904221734],[1.765746299022532,48.98413750029872],[1.766204194001289,48.98230369160276],[1.764536712794118,48.980604156149205],[1.761809026377328,48.98012441806491],[1.759154923067627,48.980994390549256]]}},{"type":"Feature","properties":{"cluster_id":1,"snapshot_index":2,"estimated_time_utc":"2026-10-02T03:00:00Z","observed_until_utc":"2026-10-02T03:00:00Z","target_time_utc":"2026-10-02T08:15:00Z","arrival_h":0.75,"hours_ago":105.45,"supported_detections_cumulative":3,"sources_cumulative":"VIIRS_NOAA20_NRT, VIIRS_NOAA21_NRT","last_source":"VIIRS_NOAA21_NRT","last_satellite":"N21","last_instrument":"VIIRS","detected_area_km2":0.579312448383918,"product_type":"cumulative_active_fire_detection_extent"},"geometry":{"type":"LineString","coordinates":[[1.762235289213063,48.98007922820075],[1.759367859126641,48.979244107542634],[1.756395001048476,48.98001882129646],[1.752768440726846,48.98303762771276],[1.752731883767672,48.98456078278644],[1.753760919404035,48.98573229650896],[1.755397152999762,48.98640106419246],[1.757383003859907,48.98649665992673],[1.76026293589124,48.98541862808055],[1.762949179443568,48.98545870620191],[1.765055367199876,48.984731035011016],[1.766192286059567,48.98335584545585],[1.765976782847554,48.98179668785644],[1.764536712794118,48.980604156149205],[1.762235289213063,48.98007922820075]]}},{"type":"Feature","properties":{"cluster_id":1,"snapshot_index":3,"estimated_time_utc":"2026-10-03T01:58:00Z","observed_until_utc":"2026-10-03T01:58:00Z","target_time_utc":"2026-10-03T02:15:00Z","arrival_h":23.716666666666665,"hours_ago":82.48333333333333,"supported_detections_cumulative":6,"sources_cumulative":"VIIRS_NOAA20_NRT, VIIRS_NOAA21_NRT, VIIRS_SNPP_NRT","last_source":"VIIRS_NOAA20_NRT","last_satellite":"N20","last_instrument":"VIIRS","detected_area_km2":0.708993322612325,"product_type":"cumulative_active_fire_detection_extent"},"geometry":{"type":"LineString","coordinates":[[1.758965946348733,48.97925077493953],[1.756694932922611,48.97984259095651],[1.755290581565328,48.981305059670085],[1.753328860306135,48.98228856817583],[1.752750317141493,48.984603176747676],[1.755021913685749,48.9863059718201],[1.757955881278517,48.98640036662102],[1.759963595692832,48.9876035486501],[1.762719958880028,48.987706329037444],[1.76533357051596,48.986170579050935],[1.766109408770428,48.982046513105935],[1.765145234662013,48.98094915779543],[1.762466923838752,48.97946276323776],[1.758965946348733,48.97925077493953]]}},{"type":"Feature","properties":{"cluster_id":1,"snapshot_index":4,"estimated_time_utc":"2026-10-03T02:43:00Z","observed_until_utc":"2026-10-03T02:43:00Z","target_time_utc":"2026-10-03T08:15:00Z","arrival_h":24.466666666666665,"hours_ago":81.73333333333333,"supported_detections_cumulative":7,"sources_cumulative":"VIIRS_NOAA20_NRT, VIIRS_NOAA21_NRT, VIIRS_SNPP_NRT","last_source":"VIIRS_NOAA21_NRT","last_satellite":"N21","last_instrument":"VIIRS","detected_area_km2":0.7089933226123254,"product_type":"cumulative_active_fire_detection_extent"},"geometry":{"type":"LineString","coordinates":[[1.758899182945954,48.97925440687167],[1.756694932922611,48.97984259095651],[1.755290581565328,48.981305059670085],[1.753328860306135,48.98228856817583],[1.752750317141493,48.984603176747676],[1.755021913685749,48.9863059718201],[1.757955881278517,48.98640036662102],[1.759963595692832,48.9876035486501],[1.762719958880028,48.987706329037444],[1.76533357051596,48.986170579050935],[1.766109408770428,48.982046513105935],[1.765145234662013,48.98094915779543],[1.762466923838752,48.97946276323776],[1.758899182945954,48.97925440687167]]}},{"type":"Feature","properties":{"cluster_id":1,"snapshot_index":5,"estimated_time_utc":"2026-10-04T12:10:00Z","observed_until_utc":"2026-10-04T12:10:00Z","target_time_utc":"2026-10-04T14:15:00Z","arrival_h":57.916666666666664,"hours_ago":48.28333333333333,"supported_detections_cumulative":8,"sources_cumulative":"VIIRS_NOAA20_NRT, VIIRS_NOAA21_NRT, VIIRS_SNPP_NRT","last_source":"VIIRS_NOAA21_NRT","last_satellite":"N21","last_instrument":"VIIRS","detected_area_km2":0.7089933226123254,"product_type":"cumulative_active_fire_detection_extent"},"geometry":{"type":"LineString","coordinates":[[1.758566961320901,48.97928333974297],[1.756694932922611,48.97984259095651],[1.755290581565328,48.981305059670085],[1.753328860306135,48.98228856817583],[1.752750317141493,48.984603176747676],[1.755021913685749,48.9863059718201],[1.757955881278517,48.98640036662102],[1.759963595692832,48.9876035486501],[1.762719958880028,48.987706329037444],[1.76533357051596,48.986170579050935],[1.766109408770428,48.982046513105935],[1.765145234662013,48.98094915779543],[1.762466923838752,48.97946276323776],[1.758566961320901,48.97928333974297]]}},{"type":"Feature","properties":{"cluster_id":1,"snapshot_index":6,"estimated_time_utc":"2026-10-05T02:04:00Z","observed_until_utc":"2026-10-05T02:04:00Z","target_time_utc":"2026-10-05T02:15:00Z","arrival_h":71.81666666666666,"hours_ago":34.38333333333333,"supported_detections_cumulative":10,"sources_cumulative":"VIIRS_NOAA20_NRT, VIIRS_NOAA21_NRT, VIIRS_SNPP_NRT","last_source":"VIIRS_NOAA21_NRT","last_satellite":"N21","last_instrument":"VIIRS","detected_area_km2":0.7957976371809048,"product_type":"cumulative_active_fire_detection_extent"},"geometry":{"type":"LineString","coordinates":[[1.764305615637623,48.98714845290642],[1.766314435761663,48.98630989900497],[1.767284385036206,48.984834333606585],[1.765399721796069,48.97984567419327],[1.763956836371455,48.97894273704058],[1.762037719416949,48.97859410371919],[1.757075941489927,48.97966264098235],[1.75293338604933,48.982748678783295],[1.752594116990031,48.98403998092596],[1.753219769990139,48.98528406889041],[1.755397152999762,48.98640106419246],[1.757955881278517,48.98640036662102],[1.760664973713674,48.98775152423141],[1.762655545151912,48.98771846657897],[1.764305615637623,48.98714845290642]]}},{"type":"Feature","properties":{"cluster_id":1,"snapshot_index":7,"estimated_time_utc":"2026-10-05T03:00:00Z","observed_until_utc":"2026-10-05T03:00:00Z","target_time_utc":"2026-10-05T08:15:00Z","arrival_h":72.75,"hours_ago":33.45,"supported_detections_cumulative":12,"sources_cumulative":"VIIRS_NOAA20_NRT, VIIRS_NOAA21_NRT, VIIRS_SNPP_NRT","last_source":"VIIRS_NOAA20_NRT","last_satellite":"N20","last_instrument":"VIIRS","detected_area_km2":0.8096456691569751,"product_type":"cumulative_active_fire_detection_extent"},"geometry":{"type":"LineString","coordinates":[[1.764687331036489,48.98706526023884],[1.766561580465229,48.986101152492544],[1.767306053794063,48.98461420981778],[1.765363378605774,48.97980863116764],[1.763956836371455,48.97894273704058],[1.762037719416949,48.97859410371919],[1.757019661107745,48.979686559257814],[1.75293338604933,48.982748678783295],[1.752594116990031,48.98403998092596],[1.753256108353361,48.98532111540378],[1.759144897949651,48.98768151306505],[1.76226327064835,48.98777662812395],[1.764687331036489,48.98706526023884]]}},{"type":"Feature","properties":{"cluster_id":1,"snapshot_index":8,"estimated_time_utc":"2026-10-06T12:27:00Z","observed_until_utc":"2026-10-06T12:27:00Z","target_time_utc":"2026-10-06T12:27:00Z","arrival_h":106.2,"hours_ago":0.0,"supported_detections_cumulative":13,"sources_cumulative":"VIIRS_NOAA20_NRT, VIIRS_NOAA21_NRT, VIIRS_SNPP_NRT","last_source":"VIIRS_NOAA20_NRT","last_satellite":"N20","last_instrument":"VIIRS","detected_area_km2":3.4217958113744293,"product_type":"cumulative_active_fire_detection_extent"},"geometry":{"type":"MultiLineString","coordinates":[[[1.860553510756522,48.96577295097331],[1.857481536926279,48.96635472960302],[1.855985373405503,48.96817937126025],[1.853905824285039,48.96823452455988],[1.852192077735411,48.96890109853913],[1.851178278133649,48.96997881957126],[1.851030337272358,48.9712606969566],[1.849152102395722,48.972571674074615],[1.848815290244303,48.97386325970866],[1.849443123242644,48.97510685685004],[1.850887386317543,48.976008768487254],[1.852807002509928,48.97635598100369],[1.854624124633582,48.976103792288164],[1.854672330117029,48.97781651941289],[1.855981194140458,48.97912374157156],[1.859718583007064,48.98045489067151],[1.861619341298735,48.98065896663594],[1.865810736472981,48.97917935712305],[1.867072619720351,48.977172120102615],[1.86932837927143,48.97594443025638],[1.869794673832777,48.974153581309906],[1.868617024684598,48.97268974209209],[1.870030524204798,48.971695827508256],[1.870514369421399,48.9702061397865],[1.868726574816657,48.96817706302872],[1.866522280391829,48.967713993449856],[1.864124047180071,48.96813056027063],[1.862974238398253,48.966555088165],[1.860553510756522,48.96577295097331]],[[1.754577439423108,48.98746157828737],[1.756842772891034,48.98915572582576],[1.759102117653701,48.989645872767234],[1.765257404963992,48.988695249357875],[1.767131702603613,48.98773113418637],[1.769232409081237,48.98453574317716],[1.768926187617204,48.98203697802387],[1.76481658302385,48.978004145259156],[1.761078667614659,48.97698541073657],[1.75909106526535,48.97691125930556],[1.757285027023869,48.97746259893121],[1.754799012430778,48.9792486048054],[1.750913948397235,48.98471537038895],[1.751823054804656,48.986474821420096],[1.754577439423108,48.98746157828737]],[[1.865267322762678,48.98960259700236],[1.866807632404142,48.987804769272465],[1.865965142202226,48.985816720297514],[1.863233553416687,48.984802987769804],[1.860212883687387,48.98535734552017],[1.85867241844748,48.987155092726965],[1.85951465134771,48.989143190396774],[1.862246395731692,48.99015700344759],[1.865267322762678,48.98960259700236]]]}}],"metadata":{"generated_at_utc":"2026-10-06T21:54:34.893922Z","product_type":"cumulative_active_fire_detection_extent","product_label":"Emprises cumulées des détections actives FIRMS","not_a_burn_perimeter":true,"not_a_continuous_fire_front":true,"not_an_arrival_time_interpolation":true,"snapshot_step_hours":6,"confidence_filter":{"VIIRS":["nominal","high"],"MODIS_minimum":30},"footprint_radius_m":{"VIIRS":300.0,"MODIS":750.0},"same_pass_neighbour_m":2000.0,"continuity_distance_m":3000.0,"clusters":[{"cluster_id":1,"first_supported_detection_utc":"2026-10-02T02:15:00Z","last_supported_detection_utc":"2026-10-06T12:27:00Z","pass_states":10,"published_snapshots":8,"final_detected_area_km2":0.80966356366572}]},"bbox":[1.7509139483972351,48.96577295097331,1.8705143694213986,48.99015700344759]}