{"type":"FeatureCollection","name":"fire_progression_arrival_v1","features":[{"type":"Feature","properties":{"category":"arrival_step","arrival_snapshot_index":1,"first_detected_utc":"2026-09-25T01:52:00+00:00","first_detected_local":"2026-09-25T03:52:00+02:00","area_km2":2.562,"label":"Première détection FIRMS","model_version":"fire_progression_arrival_v1"},"geometry":{"type":"Polygon","coordinates":[[[1.7565696776379205,48.98873106368449],[1.756623463251942,48.986483311508806],[1.7532081605888554,48.986447865874666],[1.7532620892267117,48.98420011037416],[1.7498469389046185,48.984164568980596],[1.7500631973907397,48.9751735050688],[1.753477757137579,48.97520904061495],[1.7535316624581814,48.972961261253865],[1.7706037928022,48.973137473710544],[1.770550625550176,48.97538526032007],[1.77396521307905,48.97542021265462],[1.7737530886702926,48.98441131716244],[1.7703379105517445,48.98437635907642],[1.770284720301569,48.98662412182706],[1.766869399105108,48.986589065080636],[1.766816056562006,48.988836821606604],[1.7565696776379205,48.98873106368449]]]}},{"type":"Feature","properties":{"category":"arrival_step","arrival_snapshot_index":3,"first_detected_utc":"2026-09-25T02:47:00+00:00","first_detected_local":"2026-09-25T04:47:00+02:00","area_km2":0.875,"label":"Première détection FIRMS","model_version":"fire_progression_arrival_v1"},"geometry":{"type":"Polygon","coordinates":[[[1.749684695929157,48.99090781674348],[1.749738781599417,48.98866007227457],[1.7463233405917427,48.98862443073163],[1.7464317932599533,48.98412893036975],[1.7430166523054829,48.98409319454186],[1.7431253815236378,48.979597678002015],[1.7465402271673838,48.979633410890074],[1.7465944370873276,48.97738564399005],[1.7500091397832278,48.97742127820322],[1.7498469389046185,48.984164568980596],[1.7532620892267117,48.98420011037416],[1.7532081605888554,48.986447865874666],[1.756623463251942,48.986483311508806],[1.7565696776379205,48.98873106368449],[1.7634005922888278,48.988801666191854],[1.7633470974272587,48.991049416485446],[1.749684695929157,48.99090781674348]]]}},{"type":"Feature","properties":{"category":"firms_extent_snapshot","snapshot_index":1,"pass_time_utc":"2026-09-25T01:52:00+00:00","dt_local":"2026-09-25T03:52:00+02:00","label":"Emprise FIRMS cumulée à ce passage","interpretation":"Enveloppe des détections FIRMS, pas une surface brûlée","cumulative":true,"point_count":3,"extent_method":"cumulative_detection_extent_smoothed_landmasked_web_v1","local_cluster_link_m":10000.0,"model_version":"fire_progression_arrival_v1"},"geometry":{"type":"Polygon","coordinates":[[[1.757459957118764,48.98689615623086],[1.7660422102844233,48.98565399615507],[1.767181097707808,48.984769195164134],[1.7676553340355443,48.983497019241966],[1.7657172235588423,48.97857630263154],[1.7629253242975271,48.97753114930673],[1.7599781974649942,48.97806591875974],[1.7588393343104984,48.97895065694921],[1.758167483278247,48.98019207394981],[1.7602103807493297,48.97932581618348],[1.760519700051842,48.98067800722605],[1.7584600056201627,48.98110637139298],[1.7581483780103808,48.98022737488619],[1.7577073486806771,48.981042253346786],[1.7548241565980924,48.98276301061648],[1.754143870060201,48.984207530078066],[1.7550326744362656,48.98592747753924],[1.757459957118764,48.98689615623086]]]}},{"type":"Feature","properties":{"category":"historical_support","snapshot_index":1,"pass_time_utc":"2026-09-25T01:52:00+00:00","dt_local":"2026-09-25T03:52:00+02:00","area_km2":2.562,"label":"Isoline temporelle","coherence_level":"indisponible","coherence_fraction":0.0,"projection_displayed":false,"model_version":"fire_progression_arrival_v1"},"geometry":{"type":"Polygon","coordinates":[[[1.7565696776379205,48.98873106368449],[1.756623463251942,48.986483311508806],[1.7532081605888554,48.986447865874666],[1.7532620892267117,48.98420011037416],[1.7498469389046185,48.984164568980596],[1.7500631973907397,48.9751735050688],[1.753477757137579,48.97520904061495],[1.7535316624581814,48.972961261253865],[1.7706037928022,48.973137473710544],[1.770550625550176,48.97538526032007],[1.77396521307905,48.97542021265462],[1.7737530886702926,48.98441131716244],[1.7703379105517445,48.98437635907642],[1.770284720301569,48.98662412182706],[1.766869399105108,48.986589065080636],[1.766816056562006,48.988836821606604],[1.7565696776379205,48.98873106368449]]]}},{"type":"Feature","properties":{"category":"observed_front","snapshot_index":1,"pass_time_utc":"2026-09-25T01:52:00+00:00","dt_local":"2026-09-25T03:52:00+02:00","area_km2":2.562,"label":"Activité observée","coherence_level":"indisponible","coherence_fraction":0.0,"projection_displayed":false,"model_version":"fire_progression_arrival_v1"},"geometry":{"type":"Polygon","coordinates":[[[1.7565696776379205,48.98873106368449],[1.756623463251942,48.986483311508806],[1.7532081605888554,48.986447865874666],[1.7532620892267117,48.98420011037416],[1.7498469389046185,48.984164568980596],[1.7500631973907397,48.9751735050688],[1.753477757137579,48.97520904061495],[1.7535316624581814,48.972961261253865],[1.7706037928022,48.973137473710544],[1.770550625550176,48.97538526032007],[1.77396521307905,48.97542021265462],[1.7737530886702926,48.98441131716244],[1.7703379105517445,48.98437635907642],[1.770284720301569,48.98662412182706],[1.766869399105108,48.986589065080636],[1.766816056562006,48.988836821606604],[1.7565696776379205,48.98873106368449]]]}},{"type":"Feature","properties":{"category":"historical_support","snapshot_index":2,"pass_time_utc":"2026-09-25T02:28:00+00:00","dt_local":"2026-09-25T04:28:00+02:00","area_km2":2.562,"label":"Isoline temporelle","coherence_level":"indisponible","coherence_fraction":0.0,"projection_displayed":false,"model_version":"fire_progression_arrival_v1"},"geometry":{"type":"Polygon","coordinates":[[[1.7565696776379205,48.98873106368449],[1.756623463251942,48.986483311508806],[1.7532081605888554,48.986447865874666],[1.7532620892267117,48.98420011037416],[1.7498469389046185,48.984164568980596],[1.7500631973907397,48.9751735050688],[1.753477757137579,48.97520904061495],[1.7535316624581814,48.972961261253865],[1.7706037928022,48.973137473710544],[1.770550625550176,48.97538526032007],[1.77396521307905,48.97542021265462],[1.7737530886702926,48.98441131716244],[1.7703379105517445,48.98437635907642],[1.770284720301569,48.98662412182706],[1.766869399105108,48.986589065080636],[1.766816056562006,48.988836821606604],[1.7565696776379205,48.98873106368449]]]}},{"type":"Feature","properties":{"category":"observed_front","snapshot_index":2,"pass_time_utc":"2026-09-25T02:28:00+00:00","dt_local":"2026-09-25T04:28:00+02:00","area_km2":2.312,"label":"Activité observée","coherence_level":"indisponible","coherence_fraction":0.0,"projection_displayed":false,"model_version":"fire_progression_arrival_v1"},"geometry":{"type":"Polygon","coordinates":[[[1.7565696776379205,48.98873106368449],[1.756623463251942,48.986483311508806],[1.7532081605888554,48.986447865874666],[1.7532620892267117,48.98420011037416],[1.7498469389046185,48.984164568980596],[1.7500091397832278,48.97742127820322],[1.7534238471547356,48.97745681521113],[1.753477757137579,48.97520904061495],[1.7568923215466592,48.97524447895967],[1.7569460792547489,48.97299669814088],[1.7671893574866782,48.973102425615274],[1.7671360426197391,48.97535021078311],[1.770550625550176,48.97538526032007],[1.7704974536997151,48.97763304216502],[1.7739121888568619,48.97766799593734],[1.7737530886702926,48.98441131716244],[1.7703379105517445,48.98437635907642],[1.770284720301569,48.98662412182706],[1.766869399105108,48.986589065080636],[1.766816056562006,48.988836821606604],[1.7565696776379205,48.98873106368449]]]}},{"type":"Feature","properties":{"category":"firms_extent_snapshot","snapshot_index":3,"pass_time_utc":"2026-09-25T02:47:00+00:00","dt_local":"2026-09-25T04:47:00+02:00","label":"Emprise FIRMS cumulée à ce passage","interpretation":"Enveloppe des détections FIRMS, pas une surface brûlée","cumulative":true,"point_count":6,"extent_method":"cumulative_detection_extent_smoothed_landmasked_web_v1","local_cluster_link_m":10000.0,"model_version":"fire_progression_arrival_v1"},"geometry":{"type":"Polygon","coordinates":[[[1.7548609213832564,48.98604349234468],[1.7557581506524966,48.988412512911495],[1.7571399015053846,48.98927970027481],[1.7588178383021549,48.98963373192333],[1.7620511412768822,48.98888624782439],[1.764030845667486,48.9865869841326],[1.766930228355142,48.98504285126395],[1.7676375573165952,48.983761284489006],[1.7661023650877965,48.978976339025124],[1.7647887932179935,48.97799183411067],[1.7628419043552828,48.97752623268145],[1.7603094148241434,48.977916123159],[1.7575932956565101,48.97989689238386],[1.7540514690329312,48.98090903189747],[1.7525039683446175,48.98297747403722],[1.7529571259883758,48.984253367749766],[1.7548609213832564,48.98604349234468]],[[1.7602103807493297,48.97932581618348],[1.760519700051842,48.98067800722605],[1.7584600056201627,48.98110637139298],[1.7581399952053947,48.980203729385465],[1.7602103807493297,48.97932581618348]]]}},{"type":"Feature","properties":{"category":"historical_support","snapshot_index":3,"pass_time_utc":"2026-09-25T02:47:00+00:00","dt_local":"2026-09-25T04:47:00+02:00","area_km2":3.438,"label":"Isoline temporelle","coherence_level":"indisponible","coherence_fraction":0.0,"projection_displayed":false,"model_version":"fire_progression_arrival_v1"},"geometry":{"type":"Polygon","coordinates":[[[1.749684695929157,48.99090781674348],[1.749738781599417,48.98866007227457],[1.7463233405917427,48.98862443073163],[1.7464317932599533,48.98412893036975],[1.7430166523054829,48.98409319454186],[1.7431253815236378,48.979597678002015],[1.7465402271673838,48.979633410890074],[1.7465944370873276,48.97738564399005],[1.7500091397832278,48.97742127820322],[1.7500631973907397,48.9751735050688],[1.753477757137579,48.97520904061495],[1.7535316624581814,48.972961261253865],[1.7706037928022,48.973137473710544],[1.770550625550176,48.97538526032007],[1.77396521307905,48.97542021265462],[1.7737530886702926,48.98441131716244],[1.7703379105517445,48.98437635907642],[1.770284720301569,48.98662412182706],[1.766869399105108,48.986589065080636],[1.766816056562006,48.988836821606604],[1.7634005922888278,48.988801666191854],[1.7633470974272587,48.991049416485446],[1.749684695929157,48.99090781674348]]]}},{"type":"Feature","properties":{"category":"observed_front","snapshot_index":3,"pass_time_utc":"2026-09-25T02:47:00+00:00","dt_local":"2026-09-25T04:47:00+02:00","area_km2":2.625,"label":"Activité observée","coherence_level":"indisponible","coherence_fraction":0.0,"projection_displayed":false,"model_version":"fire_progression_arrival_v1"},"geometry":{"type":"Polygon","coordinates":[[[1.749684695929157,48.99090781674348],[1.749738781599417,48.98866007227457],[1.7463233405917427,48.98862443073163],[1.7464317932599533,48.98412893036975],[1.7430166523054829,48.98409319454186],[1.7431253815236378,48.979597678002015],[1.7465402271673838,48.979633410890074],[1.7465944370873276,48.97738564399005],[1.7500091397832278,48.97742127820322],[1.7500631973907397,48.9751735050688],[1.7637214643005,48.97531506404392],[1.7636679971952849,48.977562843001344],[1.767082723141602,48.977597991186286],[1.7669760703493411,48.982093537684335],[1.770391096201096,48.98212859154679],[1.770284720301569,48.98662412182706],[1.766869399105108,48.986589065080636],[1.766816056562006,48.988836821606604],[1.7634005922888278,48.988801666191854],[1.7633470974272587,48.991049416485446],[1.749684695929157,48.99090781674348]]]}},{"type":"Feature","properties":{"category":"firms_extent_snapshot","snapshot_index":4,"pass_time_utc":"2026-09-26T01:32:00+00:00","dt_local":"2026-09-26T03:32:00+02:00","label":"Emprise FIRMS cumulée à ce passage","interpretation":"Enveloppe des détections FIRMS, pas une surface brûlée","cumulative":true,"point_count":7,"extent_method":"cumulative_detection_extent_smoothed_landmasked_web_v1","local_cluster_link_m":10000.0,"model_version":"fire_progression_arrival_v1"},"geometry":{"type":"Polygon","coordinates":[[[1.7548609213832564,48.98604349234468],[1.7557581506524966,48.988412512911495],[1.7571399015053846,48.98927970027481],[1.7588178383021549,48.98963373192333],[1.7620511412768822,48.98888624782439],[1.764030845667486,48.9865869841326],[1.766930228355142,48.98504285126395],[1.7676375573165952,48.983761284489006],[1.7661023650877965,48.978976339025124],[1.7647887932179935,48.97799183411067],[1.7628419043552828,48.97752623268145],[1.7603094148241434,48.977916123159],[1.7575932956565101,48.97989689238386],[1.7540514690329312,48.98090903189747],[1.7525039683446175,48.98297747403722],[1.7529571259883758,48.984253367749766],[1.7548609213832564,48.98604349234468]],[[1.7602103807493297,48.97932581618348],[1.760519700051842,48.98067800722605],[1.7584600056201627,48.98110637139298],[1.7581399952053947,48.980203729385465],[1.7602103807493297,48.97932581618348]]]}},{"type":"Feature","properties":{"category":"historical_support","snapshot_index":4,"pass_time_utc":"2026-09-26T01:32:00+00:00","dt_local":"2026-09-26T03:32:00+02:00","area_km2":3.438,"label":"Isoline temporelle","coherence_level":"indisponible","coherence_fraction":0.0,"projection_displayed":false,"model_version":"fire_progression_arrival_v1"},"geometry":{"type":"Polygon","coordinates":[[[1.749684695929157,48.99090781674348],[1.749738781599417,48.98866007227457],[1.7463233405917427,48.98862443073163],[1.7464317932599533,48.98412893036975],[1.7430166523054829,48.98409319454186],[1.7431253815236378,48.979597678002015],[1.7465402271673838,48.979633410890074],[1.7465944370873276,48.97738564399005],[1.7500091397832278,48.97742127820322],[1.7500631973907397,48.9751735050688],[1.753477757137579,48.97520904061495],[1.7535316624581814,48.972961261253865],[1.7706037928022,48.973137473710544],[1.770550625550176,48.97538526032007],[1.77396521307905,48.97542021265462],[1.7737530886702926,48.98441131716244],[1.7703379105517445,48.98437635907642],[1.770284720301569,48.98662412182706],[1.766869399105108,48.986589065080636],[1.766816056562006,48.988836821606604],[1.7634005922888278,48.988801666191854],[1.7633470974272587,48.991049416485446],[1.749684695929157,48.99090781674348]]]}},{"type":"Feature","properties":{"category":"observed_front","snapshot_index":4,"pass_time_utc":"2026-09-26T01:32:00+00:00","dt_local":"2026-09-26T03:32:00+02:00","area_km2":2.312,"label":"Activité observée","coherence_level":"indisponible","coherence_fraction":0.0,"projection_displayed":false,"model_version":"fire_progression_arrival_v1"},"geometry":{"type":"Polygon","coordinates":[[[1.7565696776379205,48.98873106368449],[1.756623463251942,48.986483311508806],[1.7532081605888554,48.986447865874666],[1.7532620892267117,48.98420011037416],[1.7498469389046185,48.984164568980596],[1.7500091397832278,48.97742127820322],[1.7534238471547356,48.97745681521113],[1.753477757137579,48.97520904061495],[1.7568923215466592,48.97524447895967],[1.7569460792547489,48.97299669814088],[1.7671893574866782,48.973102425615274],[1.7671360426197391,48.97535021078311],[1.770550625550176,48.97538526032007],[1.7704974536997151,48.97763304216502],[1.7739121888568619,48.97766799593734],[1.7737530886702926,48.98441131716244],[1.7703379105517445,48.98437635907642],[1.770284720301569,48.98662412182706],[1.766869399105108,48.986589065080636],[1.766816056562006,48.988836821606604],[1.7565696776379205,48.98873106368449]]]}},{"type":"Feature","properties":{"category":"historical_support","snapshot_index":5,"pass_time_utc":"2026-09-26T02:11:00+00:00","dt_local":"2026-09-26T04:11:00+02:00","area_km2":3.438,"label":"Isoline temporelle","coherence_level":"indisponible","coherence_fraction":0.0,"projection_displayed":false,"model_version":"fire_progression_arrival_v1"},"geometry":{"type":"Polygon","coordinates":[[[1.749684695929157,48.99090781674348],[1.749738781599417,48.98866007227457],[1.7463233405917427,48.98862443073163],[1.7464317932599533,48.98412893036975],[1.7430166523054829,48.98409319454186],[1.7431253815236378,48.979597678002015],[1.7465402271673838,48.979633410890074],[1.7465944370873276,48.97738564399005],[1.7500091397832278,48.97742127820322],[1.7500631973907397,48.9751735050688],[1.753477757137579,48.97520904061495],[1.7535316624581814,48.972961261253865],[1.7706037928022,48.973137473710544],[1.770550625550176,48.97538526032007],[1.77396521307905,48.97542021265462],[1.7737530886702926,48.98441131716244],[1.7703379105517445,48.98437635907642],[1.770284720301569,48.98662412182706],[1.766869399105108,48.986589065080636],[1.766816056562006,48.988836821606604],[1.7634005922888278,48.988801666191854],[1.7633470974272587,48.991049416485446],[1.749684695929157,48.99090781674348]]]}},{"type":"Feature","properties":{"category":"observed_front","snapshot_index":5,"pass_time_utc":"2026-09-26T02:11:00+00:00","dt_local":"2026-09-26T04:11:00+02:00","area_km2":2.688,"label":"Activité observée","coherence_level":"indisponible","coherence_fraction":0.0,"projection_displayed":false,"model_version":"fire_progression_arrival_v1"},"geometry":{"type":"Polygon","coordinates":[[[1.7565158873707984,48.990978811073745],[1.7565696776379205,48.98873106368449],[1.749738781599417,48.98866007227457],[1.7498469389046185,48.984164568980596],[1.7464317932599533,48.98412893036975],[1.7465402271673838,48.979633410890074],[1.749955077500108,48.97966904656907],[1.7500631973907397,48.9751735050688],[1.7568923215466592,48.97524447895967],[1.7569460792547489,48.97299669814088],[1.7637749267817562,48.97306728032177],[1.7637214643005,48.97531506404392],[1.770550625550176,48.97538526032007],[1.7704442772502205,48.979880819241785],[1.7738591600484028,48.979915774451946],[1.7737530886702926,48.98441131716244],[1.7703379105517445,48.98437635907642],[1.770284720301569,48.98662412182706],[1.766869399105108,48.986589065080636],[1.766816056562006,48.988836821606604],[1.7634005922888278,48.988801666191854],[1.7633470974272587,48.991049416485446],[1.7565158873707984,48.990978811073745]]]}},{"type":"Feature","properties":{"category":"historical_support","snapshot_index":6,"pass_time_utc":"2026-09-26T02:28:00+00:00","dt_local":"2026-09-26T04:28:00+02:00","area_km2":3.438,"label":"Isoline temporelle","coherence_level":"indisponible","coherence_fraction":0.0,"projection_displayed":false,"model_version":"fire_progression_arrival_v1"},"geometry":{"type":"Polygon","coordinates":[[[1.749684695929157,48.99090781674348],[1.749738781599417,48.98866007227457],[1.7463233405917427,48.98862443073163],[1.7464317932599533,48.98412893036975],[1.7430166523054829,48.98409319454186],[1.7431253815236378,48.979597678002015],[1.7465402271673838,48.979633410890074],[1.7465944370873276,48.97738564399005],[1.7500091397832278,48.97742127820322],[1.7500631973907397,48.9751735050688],[1.753477757137579,48.97520904061495],[1.7535316624581814,48.972961261253865],[1.7706037928022,48.973137473710544],[1.770550625550176,48.97538526032007],[1.77396521307905,48.97542021265462],[1.7737530886702926,48.98441131716244],[1.7703379105517445,48.98437635907642],[1.770284720301569,48.98662412182706],[1.766869399105108,48.986589065080636],[1.766816056562006,48.988836821606604],[1.7634005922888278,48.988801666191854],[1.7633470974272587,48.991049416485446],[1.749684695929157,48.99090781674348]]]}},{"type":"Feature","properties":{"category":"observed_front","snapshot_index":6,"pass_time_utc":"2026-09-26T02:28:00+00:00","dt_local":"2026-09-26T04:28:00+02:00","area_km2":2.5,"label":"Activité observée","coherence_level":"indisponible","coherence_fraction":0.0,"projection_displayed":false,"model_version":"fire_progression_arrival_v1"},"geometry":{"type":"Polygon","coordinates":[[[1.753154227285733,48.98869561659227],[1.7532081605888554,48.986447865874666],[1.7497928625910353,48.986412323019074],[1.749901010540774,48.98191681016272],[1.7464860125584618,48.981881173017854],[1.7465944370873276,48.97738564399005],[1.7500091397832278,48.97742127820322],[1.7500631973907397,48.9751735050688],[1.753477757137579,48.97520904061495],[1.7535316624581814,48.972961261253865],[1.7671893574866782,48.973102425615274],[1.7671360426197391,48.97535021078311],[1.770550625550176,48.97538526032007],[1.770284720301569,48.98662412182706],[1.766869399105108,48.986589065080636],[1.766816056562006,48.988836821606604],[1.753154227285733,48.98869561659227]]]}},{"type":"Feature","properties":{"category":"firms_extent_snapshot","snapshot_index":7,"pass_time_utc":"2026-09-26T03:10:00+00:00","dt_local":"2026-09-26T05:10:00+02:00","label":"Emprise FIRMS cumulée à ce passage","interpretation":"Enveloppe des détections FIRMS, pas une surface brûlée","cumulative":true,"point_count":13,"extent_method":"cumulative_detection_extent_smoothed_landmasked_web_v1","local_cluster_link_m":10000.0,"model_version":"fire_progression_arrival_v1"},"geometry":{"type":"Polygon","coordinates":[[[1.7548609213832564,48.98604349234468],[1.7557581506524966,48.988412512911495],[1.7571399015053846,48.98927970027481],[1.7588178383021549,48.98963373192333],[1.7614223798576742,48.98921511642857],[1.764431146008352,48.987356194057924],[1.7676375573165952,48.983761284489006],[1.7661023650877965,48.978976339025124],[1.7647887932179935,48.97799183411067],[1.7628419043552828,48.97752623268145],[1.7603094148241434,48.977916123159],[1.7540514690329312,48.98090903189747],[1.7525039683446175,48.98297747403722],[1.7529571259883758,48.984253367749766],[1.7548609213832564,48.98604349234468]],[[1.7602103807493297,48.97932581618348],[1.760519700051842,48.98067800722605],[1.7584600056201627,48.98110637139298],[1.7581399952053947,48.980203729385465],[1.7602103807493297,48.97932581618348]]]}},{"type":"Feature","properties":{"category":"historical_support","snapshot_index":7,"pass_time_utc":"2026-09-26T03:10:00+00:00","dt_local":"2026-09-26T05:10:00+02:00","area_km2":3.438,"label":"Isoline temporelle","coherence_level":"indisponible","coherence_fraction":0.0,"projection_displayed":false,"model_version":"fire_progression_arrival_v1"},"geometry":{"type":"Polygon","coordinates":[[[1.749684695929157,48.99090781674348],[1.749738781599417,48.98866007227457],[1.7463233405917427,48.98862443073163],[1.7464317932599533,48.98412893036975],[1.7430166523054829,48.98409319454186],[1.7431253815236378,48.979597678002015],[1.7465402271673838,48.979633410890074],[1.7465944370873276,48.97738564399005],[1.7500091397832278,48.97742127820322],[1.7500631973907397,48.9751735050688],[1.753477757137579,48.97520904061495],[1.7535316624581814,48.972961261253865],[1.7706037928022,48.973137473710544],[1.770550625550176,48.97538526032007],[1.77396521307905,48.97542021265462],[1.7737530886702926,48.98441131716244],[1.7703379105517445,48.98437635907642],[1.770284720301569,48.98662412182706],[1.766869399105108,48.986589065080636],[1.766816056562006,48.988836821606604],[1.7634005922888278,48.988801666191854],[1.7633470974272587,48.991049416485446],[1.749684695929157,48.99090781674348]]]}},{"type":"Feature","properties":{"category":"observed_front","snapshot_index":7,"pass_time_utc":"2026-09-26T03:10:00+00:00","dt_local":"2026-09-26T05:10:00+02:00","area_km2":2.312,"label":"Activité observée","coherence_level":"indisponible","coherence_fraction":0.0,"projection_displayed":false,"model_version":"fire_progression_arrival_v1"},"geometry":{"type":"Polygon","coordinates":[[[1.7565696776379205,48.98873106368449],[1.756623463251942,48.986483311508806],[1.7532081605888554,48.986447865874666],[1.7532620892267117,48.98420011037416],[1.7498469389046185,48.984164568980596],[1.7500091397832278,48.97742127820322],[1.7534238471547356,48.97745681521113],[1.753477757137579,48.97520904061495],[1.7568923215466592,48.97524447895967],[1.7569460792547489,48.97299669814088],[1.7671893574866782,48.973102425615274],[1.7671360426197391,48.97535021078311],[1.770550625550176,48.97538526032007],[1.7704974536997151,48.97763304216502],[1.7739121888568619,48.97766799593734],[1.7737530886702926,48.98441131716244],[1.7703379105517445,48.98437635907642],[1.770284720301569,48.98662412182706],[1.766869399105108,48.986589065080636],[1.766816056562006,48.988836821606604],[1.7565696776379205,48.98873106368449]]]}},{"type":"Feature","properties":{"category":"historical_support","snapshot_index":8,"pass_time_utc":"2026-09-27T02:53:00+00:00","dt_local":"2026-09-27T04:53:00+02:00","area_km2":3.438,"label":"Isoline temporelle","coherence_level":"indisponible","coherence_fraction":0.0,"projection_displayed":false,"model_version":"fire_progression_arrival_v1"},"geometry":{"type":"Polygon","coordinates":[[[1.749684695929157,48.99090781674348],[1.749738781599417,48.98866007227457],[1.7463233405917427,48.98862443073163],[1.7464317932599533,48.98412893036975],[1.7430166523054829,48.98409319454186],[1.7431253815236378,48.979597678002015],[1.7465402271673838,48.979633410890074],[1.7465944370873276,48.97738564399005],[1.7500091397832278,48.97742127820322],[1.7500631973907397,48.9751735050688],[1.753477757137579,48.97520904061495],[1.7535316624581814,48.972961261253865],[1.7706037928022,48.973137473710544],[1.770550625550176,48.97538526032007],[1.77396521307905,48.97542021265462],[1.7737530886702926,48.98441131716244],[1.7703379105517445,48.98437635907642],[1.770284720301569,48.98662412182706],[1.766869399105108,48.986589065080636],[1.766816056562006,48.988836821606604],[1.7634005922888278,48.988801666191854],[1.7633470974272587,48.991049416485446],[1.749684695929157,48.99090781674348]]]}},{"type":"Feature","properties":{"category":"observed_front","snapshot_index":8,"pass_time_utc":"2026-09-27T02:53:00+00:00","dt_local":"2026-09-27T04:53:00+02:00","area_km2":2.562,"label":"Activité observée","coherence_level":"indisponible","coherence_fraction":0.0,"projection_displayed":false,"model_version":"fire_progression_arrival_v1"},"geometry":{"type":"Polygon","coordinates":[[[1.753154227285733,48.98869561659227],[1.7532081605888554,48.986447865874666],[1.7497928625910353,48.986412323019074],[1.7498469389046185,48.984164568980596],[1.7464317932599533,48.98412893036975],[1.7465944370873276,48.97738564399005],[1.7500091397832278,48.97742127820322],[1.7500631973907397,48.9751735050688],[1.753477757137579,48.97520904061495],[1.7535316624581814,48.972961261253865],[1.7671893574866782,48.973102425615274],[1.7671360426197391,48.97535021078311],[1.770550625550176,48.97538526032007],[1.770284720301569,48.98662412182706],[1.766869399105108,48.986589065080636],[1.766816056562006,48.988836821606604],[1.753154227285733,48.98869561659227]]]}},{"type":"Feature","properties":{"category":"firms_extent_snapshot","snapshot_index":9,"pass_time_utc":"2026-09-27T03:30:00+00:00","dt_local":"2026-09-27T05:30:00+02:00","label":"Emprise FIRMS cumulée à ce passage","interpretation":"Enveloppe des détections FIRMS, pas une surface brûlée","cumulative":true,"point_count":17,"extent_method":"cumulative_detection_extent_smoothed_landmasked_web_v1","local_cluster_link_m":10000.0,"model_version":"fire_progression_arrival_v1"},"geometry":{"type":"Polygon","coordinates":[[[1.7571399015053846,48.98927970027481],[1.7588178383021549,48.98963373192333],[1.7614223798576742,48.98921511642857],[1.764431146008352,48.987356194057924],[1.7666523075372742,48.98550806061669],[1.7676375573165952,48.983761284489006],[1.7661023650877965,48.978976339025124],[1.7647887932179935,48.97799183411067],[1.7628419043552828,48.97752623268145],[1.7556015149329287,48.97868906042049],[1.7544257934527618,48.97967902029597],[1.7525039683446175,48.98297747403722],[1.7557581506524966,48.988412512911495],[1.7571399015053846,48.98927970027481]],[[1.7602103807493297,48.97932581618348],[1.760519700051842,48.98067800722605],[1.7584600056201627,48.98110637139298],[1.7581399952053947,48.980203729385465],[1.7602103807493297,48.97932581618348]]]}},{"type":"Feature","properties":{"category":"historical_support","snapshot_index":9,"pass_time_utc":"2026-09-27T03:30:00+00:00","dt_local":"2026-09-27T05:30:00+02:00","area_km2":3.438,"label":"Isoline temporelle","coherence_level":"indisponible","coherence_fraction":0.0,"projection_displayed":false,"model_version":"fire_progression_arrival_v1"},"geometry":{"type":"Polygon","coordinates":[[[1.749684695929157,48.99090781674348],[1.749738781599417,48.98866007227457],[1.7463233405917427,48.98862443073163],[1.7464317932599533,48.98412893036975],[1.7430166523054829,48.98409319454186],[1.7431253815236378,48.979597678002015],[1.7465402271673838,48.979633410890074],[1.7465944370873276,48.97738564399005],[1.7500091397832278,48.97742127820322],[1.7500631973907397,48.9751735050688],[1.753477757137579,48.97520904061495],[1.7535316624581814,48.972961261253865],[1.7706037928022,48.973137473710544],[1.770550625550176,48.97538526032007],[1.77396521307905,48.97542021265462],[1.7737530886702926,48.98441131716244],[1.7703379105517445,48.98437635907642],[1.770284720301569,48.98662412182706],[1.766869399105108,48.986589065080636],[1.766816056562006,48.988836821606604],[1.7634005922888278,48.988801666191854],[1.7633470974272587,48.991049416485446],[1.749684695929157,48.99090781674348]]]}},{"type":"Feature","properties":{"category":"observed_front","snapshot_index":9,"pass_time_utc":"2026-09-27T03:30:00+00:00","dt_local":"2026-09-27T05:30:00+02:00","area_km2":2.312,"label":"Activité observée","coherence_level":"indisponible","coherence_fraction":0.0,"projection_displayed":false,"model_version":"fire_progression_arrival_v1"},"geometry":{"type":"Polygon","coordinates":[[[1.7565696776379205,48.98873106368449],[1.756623463251942,48.986483311508806],[1.7532081605888554,48.986447865874666],[1.7532620892267117,48.98420011037416],[1.7498469389046185,48.984164568980596],[1.7500091397832278,48.97742127820322],[1.7534238471547356,48.97745681521113],[1.753477757137579,48.97520904061495],[1.7568923215466592,48.97524447895967],[1.7569460792547489,48.97299669814088],[1.7671893574866782,48.973102425615274],[1.7671360426197391,48.97535021078311],[1.770550625550176,48.97538526032007],[1.7704974536997151,48.97763304216502],[1.7739121888568619,48.97766799593734],[1.7737530886702926,48.98441131716244],[1.7703379105517445,48.98437635907642],[1.770284720301569,48.98662412182706],[1.766869399105108,48.986589065080636],[1.766816056562006,48.988836821606604],[1.7565696776379205,48.98873106368449]]]}},{"type":"Feature","properties":{"category":"firms_extent_snapshot","snapshot_index":10,"pass_time_utc":"2026-09-27T12:42:00+00:00","dt_local":"2026-09-27T14:42:00+02:00","label":"Emprise FIRMS cumulée à ce passage","interpretation":"Enveloppe des détections FIRMS, pas une surface brûlée","cumulative":true,"point_count":18,"extent_method":"cumulative_detection_extent_smoothed_landmasked_web_v1","local_cluster_link_m":10000.0,"model_version":"fire_progression_arrival_v1"},"geometry":{"type":"Polygon","coordinates":[[[1.7571399015053846,48.98927970027481],[1.7588178383021549,48.98963373192333],[1.7614223798576742,48.98921511642857],[1.764431146008352,48.987356194057924],[1.7666523075372742,48.98550806061669],[1.7676375573165952,48.983761284489006],[1.7661023650877965,48.978976339025124],[1.7647887932179935,48.97799183411067],[1.7628419043552828,48.97752623268145],[1.7556015149329287,48.97868906042049],[1.7544257934527618,48.97967902029597],[1.7525039683446175,48.98297747403722],[1.7557581506524966,48.988412512911495],[1.7571399015053846,48.98927970027481]],[[1.7602103807493297,48.97932581618348],[1.760519700051842,48.98067800722605],[1.7584600056201627,48.98110637139298],[1.7581399952053947,48.980203729385465],[1.7602103807493297,48.97932581618348]]]}},{"type":"Feature","properties":{"category":"historical_support","snapshot_index":10,"pass_time_utc":"2026-09-27T12:42:00+00:00","dt_local":"2026-09-27T14:42:00+02:00","area_km2":3.438,"label":"Isoline temporelle","coherence_level":"indisponible","coherence_fraction":0.0,"projection_displayed":false,"model_version":"fire_progression_arrival_v1"},"geometry":{"type":"Polygon","coordinates":[[[1.749684695929157,48.99090781674348],[1.749738781599417,48.98866007227457],[1.7463233405917427,48.98862443073163],[1.7464317932599533,48.98412893036975],[1.7430166523054829,48.98409319454186],[1.7431253815236378,48.979597678002015],[1.7465402271673838,48.979633410890074],[1.7465944370873276,48.97738564399005],[1.7500091397832278,48.97742127820322],[1.7500631973907397,48.9751735050688],[1.753477757137579,48.97520904061495],[1.7535316624581814,48.972961261253865],[1.7706037928022,48.973137473710544],[1.770550625550176,48.97538526032007],[1.77396521307905,48.97542021265462],[1.7737530886702926,48.98441131716244],[1.7703379105517445,48.98437635907642],[1.770284720301569,48.98662412182706],[1.766869399105108,48.986589065080636],[1.766816056562006,48.988836821606604],[1.7634005922888278,48.988801666191854],[1.7633470974272587,48.991049416485446],[1.749684695929157,48.99090781674348]]]}},{"type":"Feature","properties":{"category":"observed_front","snapshot_index":10,"pass_time_utc":"2026-09-27T12:42:00+00:00","dt_local":"2026-09-27T14:42:00+02:00","area_km2":2.312,"label":"Activité observée","coherence_level":"indisponible","coherence_fraction":0.0,"projection_displayed":false,"model_version":"fire_progression_arrival_v1"},"geometry":{"type":"Polygon","coordinates":[[[1.753154227285733,48.98869561659227],[1.7532081605888554,48.986447865874666],[1.7497928625910353,48.986412323019074],[1.7498469389046185,48.984164568980596],[1.7464317932599533,48.98412893036975],[1.7465944370873276,48.97738564399005],[1.7500091397832278,48.97742127820322],[1.7500631973907397,48.9751735050688],[1.753477757137579,48.97520904061495],[1.7535316624581814,48.972961261253865],[1.7637749267817562,48.97306728032177],[1.7637214643005,48.97531506404392],[1.7671360426197391,48.97535021078311],[1.767082723141602,48.977597991186286],[1.7704974536997151,48.97763304216502],[1.7703379105517445,48.98437635907642],[1.7669227370340201,48.98434130377199],[1.766869399105108,48.986589065080636],[1.763454082522837,48.98655391111197],[1.7634005922888278,48.988801666191854],[1.753154227285733,48.98869561659227]]]}},{"type":"Feature","properties":{"category":"firms_extent_snapshot","snapshot_index":11,"pass_time_utc":"2026-09-28T01:52:00+00:00","dt_local":"2026-09-28T03:52:00+02:00","label":"Emprise FIRMS cumulée à ce passage","interpretation":"Enveloppe des détections FIRMS, pas une surface brûlée","cumulative":true,"point_count":19,"extent_method":"cumulative_detection_extent_smoothed_landmasked_web_v1","local_cluster_link_m":10000.0,"model_version":"fire_progression_arrival_v1"},"geometry":{"type":"MultiPolygon","coordinates":[[[[1.853356880796278,48.976730837214454],[1.8558932569998345,48.9790726901181],[1.860484711606577,48.980712822383154],[1.8618751806789715,48.98172397526712],[1.8628802379691896,48.98059100129114],[1.8661086779888472,48.97897031209098],[1.8694862412654403,48.97573752753562],[1.8703658025930006,48.96966435360507],[1.8683379404098166,48.968025033727734],[1.8646636024555188,48.967467158201394],[1.8613843418753353,48.965899377639865],[1.8589279252526687,48.965858733448854],[1.8555173769213609,48.967771876469286],[1.8519421820917,48.96907938672576],[1.8488046300223693,48.9736207616361],[1.8500217646709887,48.97557724261176],[1.853356880796278,48.976730837214454]]],[[[1.8586574549815087,48.98770554004632],[1.8600955119999374,48.98953937270737],[1.8630828224326528,48.99016682343297],[1.8658692870661684,48.989220301559754],[1.8668225095710291,48.98725432099104],[1.8658901440038977,48.98575738836129],[1.8621746942580784,48.983726049133416],[1.859155140552813,48.98617481182459],[1.8586574549815087,48.98770554004632]]],[[[1.7566166598429374,48.989041688426155],[1.7583376611131925,48.98958587749458],[1.7602464812005494,48.98955602271797],[1.7652884011982093,48.988686879152716],[1.7671011090623665,48.987757414540184],[1.7692249592238887,48.9845572406566],[1.7688492504157118,48.98181105189896],[1.7648565068315387,48.978024280574616],[1.7610300785228006,48.97697686351614],[1.7588137394275885,48.97695394940301],[1.7572472342783643,48.97748444340207],[1.7547803057325233,48.979266895984004],[1.750913830934665,48.98473741981919],[1.7518562430655715,48.98649970021448],[1.7566166598429374,48.989041688426155]],[[1.7595274134190313,48.97931875520822],[1.760546503861267,48.979554122334434],[1.7601728450808214,48.98089925493007],[1.7581238816351086,48.98087805972893],[1.7595274134190313,48.97931875520822]]]]}},{"type":"Feature","properties":{"category":"historical_support","snapshot_index":11,"pass_time_utc":"2026-09-28T01:52:00+00:00","dt_local":"2026-09-28T03:52:00+02:00","area_km2":3.438,"label":"Isoline temporelle","coherence_level":"indisponible","coherence_fraction":0.0,"projection_displayed":false,"model_version":"fire_progression_arrival_v1"},"geometry":{"type":"Polygon","coordinates":[[[1.749684695929157,48.99090781674348],[1.749738781599417,48.98866007227457],[1.7463233405917427,48.98862443073163],[1.7464317932599533,48.98412893036975],[1.7430166523054829,48.98409319454186],[1.7431253815236378,48.979597678002015],[1.7465402271673838,48.979633410890074],[1.7465944370873276,48.97738564399005],[1.7500091397832278,48.97742127820322],[1.7500631973907397,48.9751735050688],[1.753477757137579,48.97520904061495],[1.7535316624581814,48.972961261253865],[1.7706037928022,48.973137473710544],[1.770550625550176,48.97538526032007],[1.77396521307905,48.97542021265462],[1.7737530886702926,48.98441131716244],[1.7703379105517445,48.98437635907642],[1.770284720301569,48.98662412182706],[1.766869399105108,48.986589065080636],[1.766816056562006,48.988836821606604],[1.7634005922888278,48.988801666191854],[1.7633470974272587,48.991049416485446],[1.749684695929157,48.99090781674348]]]}},{"type":"Feature","properties":{"category":"observed_front","snapshot_index":11,"pass_time_utc":"2026-09-28T01:52:00+00:00","dt_local":"2026-09-28T03:52:00+02:00","area_km2":2.312,"label":"Activité observée","coherence_level":"indisponible","coherence_fraction":0.0,"projection_displayed":false,"model_version":"fire_progression_arrival_v1"},"geometry":{"type":"Polygon","coordinates":[[[1.7531002893167391,48.99094336252334],[1.753154227285733,48.98869561659227],[1.749738781599417,48.98866007227457],[1.7497928625910353,48.986412323019074],[1.7463775692712498,48.98637668294222],[1.7465402271673838,48.979633410890074],[1.749955077500108,48.97966904656907],[1.7500091397832278,48.97742127820322],[1.7534238471547356,48.97745681521113],[1.753477757137579,48.97520904061495],[1.7637214643005,48.97531506404392],[1.7636679971952849,48.977562843001344],[1.767082723141602,48.977597991186286],[1.7670293990516688,48.97984576682124],[1.7704442772502205,48.979880819241785],[1.770284720301569,48.98662412182706],[1.766869399105108,48.986589065080636],[1.766816056562006,48.988836821606604],[1.7634005922888278,48.988801666191854],[1.7633470974272587,48.991049416485446],[1.7531002893167391,48.99094336252334]]]}}]}