{"type":"FeatureCollection","name":"detection_envelopes","crs":{"type":"name","properties":{"name":"urn:ogc:def:crs:OGC:1.3:CRS84"}},"features":[{"type":"Feature","properties":{"cluster_id":1,"snapshot_index":1,"estimated_time_utc":"2026-09-28T00:56:00Z","observed_until_utc":"2026-09-28T00:56:00Z","target_time_utc":"2026-09-28T00:56:00Z","arrival_h":0.0,"hours_ago":11.383333333333333,"supported_detections_cumulative":3,"sources_cumulative":"VIIRS_NOAA21_NRT","last_source":"VIIRS_NOAA21_NRT","last_satellite":"N21","last_instrument":"VIIRS","detected_area_km2":0.6743202356864694,"product_type":"cumulative_active_fire_detection_extent"},"geometry":{"type":"LineString","coordinates":[[1.993953675362613,42.705458197278496],[1.990673260610648,42.70532308835991],[1.988373384578465,42.70642532240731],[1.987769995668285,42.70844045456155],[1.989275481599344,42.710180027270724],[1.991293408631743,42.71066574325748],[1.99371552227975,42.710191429552154],[2.000132028316651,42.710324509765236],[2.001807598627348,42.709888604980286],[2.003006647096591,42.70892165996167],[2.003293306292041,42.70686883458697],[2.001527841783722,42.70526776912608],[1.999806417723678,42.70494369994221],[1.993953675362613,42.705458197278496]]}},{"type":"Feature","properties":{"cluster_id":1,"snapshot_index":2,"estimated_time_utc":"2026-09-28T02:38:00Z","observed_until_utc":"2026-09-28T02:38:00Z","target_time_utc":"2026-09-28T06:56:00Z","arrival_h":1.7,"hours_ago":9.683333333333334,"supported_detections_cumulative":14,"sources_cumulative":"VIIRS_NOAA20_NRT, VIIRS_NOAA21_NRT, VIIRS_SNPP_NRT","last_source":"VIIRS_NOAA21_NRT","last_satellite":"N21","last_instrument":"VIIRS","detected_area_km2":1.519058859877342,"product_type":"cumulative_active_fire_detection_extent"},"geometry":{"type":"LineString","coordinates":[[1.988076374930195,42.710360784115075],[1.989201776507375,42.711637985964984],[1.99085021413555,42.71223208224406],[1.994294587805803,42.71159843394445],[1.997839047198398,42.71157988375291],[1.998685475189126,42.71269871783497],[1.99893006526714,42.71510123664397],[2.001055952796914,42.716443392036496],[2.003846220403728,42.71628389224806],[2.005666199860408,42.71471618024133],[2.005790224050747,42.71340905817646],[2.004754451124803,42.7117911959028],[2.004850029485542,42.71013909123852],[2.004106063515986,42.7089267371898],[2.003773281888084,42.706568819100276],[2.002401445214845,42.70515079223932],[2.001881359828923,42.70324903843621],[1.999933917830439,42.702136660299466],[1.998161734868791,42.702045092659084],[1.996026400312082,42.702667260095055],[1.993621937117661,42.70247506451738],[1.991729601893391,42.70318392991903],[1.990614767014429,42.70533331028811],[1.989063713609518,42.70587784278642],[1.987998759291911,42.70692666441804],[1.9874339195684,42.708737531886584],[1.988076374930195,42.710360784115075]]}},{"type":"Feature","properties":{"cluster_id":1,"snapshot_index":3,"estimated_time_utc":"2026-09-28T12:19:00Z","observed_until_utc":"2026-09-28T12:19:00Z","target_time_utc":"2026-09-28T12:19:00Z","arrival_h":11.383333333333333,"hours_ago":0.0,"supported_detections_cumulative":18,"sources_cumulative":"MODIS_NRT, VIIRS_NOAA20_NRT, VIIRS_NOAA21_NRT, VIIRS_SNPP_NRT","last_source":"VIIRS_NOAA21_NRT","last_satellite":"N21","last_instrument":"VIIRS","detected_area_km2":15.122837886869934,"product_type":"cumulative_active_fire_detection_extent"},"geometry":{"type":"MultiLineString","coordinates":[[[1.939478083333609,42.64438994369191],[1.938947201289339,42.642363949996174],[1.936436028172232,42.64118507718096],[1.936535732728753,42.639277716460775],[1.938720473739106,42.63803140345618],[1.939535413238936,42.636632236637375],[1.939166848365938,42.635090774079075],[1.937954691832635,42.634076188610784],[1.935216634689284,42.63366290943716],[1.932853231402591,42.63483780005346],[1.931534719272846,42.63316144717726],[1.929579960023405,42.63180834403823],[1.927177507724602,42.63093245060148],[1.924534213200743,42.630609174411575],[1.920159679586205,42.63137160829259],[1.916841223152645,42.63354636412109],[1.915302784186771,42.63661938237206],[1.916179128489267,42.64075976424665],[1.913833473552137,42.64334466584438],[1.913078093293196,42.645959633056904],[1.914111251096387,42.64914590603406],[1.917057271519695,42.65159636804129],[1.921220468459466,42.65273219836474],[1.925617424936278,42.65228507978678],[1.928600742484411,42.65084626366569],[1.930777266238712,42.648345064510444],[1.933902738845338,42.648063746882514],[1.935434548192039,42.64657158587774],[1.93842595826801,42.64579727885422],[1.939478083333609,42.64438994369191]],[[1.95834801763288,42.64657555032537],[1.960784567436994,42.647586941744464],[1.963476216010339,42.647030154516784],[1.964846087792283,42.64523138126773],[1.964091818253917,42.6432443752351],[1.96165539257349,42.642233063385696],[1.958963948102867,42.64278980222362],[1.957593952197236,42.64458849590297],[1.95834801763288,42.64657555032537]],[[1.992029346520084,42.70204980969787],[1.989890470747633,42.70247804317946],[1.987066350751983,42.70094461674892],[1.983663378060816,42.70015688893188],[1.980168165905337,42.70037728101715],[1.97767480107928,42.701218164267296],[1.975128419057678,42.70306022197239],[1.973731483168987,42.70548076592282],[1.973696785952662,42.70811133947733],[1.975029785314224,42.71055146298195],[1.978240397799197,42.71275395096648],[1.982201707515738,42.71358626988387],[1.984503406728809,42.716571784779354],[1.986590862576934,42.71774432493227],[1.988987975682385,42.71841848424828],[1.991265452243402,42.72001329695888],[1.993445467769391,42.72003381063625],[1.995310741888432,42.71913003424025],[1.999543778130566,42.720155773281576],[2.003077409107902,42.71930949293256],[2.00725558873346,42.72023218845245],[2.009890720682789,42.71966932177948],[2.011533228741325,42.71726757041463],[2.01135651296918,42.71574997928739],[2.010145475092947,42.71457653347709],[2.011735842908585,42.71240913457331],[2.012171358913852,42.71045677779228],[2.011802985734688,42.70845291221947],[2.010188027065081,42.70615589471457],[2.005045347187441,42.70239847035446],[2.001915657309457,42.70113673474944],[1.998369619406778,42.70085430411773],[1.992029346520084,42.70204980969787]],[[2.265526441130443,42.803394993165206],[2.262543661523628,42.80484340031048],[2.260563960430082,42.806981438705364],[2.259822620324892,42.80955513929993],[2.260475402450704,42.812141820236846],[2.26312734615499,42.81482647813809],[2.267754865980729,42.816316863817505],[2.267964372917419,42.81785927221532],[2.269262217707181,42.81904571457159],[2.271286251132665,42.81952619933291],[2.273276118425562,42.81912491560469],[2.273421886039631,42.820758555775406],[2.274791819573927,42.82201066088271],[2.278706488842988,42.82250661383881],[2.280954795633564,42.821939734492375],[2.283019967489084,42.823673182802395],[2.288246341098773,42.82431778183971],[2.291389844636516,42.82302885229395],[2.29458926167357,42.822942138686656],[2.296735666655491,42.82143922588216],[2.299710897588914,42.82140104398683],[2.301694350261142,42.820319696164255],[2.302300984887931,42.81860143794993],[2.30148312719452,42.817110725058846],[2.298099019866666,42.81545272842671],[2.296314198234999,42.815135128221236],[2.294492071215711,42.81384120452035],[2.297439303780913,42.811564376169336],[2.297339060182302,42.80925967729126],[2.29580889521789,42.8081127813131],[2.293633401110582,42.80781546440124],[2.29161712530188,42.80592908654913],[2.288457483058426,42.804755678731674],[2.284254804038727,42.80459193889853],[2.280823039176403,42.80515758302817],[2.277628097866876,42.80424353545519],[2.274339595283962,42.804112622038815],[2.269991638006643,42.8029383886978],[2.265526441130443,42.803394993165206]]]}}],"metadata":{"generated_at_utc":"2026-10-02T06:10:18.733123Z","product_type":"cumulative_active_fire_detection_extent","product_label":"Emprises cumulées des détections actives FIRMS","not_a_burn_perimeter":true,"not_a_continuous_fire_front":true,"not_an_arrival_time_interpolation":true,"snapshot_step_hours":6,"confidence_filter":{"VIIRS":["nominal","high"],"MODIS_minimum":30},"footprint_radius_m":{"VIIRS":300.0,"MODIS":750.0},"same_pass_neighbour_m":2000.0,"continuity_distance_m":3000.0,"clusters":[{"cluster_id":1,"first_supported_detection_utc":"2026-09-28T00:56:00Z","last_supported_detection_utc":"2026-09-28T12:19:00Z","pass_states":6,"published_snapshots":3,"final_detected_area_km2":3.388535298845185}]},"bbox":[1.9130780932931961,42.630609174411575,2.302300984887931,42.82431778183971]}