{"type":"FeatureCollection","name":"fire_progression_arrival_v1","features":[{"type":"Feature","properties":{"category":"arrival_step","arrival_snapshot_index":4,"first_detected_utc":"2026-09-27T12:40:00+00:00","first_detected_local":"2026-09-27T14:40:00+02:00","area_km2":3.375,"label":"Première détection FIRMS","model_version":"fire_progression_arrival_v1"},"geometry":{"type":"Polygon","coordinates":[[[1.9909771112237902,42.717079702942],[1.9910160617140475,42.71483209916019],[1.9879681051763918,42.71480333432429],[1.9880071702872981,42.71255573646472],[1.9849593343927585,42.712526886046945],[1.9851552027200168,42.70128897399937],[1.98820245061485,42.70131781854383],[1.9882414976374074,42.69907024925757],[1.9912886309730222,42.699099005895526],[1.991327557418077,42.69685144021187],[2.0035156504546876,42.696965594792786],[2.0034771942690988,42.69921316512491],[2.0065243425361667,42.69924148810099],[2.00644765641887,42.70373664538995],[2.0094950428043705,42.70376488393289],[2.009418580043672,42.708260062591144],[2.0063709584625222,42.70823182174834],[2.006294248664383,42.71272701715036],[2.003246394812417,42.71269868725354],[2.00320791784257,42.71494629093421],[1.997111983800885,42.71488936856141],[1.9970732685848633,42.717136974675284],[1.9909771112237902,42.717079702942]]]}},{"type":"Feature","properties":{"category":"arrival_step","arrival_snapshot_index":6,"first_detected_utc":"2026-09-27T15:07:00+00:00","first_detected_local":"2026-09-27T17:07:00+02:00","area_km2":1.312,"label":"Première détection FIRMS","model_version":"fire_progression_arrival_v1"},"geometry":{"type":"Polygon","coordinates":[[[1.9788636716867796,42.712468924952425],[1.978903086635311,42.71022133538192],[1.9758553774590641,42.71019222589082],[1.9760529945206897,42.6989543553874],[1.9821472400157585,42.699012475785885],[1.982186519151764,42.69676491362565],[1.991327557418077,42.69685144021187],[1.9912886309730222,42.699099005895526],[1.9882414976374074,42.69907024925757],[1.98820245061485,42.70131781854383],[1.9851552027200168,42.70128897399937],[1.9849593343927585,42.712526886046945],[1.9788636716867796,42.712468924952425]]]}},{"type":"Feature","properties":{"category":"arrival_step","arrival_snapshot_index":9,"first_detected_utc":"2026-09-28T01:52:00+00:00","first_detected_local":"2026-09-28T03:52:00+02:00","area_km2":0.25,"label":"Première détection FIRMS","model_version":"fire_progression_arrival_v1"},"geometry":{"type":"Polygon","coordinates":[[[2.00320791784257,42.71494629093421],[2.003246394812417,42.71269868725354],[2.006294248664383,42.71272701715036],[2.0063709584625222,42.70823182174834],[2.009418580043672,42.708260062591144],[2.009303863766475,42.71500286627755],[2.00320791784257,42.71494629093421]]]}},{"type":"Feature","properties":{"category":"firms_extent_snapshot","snapshot_index":2,"pass_time_utc":"2026-09-27T01:52:00+00:00","dt_local":"2026-09-27T03:52:00+02:00","label":"Emprise FIRMS cumulée à ce passage","interpretation":"Enveloppe des détections FIRMS, pas une surface brûlée","cumulative":true,"point_count":2,"extent_method":"cumulative_detection_extent_smoothed_landmasked_web_v1","local_cluster_link_m":10000.0,"model_version":"fire_progression_arrival_v1"},"geometry":{"type":"MultiPolygon","coordinates":[[[[1.9932845130388328,42.711175691519365],[1.9939169556068654,42.712724637144454],[1.9957637035239784,42.713761782439406],[1.9976076350691836,42.71386064471764],[2.0007468143790574,42.71311888758937],[2.0003055205835225,42.71015928842913],[1.9981161933862843,42.708658210788144],[1.9963462285837665,42.708550624623854],[1.9948861531262905,42.7089806798085],[1.9937381087557957,42.709908977783904],[1.9932845130388328,42.711175691519365]]],[[[2.004142713398753,42.714821361998204],[2.0044381983932293,42.71748007422463],[2.0058806522118506,42.71895262367706],[2.0086181995955537,42.71938058984063],[2.010964281699046,42.71825581569847],[2.0115445267547303,42.71623723886781],[2.0100191898094084,42.71450734099399],[2.007637390876134,42.714043884504825],[2.004142713398753,42.714821361998204]]]]}},{"type":"Feature","properties":{"category":"observed_front","snapshot_index":2,"pass_time_utc":"2026-09-27T01:52:00+00:00","dt_local":"2026-09-27T03:52:00+02:00","area_km2":1.312,"label":"Activité observée","coherence_level":"indisponible","coherence_fraction":0.0,"projection_displayed":false,"model_version":"fire_progression_arrival_v1"},"geometry":{"type":"Polygon","coordinates":[[[1.9910160617140475,42.71483209916019],[1.9910550091974362,42.71258450012937],[1.9880071702872981,42.71255573646472],[1.9881243475278292,42.705812971423896],[1.9911718336098725,42.70584173157498],[1.9912107690692682,42.70359415158029],[2.0003528925362284,42.70367990808468],[2.000314309852562,42.70592749157144],[2.003361807902066,42.70595590475089],[2.003246394812417,42.71269868725354],[2.0001985439306615,42.71267027060292],[2.0001599493319104,42.71491787312643],[1.9910160617140475,42.71483209916019]]]}},{"type":"Feature","properties":{"category":"observed_front","snapshot_index":3,"pass_time_utc":"2026-09-27T11:55:00+00:00","dt_local":"2026-09-27T13:55:00+02:00","area_km2":3.062,"label":"Activité observée","coherence_level":"indisponible","coherence_fraction":0.0,"projection_displayed":false,"model_version":"fire_progression_arrival_v1"},"geometry":{"type":"Polygon","coordinates":[[[1.9910160617140475,42.71483209916019],[1.9910550091974362,42.71258450012937],[1.9880071702872981,42.71255573646472],[1.9880462323826074,42.71030814335934],[1.9849985141061586,42.71027929411631],[1.9851552027200168,42.70128897399937],[1.98820245061485,42.70131781854383],[1.9882414976374074,42.69907024925757],[1.9912886309730222,42.699099005895526],[1.991327557418077,42.69685144021187],[2.0035156504546876,42.696965594792786],[2.0034771942690988,42.69921316512491],[2.0065243425361667,42.69924148810099],[2.00644765641887,42.70373664538995],[2.0094950428043705,42.70376488393289],[2.009418580043672,42.708260062591144],[2.0063709584625222,42.70823182174834],[2.006294248664383,42.71272701715036],[2.0001985439306615,42.71267027060292],[2.0001599493319104,42.71491787312643],[1.9910160617140475,42.71483209916019]]]}},{"type":"Feature","properties":{"category":"historical_support","snapshot_index":4,"pass_time_utc":"2026-09-27T12:40:00+00:00","dt_local":"2026-09-27T14:40:00+02:00","area_km2":3.375,"label":"Isoline temporelle","coherence_level":"indisponible","coherence_fraction":0.0,"projection_displayed":false,"model_version":"fire_progression_arrival_v1"},"geometry":{"type":"Polygon","coordinates":[[[1.9909771112237902,42.717079702942],[1.9910160617140475,42.71483209916019],[1.9879681051763918,42.71480333432429],[1.9880071702872981,42.71255573646472],[1.9849593343927585,42.712526886046945],[1.9851552027200168,42.70128897399937],[1.98820245061485,42.70131781854383],[1.9882414976374074,42.69907024925757],[1.9912886309730222,42.699099005895526],[1.991327557418077,42.69685144021187],[2.0035156504546876,42.696965594792786],[2.0034771942690988,42.69921316512491],[2.0065243425361667,42.69924148810099],[2.00644765641887,42.70373664538995],[2.0094950428043705,42.70376488393289],[2.009418580043672,42.708260062591144],[2.0063709584625222,42.70823182174834],[2.006294248664383,42.71272701715036],[2.003246394812417,42.71269868725354],[2.00320791784257,42.71494629093421],[1.997111983800885,42.71488936856141],[1.9970732685848633,42.717136974675284],[1.9909771112237902,42.717079702942]]]}},{"type":"Feature","properties":{"category":"observed_front","snapshot_index":4,"pass_time_utc":"2026-09-27T12:40:00+00:00","dt_local":"2026-09-27T14:40:00+02:00","area_km2":3.375,"label":"Activité observée","coherence_level":"indisponible","coherence_fraction":0.0,"projection_displayed":false,"model_version":"fire_progression_arrival_v1"},"geometry":{"type":"Polygon","coordinates":[[[1.9909771112237902,42.717079702942],[1.9910160617140475,42.71483209916019],[1.9879681051763918,42.71480333432429],[1.9880071702872981,42.71255573646472],[1.9849593343927585,42.712526886046945],[1.9851552027200168,42.70128897399937],[1.98820245061485,42.70131781854383],[1.9882414976374074,42.69907024925757],[1.9912886309730222,42.699099005895526],[1.991327557418077,42.69685144021187],[2.0035156504546876,42.696965594792786],[2.0034771942690988,42.69921316512491],[2.0065243425361667,42.69924148810099],[2.00644765641887,42.70373664538995],[2.0094950428043705,42.70376488393289],[2.009418580043672,42.708260062591144],[2.0063709584625222,42.70823182174834],[2.006294248664383,42.71272701715036],[2.003246394812417,42.71269868725354],[2.00320791784257,42.71494629093421],[1.997111983800885,42.71488936856141],[1.9970732685848633,42.717136974675284],[1.9909771112237902,42.717079702942]]]}},{"type":"Feature","properties":{"category":"firms_extent_snapshot","snapshot_index":5,"pass_time_utc":"2026-09-27T13:16:00+00:00","dt_local":"2026-09-27T15:16:00+02:00","label":"Emprise FIRMS cumulée à ce passage","interpretation":"Enveloppe des détections FIRMS, pas une surface brûlée","cumulative":true,"point_count":11,"extent_method":"cumulative_detection_extent_smoothed_landmasked_web_v1","local_cluster_link_m":10000.0,"model_version":"fire_progression_arrival_v1"},"geometry":{"type":"MultiPolygon","coordinates":[[[[1.987604498196,42.711465497595896],[1.9884045476439989,42.713183512158025],[1.9905010081845413,42.71413724238535],[1.9974621113532198,42.714126139489586],[2.00051296742017,42.713469534320076],[2.0023317068554847,42.7137597385997],[2.001446038815736,42.7127411696997],[2.0012592723866325,42.71150880199146],[2.004084414496642,42.70717513024722],[2.0038453269576424,42.705119275839735],[2.002363773602469,42.703998633448485],[1.999553942326652,42.70350364201034],[1.997156110437583,42.70246823626992],[1.9942980565554276,42.70262639625403],[1.9896283825718621,42.706598858955005],[1.987604498196,42.711465497595896]]],[[[2.003230070843115,42.71423520982722],[2.0042283072449174,42.715520446265536],[2.0045548062464533,42.71773028464168],[2.0058806522118506,42.71895262367706],[2.0086181995955537,42.71938058984063],[2.010964281699046,42.71825581569847],[2.0115445267547303,42.71623723886781],[2.0100191898094084,42.71450734099399],[2.008070633119935,42.71403626895359],[2.005005829153242,42.71452935251419],[2.003230070843115,42.71423520982722]]]]}},{"type":"Feature","properties":{"category":"historical_support","snapshot_index":5,"pass_time_utc":"2026-09-27T13:16:00+00:00","dt_local":"2026-09-27T15:16:00+02:00","area_km2":3.375,"label":"Isoline temporelle","coherence_level":"indisponible","coherence_fraction":0.0,"projection_displayed":false,"model_version":"fire_progression_arrival_v1"},"geometry":{"type":"Polygon","coordinates":[[[1.9909771112237902,42.717079702942],[1.9910160617140475,42.71483209916019],[1.9879681051763918,42.71480333432429],[1.9880071702872981,42.71255573646472],[1.9849593343927585,42.712526886046945],[1.9851552027200168,42.70128897399937],[1.98820245061485,42.70131781854383],[1.9882414976374074,42.69907024925757],[1.9912886309730222,42.699099005895526],[1.991327557418077,42.69685144021187],[2.0035156504546876,42.696965594792786],[2.0034771942690988,42.69921316512491],[2.0065243425361667,42.69924148810099],[2.00644765641887,42.70373664538995],[2.0094950428043705,42.70376488393289],[2.009418580043672,42.708260062591144],[2.0063709584625222,42.70823182174834],[2.006294248664383,42.71272701715036],[2.003246394812417,42.71269868725354],[2.00320791784257,42.71494629093421],[1.997111983800885,42.71488936856141],[1.9970732685848633,42.717136974675284],[1.9909771112237902,42.717079702942]]]}},{"type":"Feature","properties":{"category":"observed_front","snapshot_index":5,"pass_time_utc":"2026-09-27T13:16:00+00:00","dt_local":"2026-09-27T15:16:00+02:00","area_km2":2.562,"label":"Activité observée","coherence_level":"indisponible","coherence_fraction":0.0,"projection_displayed":false,"model_version":"fire_progression_arrival_v1"},"geometry":{"type":"Polygon","coordinates":[[[1.9879681051763918,42.71480333432429],[1.9880071702872981,42.71255573646472],[1.9849593343927585,42.712526886046945],[1.9851552027200168,42.70128897399937],[1.98820245061485,42.70131781854383],[1.9882414976374074,42.69907024925757],[2.0004300489701787,42.699184755416205],[2.000391472241986,42.701432329365204],[2.0034387351153606,42.701460740230786],[2.0034002729931317,42.703708320107175],[2.00644765641887,42.70373664538995],[2.006332605043848,42.71047941707051],[2.0032848688120524,42.7104510883273],[2.003246394812417,42.71269868725354],[2.0001985439306615,42.71267027060292],[2.0001599493319104,42.71491787312643],[1.9879681051763918,42.71480333432429]]]}},{"type":"Feature","properties":{"category":"firms_extent_snapshot","snapshot_index":6,"pass_time_utc":"2026-09-27T15:07:00+00:00","dt_local":"2026-09-27T17:07:00+02:00","label":"Emprise FIRMS cumulée à ce passage","interpretation":"Enveloppe des détections FIRMS, pas une surface brûlée","cumulative":true,"point_count":13,"extent_method":"cumulative_detection_extent_smoothed_landmasked_web_v1","local_cluster_link_m":10000.0,"model_version":"fire_progression_arrival_v1"},"geometry":{"type":"Polygon","coordinates":[[[1.9750138101076846,42.710532827657616],[1.9767895937243263,42.71201591326169],[1.979142176084422,42.71307545294617],[1.9825622138755425,42.71360141137885],[1.9872480903942618,42.71320651954201],[1.990993951438764,42.71471536167424],[1.9936625450564314,42.715225309987865],[2.001670337114562,42.7142531617564],[2.003734088558073,42.71540336615018],[2.005094773785588,42.71841396551135],[2.0071916960025877,42.719367373641035],[2.009632912083114,42.719123421108115],[2.011337817764141,42.717741691006104],[2.0114807461000437,42.71603311941892],[2.01030466482817,42.714667597541],[2.0087082353051864,42.714092627547004],[2.0054714517617556,42.71392310044937],[2.0036573540823976,42.71280267486666],[2.003133348181425,42.711274858547924],[2.0042330699517064,42.706658124772424],[2.0039945987998236,42.70535985149645],[2.0026691018709952,42.70413750480049],[1.9981358974333863,42.702304063224034],[1.9947163824619523,42.701778607840474],[1.990267728367318,42.70220195194043],[1.9846512746843827,42.700277861299455],[1.9802118377820521,42.70036965311842],[1.9777000659781012,42.70120638260991],[1.975642579659377,42.70255895957706],[1.9750148714464129,42.70339871651761],[1.9775015809510963,42.703239295893816],[1.9765636783141265,42.70457910399251],[1.9744773574953376,42.70411778865505],[1.9739916831885846,42.70476749389876],[1.973539240056951,42.706772751703696],[1.9738983549515126,42.708733445721556],[1.9750138101076846,42.710532827657616]]]}},{"type":"Feature","properties":{"category":"historical_support","snapshot_index":6,"pass_time_utc":"2026-09-27T15:07:00+00:00","dt_local":"2026-09-27T17:07:00+02:00","area_km2":4.688,"label":"Isoline temporelle","coherence_level":"indisponible","coherence_fraction":0.0,"projection_displayed":false,"model_version":"fire_progression_arrival_v1"},"geometry":{"type":"Polygon","coordinates":[[[1.9909771112237902,42.717079702942],[1.9910160617140475,42.71483209916019],[1.9879681051763918,42.71480333432429],[1.9880071702872981,42.71255573646472],[1.9788636716867796,42.712468924952425],[1.978903086635311,42.71022133538192],[1.9758553774590641,42.71019222589082],[1.9760529945206897,42.6989543553874],[1.9821472400157585,42.699012475785885],[1.982186519151764,42.69676491362565],[2.0035156504546876,42.696965594792786],[2.0034771942690988,42.69921316512491],[2.0065243425361667,42.69924148810099],[2.00644765641887,42.70373664538995],[2.0094950428043705,42.70376488393289],[2.009418580043672,42.708260062591144],[2.0063709584625222,42.70823182174834],[2.006294248664383,42.71272701715036],[2.003246394812417,42.71269868725354],[2.00320791784257,42.71494629093421],[1.997111983800885,42.71488936856141],[1.9970732685848633,42.717136974675284],[1.9909771112237902,42.717079702942]]]}},{"type":"Feature","properties":{"category":"observed_front","snapshot_index":6,"pass_time_utc":"2026-09-27T15:07:00+00:00","dt_local":"2026-09-27T17:07:00+02:00","area_km2":3.625,"label":"Activité observée","coherence_level":"indisponible","coherence_fraction":0.0,"projection_displayed":false,"model_version":"fire_progression_arrival_v1"},"geometry":{"type":"Polygon","coordinates":[[[1.9879681051763918,42.71480333432429],[1.9880071702872981,42.71255573646472],[1.9788636716867796,42.712468924952425],[1.978903086635311,42.71022133538192],[1.9758553774590641,42.71019222589082],[1.9760529945206897,42.6989543553874],[1.9821472400157585,42.699012475785885],[1.982186519151764,42.69676491362565],[1.991327557418077,42.69685144021187],[1.9912886309730222,42.699099005895526],[2.0004300489701787,42.699184755416205],[2.000391472241986,42.701432329365204],[2.0034387351153606,42.701460740230786],[2.003246394812417,42.71269868725354],[1.9971506960281948,42.712641767198605],[1.997111983800885,42.71488936856141],[1.9879681051763918,42.71480333432429]]]}},{"type":"Feature","properties":{"category":"historical_support","snapshot_index":7,"pass_time_utc":"2026-09-28T00:56:00+00:00","dt_local":"2026-09-28T02:56:00+02:00","area_km2":4.688,"label":"Isoline temporelle","coherence_level":"indisponible","coherence_fraction":0.0,"projection_displayed":false,"model_version":"fire_progression_arrival_v1"},"geometry":{"type":"Polygon","coordinates":[[[1.9909771112237902,42.717079702942],[1.9910160617140475,42.71483209916019],[1.9879681051763918,42.71480333432429],[1.9880071702872981,42.71255573646472],[1.9788636716867796,42.712468924952425],[1.978903086635311,42.71022133538192],[1.9758553774590641,42.71019222589082],[1.9760529945206897,42.6989543553874],[1.9821472400157585,42.699012475785885],[1.982186519151764,42.69676491362565],[2.0035156504546876,42.696965594792786],[2.0034771942690988,42.69921316512491],[2.0065243425361667,42.69924148810099],[2.00644765641887,42.70373664538995],[2.0094950428043705,42.70376488393289],[2.009418580043672,42.708260062591144],[2.0063709584625222,42.70823182174834],[2.006294248664383,42.71272701715036],[2.003246394812417,42.71269868725354],[2.00320791784257,42.71494629093421],[1.997111983800885,42.71488936856141],[1.9970732685848633,42.717136974675284],[1.9909771112237902,42.717079702942]]]}},{"type":"Feature","properties":{"category":"observed_front","snapshot_index":7,"pass_time_utc":"2026-09-28T00:56:00+00:00","dt_local":"2026-09-28T02:56:00+02:00","area_km2":2.562,"label":"Activité observée","coherence_level":"indisponible","coherence_fraction":0.0,"projection_displayed":false,"model_version":"fire_progression_arrival_v1"},"geometry":{"type":"Polygon","coordinates":[[[1.9910550091974362,42.71258450012937],[1.9910939536743046,42.71033690585272],[1.9849985141061586,42.71027929411631],[1.9851943673152959,42.699041405887655],[1.9912886309730222,42.699099005895526],[1.991327557418077,42.69685144021187],[2.0004686227211526,42.6969371862409],[2.0004300489701787,42.699184755416205],[2.0065243425361667,42.69924148810099],[2.006332605043848,42.71047941707051],[2.000237135550124,42.71042267283377],[2.0001985439306615,42.71267027060292],[1.9910550091974362,42.71258450012937]]]}},{"type":"Feature","properties":{"category":"historical_support","snapshot_index":8,"pass_time_utc":"2026-09-28T01:34:00+00:00","dt_local":"2026-09-28T03:34:00+02:00","area_km2":4.688,"label":"Isoline temporelle","coherence_level":"indisponible","coherence_fraction":0.0,"projection_displayed":false,"model_version":"fire_progression_arrival_v1"},"geometry":{"type":"Polygon","coordinates":[[[1.9909771112237902,42.717079702942],[1.9910160617140475,42.71483209916019],[1.9879681051763918,42.71480333432429],[1.9880071702872981,42.71255573646472],[1.9788636716867796,42.712468924952425],[1.978903086635311,42.71022133538192],[1.9758553774590641,42.71019222589082],[1.9760529945206897,42.6989543553874],[1.9821472400157585,42.699012475785885],[1.982186519151764,42.69676491362565],[2.0035156504546876,42.696965594792786],[2.0034771942690988,42.69921316512491],[2.0065243425361667,42.69924148810099],[2.00644765641887,42.70373664538995],[2.0094950428043705,42.70376488393289],[2.009418580043672,42.708260062591144],[2.0063709584625222,42.70823182174834],[2.006294248664383,42.71272701715036],[2.003246394812417,42.71269868725354],[2.00320791784257,42.71494629093421],[1.997111983800885,42.71488936856141],[1.9970732685848633,42.717136974675284],[1.9909771112237902,42.717079702942]]]}},{"type":"Feature","properties":{"category":"observed_front","snapshot_index":8,"pass_time_utc":"2026-09-28T01:34:00+00:00","dt_local":"2026-09-28T03:34:00+02:00","area_km2":2.812,"label":"Activité observée","coherence_level":"indisponible","coherence_fraction":0.0,"projection_displayed":false,"model_version":"fire_progression_arrival_v1"},"geometry":{"type":"Polygon","coordinates":[[[1.9880071702872981,42.71255573646472],[1.9880462323826074,42.71030814335934],[1.9849985141061586,42.71027929411631],[1.9851552027200168,42.70128897399937],[1.98820245061485,42.70131781854383],[1.9882414976374074,42.69907024925757],[1.9912886309730222,42.699099005895526],[1.991327557418077,42.69685144021187],[2.0035156504546876,42.696965594792786],[2.0034771942690988,42.69921316512491],[2.0065243425361667,42.69924148810099],[2.00644765641887,42.70373664538995],[2.0094950428043705,42.70376488393289],[2.009418580043672,42.708260062591144],[2.0063709584625222,42.70823182174834],[2.006332605043848,42.71047941707051],[2.0032848688120524,42.7104510883273],[2.003246394812417,42.71269868725354],[1.9880071702872981,42.71255573646472]]]}},{"type":"Feature","properties":{"category":"firms_extent_snapshot","snapshot_index":9,"pass_time_utc":"2026-09-28T01:52:00+00:00","dt_local":"2026-09-28T03:52:00+02:00","label":"Emprise FIRMS cumulée à ce passage","interpretation":"Enveloppe des détections FIRMS, pas une surface brûlée","cumulative":true,"point_count":26,"extent_method":"cumulative_detection_extent_smoothed_landmasked_web_v1","local_cluster_link_m":10000.0,"model_version":"fire_progression_arrival_v1"},"geometry":{"type":"Polygon","coordinates":[[[1.9750138101076846,42.710532827657616],[1.9767895937243263,42.71201591326169],[1.979142176084422,42.71307545294617],[1.9825622138755425,42.71360141137885],[1.9870117948912294,42.71317838289493],[1.992629570921906,42.71510237312489],[1.9982177127082759,42.71519662951491],[2.0007482975293445,42.71635752283868],[2.003376031910737,42.716940072522746],[2.005595168360625,42.71879235468848],[2.0071916960025877,42.719367373641035],[2.009632912083114,42.719123421108115],[2.011337817764141,42.717741691006104],[2.011556384306338,42.71629166626118],[2.0108050610627384,42.71504596103629],[2.0094593608658142,42.7142753487662],[2.00676373199699,42.71366997874843],[2.0052433556860487,42.71238050363384],[2.00402117212413,42.70810594573711],[2.004020616643306,42.705411528573826],[2.0014680678799452,42.70285836204128],[2.0001721122539897,42.70220204205234],[1.9947163824619523,42.701778607840474],[1.990267728367318,42.70220195194043],[1.9853740554662378,42.70041870560727],[1.9809392973889077,42.700242589307294],[1.9777637204758955,42.701177496540026],[1.975689321977784,42.70251594594047],[1.9750241921704916,42.7033981190841],[1.9775015809510963,42.703239295893816],[1.9765636783141265,42.70457910399251],[1.974480966256164,42.70411858664487],[1.9739916831885846,42.70476749389876],[1.973539240056951,42.706772751703696],[1.9738983549515126,42.708733445721556],[1.9750138101076846,42.710532827657616]]]}},{"type":"Feature","properties":{"category":"historical_support","snapshot_index":9,"pass_time_utc":"2026-09-28T01:52:00+00:00","dt_local":"2026-09-28T03:52:00+02:00","area_km2":4.938,"label":"Isoline temporelle","coherence_level":"indisponible","coherence_fraction":0.0,"projection_displayed":false,"model_version":"fire_progression_arrival_v1"},"geometry":{"type":"Polygon","coordinates":[[[1.9909771112237902,42.717079702942],[1.9910160617140475,42.71483209916019],[1.9879681051763918,42.71480333432429],[1.9880071702872981,42.71255573646472],[1.9788636716867796,42.712468924952425],[1.978903086635311,42.71022133538192],[1.9758553774590641,42.71019222589082],[1.9760529945206897,42.6989543553874],[1.9821472400157585,42.699012475785885],[1.982186519151764,42.69676491362565],[2.0035156504546876,42.696965594792786],[2.0034771942690988,42.69921316512491],[2.0065243425361667,42.69924148810099],[2.00644765641887,42.70373664538995],[2.0094950428043705,42.70376488393289],[2.009303863766475,42.71500286627755],[1.997111983800885,42.71488936856141],[1.9970732685848633,42.717136974675284],[1.9909771112237902,42.717079702942]]]}},{"type":"Feature","properties":{"category":"observed_front","snapshot_index":9,"pass_time_utc":"2026-09-28T01:52:00+00:00","dt_local":"2026-09-28T03:52:00+02:00","area_km2":3.062,"label":"Activité observée","coherence_level":"indisponible","coherence_fraction":0.0,"projection_displayed":false,"model_version":"fire_progression_arrival_v1"},"geometry":{"type":"Polygon","coordinates":[[[1.9910160617140475,42.71483209916019],[1.9910550091974362,42.71258450012937],[1.9880071702872981,42.71255573646472],[1.9880462323826074,42.71030814335934],[1.9849985141061586,42.71027929411631],[1.9851552027200168,42.70128897399937],[1.98820245061485,42.70131781854383],[1.9882414976374074,42.69907024925757],[2.0034771942690988,42.69921316512491],[2.0034387351153606,42.701460740230786],[2.0064860009572283,42.70148906436019],[2.00644765641887,42.70373664538995],[2.0094950428043705,42.70376488393289],[2.009303863766475,42.71500286627755],[1.9910160617140475,42.71483209916019]]]}},{"type":"Feature","properties":{"category":"firms_extent_snapshot","snapshot_index":10,"pass_time_utc":"2026-09-28T02:38:00+00:00","dt_local":"2026-09-28T04:38:00+02:00","label":"Emprise FIRMS cumulée à ce passage","interpretation":"Enveloppe des détections FIRMS, pas une surface brûlée","cumulative":true,"point_count":27,"extent_method":"cumulative_detection_extent_smoothed_landmasked_web_v1","local_cluster_link_m":10000.0,"model_version":"fire_progression_arrival_v1"},"geometry":{"type":"Polygon","coordinates":[[[1.9750138101076846,42.710532827657616],[1.9767895937243263,42.71201591326169],[1.979142176084422,42.71307545294617],[1.9825622138755425,42.71360141137885],[1.9870117948912294,42.71317838289493],[1.992629570921906,42.71510237312489],[1.9982177127082759,42.71519662951491],[2.0007482975293445,42.71635752283868],[2.003376031910737,42.716940072522746],[2.005595168360625,42.71879235468848],[2.0071916960025877,42.719367373641035],[2.009632912083114,42.719123421108115],[2.011337817764141,42.717741691006104],[2.011556384306338,42.71629166626118],[2.0108050610627384,42.71504596103629],[2.0094593608658142,42.7142753487662],[2.00676373199699,42.71366997874843],[2.0052433556860487,42.71238050363384],[2.00402117212413,42.70810594573711],[2.004020616643306,42.705411528573826],[2.0014680678799452,42.70285836204128],[2.0001721122539897,42.70220204205234],[1.9947163824619523,42.701778607840474],[1.990267728367318,42.70220195194043],[1.9853740554662378,42.70041870560727],[1.9809392973889077,42.700242589307294],[1.9777637204758955,42.701177496540026],[1.975689321977784,42.70251594594047],[1.9750241921704916,42.7033981190841],[1.9775015809510963,42.703239295893816],[1.9765636783141265,42.70457910399251],[1.974480966256164,42.70411858664487],[1.9739916831885846,42.70476749389876],[1.973539240056951,42.706772751703696],[1.9738983549515126,42.708733445721556],[1.9750138101076846,42.710532827657616]]]}},{"type":"Feature","properties":{"category":"historical_support","snapshot_index":10,"pass_time_utc":"2026-09-28T02:38:00+00:00","dt_local":"2026-09-28T04:38:00+02:00","area_km2":4.938,"label":"Isoline temporelle","coherence_level":"indisponible","coherence_fraction":0.0,"projection_displayed":false,"model_version":"fire_progression_arrival_v1"},"geometry":{"type":"Polygon","coordinates":[[[1.9909771112237902,42.717079702942],[1.9910160617140475,42.71483209916019],[1.9879681051763918,42.71480333432429],[1.9880071702872981,42.71255573646472],[1.9788636716867796,42.712468924952425],[1.978903086635311,42.71022133538192],[1.9758553774590641,42.71019222589082],[1.9760529945206897,42.6989543553874],[1.9821472400157585,42.699012475785885],[1.982186519151764,42.69676491362565],[2.0035156504546876,42.696965594792786],[2.0034771942690988,42.69921316512491],[2.0065243425361667,42.69924148810099],[2.00644765641887,42.70373664538995],[2.0094950428043705,42.70376488393289],[2.009303863766475,42.71500286627755],[1.997111983800885,42.71488936856141],[1.9970732685848633,42.717136974675284],[1.9909771112237902,42.717079702942]]]}},{"type":"Feature","properties":{"category":"observed_front","snapshot_index":10,"pass_time_utc":"2026-09-28T02:38:00+00:00","dt_local":"2026-09-28T04:38:00+02:00","area_km2":2.125,"label":"Activité observée","coherence_level":"indisponible","coherence_fraction":0.0,"projection_displayed":false,"model_version":"fire_progression_arrival_v1"},"geometry":{"type":"Polygon","coordinates":[[[1.9910939536743046,42.71033690585272],[1.9911328951450002,42.70808931633352],[1.988085291462668,42.70806055501133],[1.9881243475278292,42.705812971423896],[1.9850768644603363,42.705784124530275],[1.9851943673152959,42.699041405887655],[1.9882414976374074,42.69907024925757],[1.988280541646461,42.69682268474486],[2.0035156504546876,42.696965594792786],[2.0034771942690988,42.69921316512491],[2.0065243425361667,42.69924148810099],[2.0064093089207486,42.70598423118709],[2.003361807902066,42.70595590475089],[2.003323339841821,42.70820349415867],[2.0002757241906424,42.70817507982221],[2.000237135550124,42.71042267283377],[1.9910939536743046,42.71033690585272]]]}},{"type":"Feature","properties":{"category":"historical_support","snapshot_index":11,"pass_time_utc":"2026-09-28T08:52:00+00:00","dt_local":"2026-09-28T10:52:00+02:00","area_km2":4.938,"label":"Isoline temporelle","coherence_level":"indisponible","coherence_fraction":0.0,"projection_displayed":false,"model_version":"fire_progression_arrival_v1"},"geometry":{"type":"Polygon","coordinates":[[[1.9909771112237902,42.717079702942],[1.9910160617140475,42.71483209916019],[1.9879681051763918,42.71480333432429],[1.9880071702872981,42.71255573646472],[1.9788636716867796,42.712468924952425],[1.978903086635311,42.71022133538192],[1.9758553774590641,42.71019222589082],[1.9760529945206897,42.6989543553874],[1.9821472400157585,42.699012475785885],[1.982186519151764,42.69676491362565],[2.0035156504546876,42.696965594792786],[2.0034771942690988,42.69921316512491],[2.0065243425361667,42.69924148810099],[2.00644765641887,42.70373664538995],[2.0094950428043705,42.70376488393289],[2.009303863766475,42.71500286627755],[1.997111983800885,42.71488936856141],[1.9970732685848633,42.717136974675284],[1.9909771112237902,42.717079702942]]]}},{"type":"Feature","properties":{"category":"observed_front","snapshot_index":11,"pass_time_utc":"2026-09-28T08:52:00+00:00","dt_local":"2026-09-28T10:52:00+02:00","area_km2":3.375,"label":"Activité observée","coherence_level":"indisponible","coherence_fraction":0.0,"projection_displayed":false,"model_version":"fire_progression_arrival_v1"},"geometry":{"type":"Polygon","coordinates":[[[1.9909771112237902,42.717079702942],[1.9910160617140475,42.71483209916019],[1.9879681051763918,42.71480333432429],[1.9880071702872981,42.71255573646472],[1.981911501522893,42.71249794887614],[1.9820686726484613,42.703507614423394],[1.9851160351018138,42.7035365468813],[1.9851552027200168,42.70128897399937],[1.9942969554370011,42.70137524742607],[1.9943357673130702,42.69912767580138],[2.0034771942690988,42.69921316512491],[2.0034387351153606,42.701460740230786],[2.0064860009572283,42.70148906436019],[2.00644765641887,42.70373664538995],[2.0094950428043705,42.70376488393289],[2.009342105477483,42.712755260293164],[2.006294248664383,42.71272701715036],[2.0062558893237843,42.71497462198462],[1.997111983800885,42.71488936856141],[1.9970732685848633,42.717136974675284],[1.9909771112237902,42.717079702942]]]}},{"type":"Feature","properties":{"category":"firms_extent_snapshot","snapshot_index":12,"pass_time_utc":"2026-09-28T12:19:00+00:00","dt_local":"2026-09-28T14:19:00+02:00","label":"Emprise FIRMS cumulée à ce passage","interpretation":"Enveloppe des détections FIRMS, pas une surface brûlée","cumulative":true,"point_count":31,"extent_method":"cumulative_detection_extent_smoothed_landmasked_web_v1","local_cluster_link_m":10000.0,"model_version":"fire_progression_arrival_v1"},"geometry":{"type":"MultiPolygon","coordinates":[[[[2.262393205241336,42.81432292164528],[2.266834533166366,42.816451394452],[2.269000472046823,42.818898327629775],[2.2723430375695703,42.81994098378067],[2.2742702109693482,42.821697346133746],[2.2757346971545394,42.8223428716554],[2.2803112999306747,42.82253529410992],[2.2833850088369445,42.82377295311816],[2.2885582657782098,42.82428801917025],[2.291484440620398,42.823244252151454],[2.2945613509387455,42.82295014191393],[2.2971784089975276,42.82167844103479],[2.3002806364627024,42.821233412579446],[2.3021453108221883,42.81962550862083],[2.3022605012347452,42.81837183644779],[2.301670598506246,42.81729662059428],[2.297967748379062,42.81535435974568],[2.2968965175405516,42.814227959718274],[2.2967186006135276,42.812859167170174],[2.297739379188798,42.81056914054779],[2.297142853044066,42.80901211514196],[2.2888344900999975,42.80482704097142],[2.2852582803880708,42.80455474866983],[2.280742698434678,42.804984162390724],[2.274273084139435,42.80400997278474],[2.2708494386941203,42.80303942726794],[2.267203644972535,42.8030266541029],[2.2640270781526843,42.80397013699279],[2.261955616071812,42.80531425317697],[2.260266073684601,42.807570541754025],[2.2598227083306925,42.809577188240006],[2.2604869445360722,42.812162165982],[2.262393205241336,42.81432292164528]]],[[[1.9761326902515766,42.71156527489723],[1.9782667556324778,42.71276435606533],[1.9818015755192924,42.713883972024604],[1.985083853402562,42.71696985705242],[1.9909577925539674,42.71992739934417],[1.9927862345922829,42.7201301190362],[1.9962395704888958,42.71945315066293],[1.9998576347440178,42.72014950620675],[2.0032406733325265,42.71947995977312],[2.007942627607963,42.72023612439414],[2.009684637086842,42.719779093724405],[2.010990082780768,42.71861288097387],[2.0116058442294205,42.7167638079749],[2.0109291428940352,42.71412161843875],[2.0121685957073314,42.71048981790249],[2.011545339239572,42.70790014808792],[2.0095749994637973,42.705643086101986],[2.0050679741222717,42.70241287690807],[2.0027847353373835,42.70137440453814],[1.99839943015843,42.70085269222691],[1.9905059693941611,42.7022186243096],[1.9846512746843827,42.700277861299455],[1.9802118377820521,42.70036965311842],[1.9777000659781012,42.70120638260991],[1.975642579659377,42.70255895957706],[1.9750148714464129,42.70339871651761],[1.9775015809510963,42.703239295893816],[1.9765636783141265,42.70457910399251],[1.9744773574953376,42.70411778865505],[1.9739916831885846,42.70476749389876],[1.973539240056951,42.706772751703696],[1.9741895923718829,42.709359238148785],[1.9761326902515766,42.71156527489723]]],[[[1.9611719606906808,42.64760557794737],[1.96376798336951,42.64684110677348],[1.964871312574143,42.6449454009864],[1.9638357492592748,42.64302898708529],[1.9612680348667462,42.64221442903017],[1.9586721854418288,42.642978836124676],[1.9575686918684325,42.644874474368514],[1.9586040819293884,42.646790952349],[1.9611719606906808,42.64760557794737]]],[[[1.9156646438962066,42.65073130315507],[1.9177307750417711,42.651903695357014],[1.922085343262703,42.652770951970325],[1.9264703645613377,42.651991765486486],[1.930870269850545,42.6489166735069],[1.9339275892872547,42.64805152074937],[1.9390969713562551,42.64515266942902],[1.9394752617071422,42.64330575230699],[1.9374754805304926,42.64002000616086],[1.939463710025641,42.63692505812658],[1.9391168832399979,42.63502299938427],[1.9370167914563257,42.63374107111572],[1.9325624007579996,42.63360407391699],[1.9294926370554957,42.631765955417826],[1.9263555050972914,42.63076937400737],[1.9227947540686,42.63071205932183],[1.9201209190097375,42.63138823544781],[1.917402001284226,42.63300242978691],[1.9157041361736444,42.63525290325938],[1.915250227955038,42.63725778098632],[1.9157733311145753,42.6406969992101],[1.91379417973195,42.643416171266466],[1.9130788719492835,42.645937594906506],[1.9141337725139616,42.64917452899782],[1.9156646438962066,42.65073130315507]]]]}},{"type":"Feature","properties":{"category":"historical_support","snapshot_index":12,"pass_time_utc":"2026-09-28T12:19:00+00:00","dt_local":"2026-09-28T14:19:00+02:00","area_km2":4.938,"label":"Isoline temporelle","coherence_level":"indisponible","coherence_fraction":0.0,"projection_displayed":false,"model_version":"fire_progression_arrival_v1"},"geometry":{"type":"Polygon","coordinates":[[[1.9909771112237902,42.717079702942],[1.9910160617140475,42.71483209916019],[1.9879681051763918,42.71480333432429],[1.9880071702872981,42.71255573646472],[1.9788636716867796,42.712468924952425],[1.978903086635311,42.71022133538192],[1.9758553774590641,42.71019222589082],[1.9760529945206897,42.6989543553874],[1.9821472400157585,42.699012475785885],[1.982186519151764,42.69676491362565],[2.0035156504546876,42.696965594792786],[2.0034771942690988,42.69921316512491],[2.0065243425361667,42.69924148810099],[2.00644765641887,42.70373664538995],[2.0094950428043705,42.70376488393289],[2.009303863766475,42.71500286627755],[1.997111983800885,42.71488936856141],[1.9970732685848633,42.717136974675284],[1.9909771112237902,42.717079702942]]]}},{"type":"Feature","properties":{"category":"observed_front","snapshot_index":12,"pass_time_utc":"2026-09-28T12:19:00+00:00","dt_local":"2026-09-28T14:19:00+02:00","area_km2":2.625,"label":"Activité observée","coherence_level":"indisponible","coherence_fraction":0.0,"projection_displayed":false,"model_version":"fire_progression_arrival_v1"},"geometry":{"type":"Polygon","coordinates":[[[1.994064021258571,42.71486077723928],[1.994102851114094,42.712613177040694],[1.9880071702872981,42.71255573646472],[1.9880462323826074,42.71030814335934],[1.9849985141061586,42.71027929411631],[1.9851552027200168,42.70128897399937],[1.98820245061485,42.70131781854383],[1.9882414976374074,42.69907024925757],[1.9912886309730222,42.699099005895526],[1.991327557418077,42.69685144021187],[1.9974215979644925,42.69690869096002],[1.9973829066484794,42.69915625897498],[2.0034771942690988,42.69921316512491],[2.0034387351153606,42.701460740230786],[2.0064860009572283,42.70148906436019],[2.006332605043848,42.71047941707051],[2.0032848688120524,42.7104510883273],[2.003246394812417,42.71269868725354],[2.0001985439306615,42.71267027060292],[2.0001599493319104,42.71491787312643],[1.994064021258571,42.71486077723928]]]}}]}