{"type":"FeatureCollection","name":"detection_envelopes","crs":{"type":"name","properties":{"name":"urn:ogc:def:crs:OGC:1.3:CRS84"}},"features":[{"type":"Feature","properties":{"cluster_id":1,"snapshot_index":1,"estimated_time_utc":"2026-09-11T01:13:00Z","observed_until_utc":"2026-09-11T01:13:00Z","target_time_utc":"2026-09-11T01:13:00Z","arrival_h":0.0,"hours_ago":98.1,"supported_detections_cumulative":2,"sources_cumulative":"VIIRS_NOAA21_NRT","last_source":"VIIRS_NOAA21_NRT","last_satellite":"N21","last_instrument":"VIIRS","detected_area_km2":0.5696939376546112,"product_type":"cumulative_active_fire_detection_extent"},"geometry":{"type":"LineString","coordinates":[[0.214020308640676,49.488918244552536],[0.214469101303828,49.489739299549804],[0.213056284354697,49.491892942951665],[0.213688643009303,49.493446154054865],[0.216273214343972,49.49463825906182],[0.219394892534901,49.49429070122364],[0.220785030827417,49.49334434212409],[0.221326114857898,49.492082870433],[0.220920194626564,49.49084377862682],[0.219425751629109,49.489412565132554],[0.22084570090033,49.48694288723128],[0.219420118929417,49.48483354411017],[0.216416096604298,49.484181537426174],[0.213584217181001,49.4851043271824],[0.212583227215207,49.48706140894866],[0.214020308640676,49.488918244552536]]}},{"type":"Feature","properties":{"cluster_id":1,"snapshot_index":2,"estimated_time_utc":"2026-09-11T02:53:00Z","observed_until_utc":"2026-09-11T02:53:00Z","target_time_utc":"2026-09-11T07:13:00Z","arrival_h":1.6666666666666667,"hours_ago":96.43333333333334,"supported_detections_cumulative":6,"sources_cumulative":"VIIRS_NOAA20_NRT, VIIRS_NOAA21_NRT, VIIRS_SNPP_NRT","last_source":"VIIRS_NOAA21_NRT","last_satellite":"N21","last_instrument":"VIIRS","detected_area_km2":0.9667918571297971,"product_type":"cumulative_active_fire_detection_extent"},"geometry":{"type":"LineString","coordinates":[[0.224764058180704,49.486321681917325],[0.2228865147305,49.48584581968722],[0.220656524173602,49.486068598815464],[0.219420118929417,49.48483354411017],[0.217293839593523,49.48420170160953],[0.215294248281481,49.484337456910175],[0.213584217181001,49.4851043271824],[0.211923108434141,49.48851138616948],[0.213720528099121,49.49054561760859],[0.213100633977567,49.49242051449805],[0.214479414642494,49.49404638990071],[0.21788712686856,49.494666720607256],[0.220446644098483,49.49366915287276],[0.222883763958081,49.493719377845714],[0.224916430059266,49.49288544946655],[0.22739034183764,49.49011828368985],[0.227771149412021,49.48883220046516],[0.226907787238499,49.48732693492523],[0.224764058180704,49.486321681917325]]}},{"type":"Feature","properties":{"cluster_id":1,"snapshot_index":3,"estimated_time_utc":"2026-09-12T03:30:00Z","observed_until_utc":"2026-09-12T03:30:00Z","target_time_utc":"2026-09-12T07:13:00Z","arrival_h":26.283333333333335,"hours_ago":71.81666666666666,"supported_detections_cumulative":8,"sources_cumulative":"VIIRS_NOAA20_NRT, VIIRS_NOAA21_NRT, VIIRS_SNPP_NRT","last_source":"VIIRS_NOAA20_NRT","last_satellite":"N20","last_instrument":"VIIRS","detected_area_km2":1.0236111904255458,"product_type":"cumulative_active_fire_detection_extent"},"geometry":{"type":"LineString","coordinates":[[0.226028485040737,49.491540659666626],[0.227845726978483,49.490886498620334],[0.229034685349395,49.48952683940256],[0.228863667531373,49.48796602341824],[0.227445320167431,49.4867558929091],[0.222953564738225,49.48585167920399],[0.220656524173602,49.486068598815464],[0.219420118929417,49.48483354411017],[0.217293839593523,49.48420170160953],[0.215230875214765,49.48435287684135],[0.21337316099436,49.48527666841627],[0.211923108434141,49.48851138616948],[0.213720528099121,49.49054561760859],[0.213084809896623,49.49167325640765],[0.213302139357417,49.492932312383054],[0.214743996575574,49.49418388757012],[0.217483988581271,49.49469843748508],[0.220446644098483,49.49366915287276],[0.223206258239583,49.493652448261614],[0.224916430059266,49.49288544946655],[0.226028485040737,49.491540659666626]]}},{"type":"Feature","properties":{"cluster_id":1,"snapshot_index":4,"estimated_time_utc":"2026-09-15T00:54:00Z","observed_until_utc":"2026-09-15T00:54:00Z","target_time_utc":"2026-09-15T01:13:00Z","arrival_h":95.68333333333334,"hours_ago":2.4166666666666665,"supported_detections_cumulative":9,"sources_cumulative":"VIIRS_NOAA20_NRT, VIIRS_NOAA21_NRT, VIIRS_SNPP_NRT","last_source":"VIIRS_NOAA20_NRT","last_satellite":"N20","last_instrument":"VIIRS","detected_area_km2":1.3058816526402548,"product_type":"cumulative_active_fire_detection_extent"},"geometry":{"type":"MultiLineString","coordinates":[[[0.224664892054687,49.476812757713624],[0.223532729396592,49.47488629029673],[0.220641761569082,49.4740456815802],[0.217685333606217,49.47478329918064],[0.216395119650762,49.4766671011922],[0.217527054237423,49.478593631518294],[0.220418226725469,49.479434310340125],[0.223374882759767,49.47869662983049],[0.224664892054687,49.476812757713624]],[[0.226093879607106,49.49152935516121],[0.228081676901475,49.490728437540554],[0.229096059646403,49.489310023361305],[0.228863667531373,49.48796602341824],[0.227445320167431,49.4867558929091],[0.222953564738225,49.48585167920399],[0.220656524173602,49.486068598815464],[0.219420118929417,49.48483354411017],[0.217293839593523,49.48420170160953],[0.215230875214765,49.48435287684135],[0.21337316099436,49.48527666841627],[0.211923108434141,49.48851138616948],[0.213720528099121,49.49054561760859],[0.213084809896623,49.49167325640765],[0.213302139357417,49.492932312383054],[0.214743996575574,49.49418388757012],[0.217483988581271,49.49469843748508],[0.220446644098483,49.49366915287276],[0.223206258239583,49.493652448261614],[0.224871695874462,49.492918514802085],[0.226093879607106,49.49152935516121]]]}},{"type":"Feature","properties":{"cluster_id":1,"snapshot_index":5,"estimated_time_utc":"2026-09-15T03:19:00Z","observed_until_utc":"2026-09-15T03:19:00Z","target_time_utc":"2026-09-15T03:19:00Z","arrival_h":98.1,"hours_ago":0.0,"supported_detections_cumulative":18,"sources_cumulative":"VIIRS_NOAA20_NRT, VIIRS_NOAA21_NRT, VIIRS_SNPP_NRT","last_source":"VIIRS_NOAA21_NRT","last_satellite":"N21","last_instrument":"VIIRS","detected_area_km2":2.333148342794182,"product_type":"cumulative_active_fire_detection_extent"},"geometry":{"type":"MultiLineString","coordinates":[[[0.232102362860293,49.473896075937745],[0.229211310680429,49.47305567076286],[0.226255062456146,49.47379349824183],[0.225066394190153,49.47515315373963],[0.225325213481201,49.47684708577352],[0.224464590003718,49.47882411506415],[0.226853993449987,49.480449832614575],[0.231768815959615,49.48181431372983],[0.23472544598263,49.481076358234674],[0.236015099321428,49.479192370241236],[0.235628746129941,49.47546330624691],[0.234289557490972,49.47442996995877],[0.232102362860293,49.473896075937745]],[[0.224392835915056,49.47577615298604],[0.222636139821974,49.47442026783247],[0.220235954873793,49.47405151673453],[0.21412946309776,49.47624126096769],[0.213114925423742,49.47765957027998],[0.213426010135949,49.47936577397984],[0.212804760668789,49.48119697905391],[0.214179224900798,49.4832772642772],[0.217166399986566,49.483961241745625],[0.220020936281134,49.483068657633304],[0.222237622641409,49.480848355365126],[0.222777506503978,49.479001334734136],[0.22443256263098,49.47763344669582],[0.224392835915056,49.47577615298604]],[[0.227845726978483,49.490886498620334],[0.228903565087718,49.4898232907383],[0.229088993507979,49.48851908250419],[0.227047930456403,49.48658809342797],[0.2228865147305,49.48584581968722],[0.220656524173602,49.486068598815464],[0.219420118929417,49.48483354411017],[0.217226792381109,49.48419583895116],[0.214859299503624,49.48445944705678],[0.213115527334499,49.4855355275047],[0.211960918230692,49.48873047771578],[0.213720528099121,49.49054561760859],[0.213084809896623,49.49167325640765],[0.213302139357417,49.492932312383054],[0.215141404828136,49.494351725982696],[0.217820341009155,49.49467379074825],[0.220446644098483,49.49366915287276],[0.22326964037305,49.49363702431852],[0.224916430059266,49.49288544946655],[0.225868433191816,49.491562914988144],[0.227845726978483,49.490886498620334]]]}}],"metadata":{"generated_at_utc":"2026-09-15T10:02:25.422554Z","product_type":"cumulative_active_fire_detection_extent","product_label":"Emprises cumulées des détections actives FIRMS","not_a_burn_perimeter":true,"not_a_continuous_fire_front":true,"not_an_arrival_time_interpolation":true,"snapshot_step_hours":6,"confidence_filter":{"VIIRS":["nominal","high"],"MODIS_minimum":30},"footprint_radius_m":{"VIIRS":300.0,"MODIS":750.0},"same_pass_neighbour_m":2000.0,"continuity_distance_m":3000.0,"clusters":[{"cluster_id":1,"first_supported_detection_utc":"2026-09-11T01:13:00Z","last_supported_detection_utc":"2026-09-15T03:19:00Z","pass_states":10,"published_snapshots":5,"final_detected_area_km2":2.333148342794182}]},"bbox":[0.21192310843414117,49.47305567076286,0.23601509932142845,49.49469843748508]}