{"type":"FeatureCollection","name":"fire_progression_arrival_v1","features":[{"type":"Feature","properties":{"category":"arrival_step","arrival_snapshot_index":1,"first_detected_utc":"2026-09-11T01:13:00+00:00","first_detected_local":"2026-09-11T03:13:00+02:00","area_km2":3.0,"label":"Première détection FIRMS","model_version":"fire_progression_arrival_v1"},"geometry":{"type":"Polygon","coordinates":[[[0.20874386789406374,49.495681360637455],[0.2089876721731659,49.49119043201202],[0.20554059679768835,49.49111098140304],[0.20602867872443684,49.48212906903003],[0.20947515303531014,49.48220850655415],[0.2097188296406352,49.47771750977984],[0.22694985817309146,49.478113194564074],[0.22670768387846757,49.48260422392488],[0.2301542218132764,49.482683073346045],[0.2296703474555046,49.49166507697442],[0.22622320842276927,49.49158621456514],[0.2259809072395486,49.496077175786496],[0.20874386789406374,49.495681360637455]]]}},{"type":"Feature","properties":{"category":"arrival_step","arrival_snapshot_index":4,"first_detected_utc":"2026-09-11T02:53:00+00:00","first_detected_local":"2026-09-11T04:53:00+02:00","area_km2":0.5,"label":"Première détection FIRMS","model_version":"fire_progression_arrival_v1"},"geometry":{"type":"Polygon","coordinates":[[[0.2296703474555046,49.49166507697442],[0.2301542218132764,49.482683073346045],[0.22670768387846757,49.48260422392488],[0.22694985817309146,49.478113194564074],[0.23039609563744504,49.47819203749211],[0.23027516400376913,49.480437558252696],[0.23372156225362573,49.48051630641261],[0.23347996781382632,49.485007337413805],[0.2369266771095616,49.48508599403597],[0.23680601434131138,49.48733150426575],[0.23335915477487557,49.48725284440469],[0.2331174970519673,49.49174384134894],[0.2296703474555046,49.49166507697442]]]}},{"type":"Feature","properties":{"category":"arrival_step","arrival_snapshot_index":7,"first_detected_utc":"2026-09-15T01:37:00+00:00","first_detected_local":"2026-09-15T03:37:00+02:00","area_km2":1.562,"label":"Première détection FIRMS","model_version":"fire_progression_arrival_v1"},"geometry":{"type":"MultiPolygon","coordinates":[[[[0.22386726406221946,49.47129767686611],[0.22398845383381386,49.46905213996864],[0.21709723334023687,49.468893990112726],[0.2169757432228097,49.47113952049833],[0.22386726406221946,49.47129767686611]]],[[[0.2370473293444043,49.48284047813198],[0.2371679710472167,49.48059495655746],[0.24061439037145804,49.480673508686834],[0.24109625103714752,49.471691352819136],[0.23075882721139238,49.47145544124325],[0.23063792723987553,49.47370097898376],[0.21685424250179214,49.47338504523061],[0.216732731175797,49.47563056430593],[0.2098406519917336,49.475472002894065],[0.2097188296406352,49.47771750977984],[0.23039609563744504,49.47819203749211],[0.23027516400376913,49.480437558252696],[0.23372156225362573,49.48051630641261],[0.2336007703062836,49.482761824748565],[0.2370473293444043,49.48284047813198]]]]}},{"type":"Feature","properties":{"category":"arrival_step","arrival_snapshot_index":10,"first_detected_utc":"2026-09-15T03:19:00+00:00","first_detected_local":"2026-09-15T05:19:00+02:00","area_km2":0.375,"label":"Première détection FIRMS","model_version":"fire_progression_arrival_v1"},"geometry":{"type":"Polygon","coordinates":[[[0.22054283829246013,49.46897311403728],[0.22066416764853386,49.466727574744176],[0.22410963302935108,49.46680659742178],[0.22423080165021553,49.46456104922914],[0.23456681073772978,49.464797519586],[0.2344460925675558,49.467043077515285],[0.23100059550193355,49.46696434880774],[0.23087971663161827,49.469209897850035],[0.22054283829246013,49.46897311403728]]]}},{"type":"Feature","properties":{"category":"firms_extent_snapshot","snapshot_index":1,"pass_time_utc":"2026-09-11T01:13:00+00:00","dt_local":"2026-09-11T03:13:00+02:00","label":"Emprise FIRMS cumulée à ce passage","interpretation":"Enveloppe des détections FIRMS, pas une surface brûlée","cumulative":true,"point_count":2,"extent_method":"cumulative_detection_extent_smoothed_landmasked_web_v1","local_cluster_link_m":10000.0,"model_version":"fire_progression_arrival_v1"},"geometry":{"type":"Polygon","coordinates":[[[0.21257592090246066,49.486774958364364],[0.21379783319637186,49.489385536570325],[0.21305550690024974,49.4919149752677],[0.21362849857670504,49.49337970346767],[0.21624038220974634,49.49463293676583],[0.21929288036485067,49.494329882989916],[0.22076768311981784,49.49336326268916],[0.2213194584269191,49.49215988819451],[0.22010214949224904,49.489494389213874],[0.22084409436216432,49.48696490062125],[0.2202709686889892,49.48550019617153],[0.21834885736940793,49.484396475753506],[0.21564949420446122,49.48426515961234],[0.21340483763791726,49.485250802456164],[0.21257592090246066,49.486774958364364]]]}},{"type":"Feature","properties":{"category":"historical_support","snapshot_index":1,"pass_time_utc":"2026-09-11T01:13:00+00:00","dt_local":"2026-09-11T03:13:00+02:00","area_km2":3.0,"label":"Isoline temporelle","coherence_level":"indisponible","coherence_fraction":0.0,"projection_displayed":false,"model_version":"fire_progression_arrival_v1"},"geometry":{"type":"Polygon","coordinates":[[[0.20874386789406374,49.495681360637455],[0.2089876721731659,49.49119043201202],[0.20554059679768835,49.49111098140304],[0.20602867872443684,49.48212906903003],[0.20947515303531014,49.48220850655415],[0.2097188296406352,49.47771750977984],[0.22694985817309146,49.478113194564074],[0.22670768387846757,49.48260422392488],[0.2301542218132764,49.482683073346045],[0.2296703474555046,49.49166507697442],[0.22622320842276927,49.49158621456514],[0.2259809072395486,49.496077175786496],[0.20874386789406374,49.495681360637455]]]}},{"type":"Feature","properties":{"category":"observed_front","snapshot_index":1,"pass_time_utc":"2026-09-11T01:13:00+00:00","dt_local":"2026-09-11T03:13:00+02:00","area_km2":3.0,"label":"Activité observée","coherence_level":"indisponible","coherence_fraction":0.0,"projection_displayed":false,"model_version":"fire_progression_arrival_v1"},"geometry":{"type":"Polygon","coordinates":[[[0.20874386789406374,49.495681360637455],[0.2089876721731659,49.49119043201202],[0.20554059679768835,49.49111098140304],[0.20602867872443684,49.48212906903003],[0.20947515303531014,49.48220850655415],[0.2097188296406352,49.47771750977984],[0.22694985817309146,49.478113194564074],[0.22670768387846757,49.48260422392488],[0.2301542218132764,49.482683073346045],[0.2296703474555046,49.49166507697442],[0.22622320842276927,49.49158621456514],[0.2259809072395486,49.496077175786496],[0.20874386789406374,49.495681360637455]]]}},{"type":"Feature","properties":{"category":"historical_support","snapshot_index":2,"pass_time_utc":"2026-09-11T01:49:00+00:00","dt_local":"2026-09-11T03:49:00+02:00","area_km2":3.0,"label":"Isoline temporelle","coherence_level":"indisponible","coherence_fraction":0.0,"projection_displayed":false,"model_version":"fire_progression_arrival_v1"},"geometry":{"type":"Polygon","coordinates":[[[0.20874386789406374,49.495681360637455],[0.2089876721731659,49.49119043201202],[0.20554059679768835,49.49111098140304],[0.20602867872443684,49.48212906903003],[0.20947515303531014,49.48220850655415],[0.2097188296406352,49.47771750977984],[0.22694985817309146,49.478113194564074],[0.22670768387846757,49.48260422392488],[0.2301542218132764,49.482683073346045],[0.2296703474555046,49.49166507697442],[0.22622320842276927,49.49158621456514],[0.2259809072395486,49.496077175786496],[0.20874386789406374,49.495681360637455]]]}},{"type":"Feature","properties":{"category":"observed_front","snapshot_index":2,"pass_time_utc":"2026-09-11T01:49:00+00:00","dt_local":"2026-09-11T03:49:00+02:00","area_km2":2.312,"label":"Activité observée","coherence_level":"indisponible","coherence_fraction":0.0,"projection_displayed":false,"model_version":"fire_progression_arrival_v1"},"geometry":{"type":"Polygon","coordinates":[[[0.21231301167345268,49.49351525501406],[0.212434758190911,49.49126978458879],[0.2089876721731659,49.49119043201202],[0.2091095583486201,49.48894495916798],[0.2056626332589225,49.48886551183044],[0.20602867872443684,49.48212906903003],[0.20947515303531014,49.48220850655415],[0.20959699665562495,49.47996301100109],[0.21304333136836126,49.48004234724235],[0.2131650141316193,49.47779684275447],[0.22350363127725154,49.47803425362586],[0.22338239918758554,49.48027976788945],[0.2268287763107285,49.48035871207817],[0.22670768387846757,49.48260422392488],[0.2301542218132764,49.482683073346045],[0.229791331887082,49.489419584586344],[0.22634434314846047,49.48934072542433],[0.22622320842276927,49.49158621456514],[0.22277607996685203,49.49150725412152],[0.22265478435852448,49.493752734325334],[0.21231301167345268,49.49351525501406]]]}},{"type":"Feature","properties":{"category":"historical_support","snapshot_index":3,"pass_time_utc":"2026-09-11T02:11:00+00:00","dt_local":"2026-09-11T04:11:00+02:00","area_km2":3.0,"label":"Isoline temporelle","coherence_level":"indisponible","coherence_fraction":0.0,"projection_displayed":false,"model_version":"fire_progression_arrival_v1"},"geometry":{"type":"Polygon","coordinates":[[[0.20874386789406374,49.495681360637455],[0.2089876721731659,49.49119043201202],[0.20554059679768835,49.49111098140304],[0.20602867872443684,49.48212906903003],[0.20947515303531014,49.48220850655415],[0.2097188296406352,49.47771750977984],[0.22694985817309146,49.478113194564074],[0.22670768387846757,49.48260422392488],[0.2301542218132764,49.482683073346045],[0.2296703474555046,49.49166507697442],[0.22622320842276927,49.49158621456514],[0.2259809072395486,49.496077175786496],[0.20874386789406374,49.495681360637455]]]}},{"type":"Feature","properties":{"category":"observed_front","snapshot_index":3,"pass_time_utc":"2026-09-11T02:11:00+00:00","dt_local":"2026-09-11T04:11:00+02:00","area_km2":2.062,"label":"Activité observée","coherence_level":"indisponible","coherence_fraction":0.0,"projection_displayed":false,"model_version":"fire_progression_arrival_v1"},"geometry":{"type":"Polygon","coordinates":[[[0.2156386517887473,49.495839980820904],[0.21576025862202908,49.49359451282173],[0.21231301167345268,49.49351525501406],[0.212434758190911,49.49126978458879],[0.2089876721731659,49.49119043201202],[0.20935329877829975,49.48445399643542],[0.21279993397378533,49.4845333392104],[0.21292163798287989,49.4822878460622],[0.21636813355406403,49.482367087553726],[0.21648967670332125,49.48012158547111],[0.2268287763107285,49.48035871207817],[0.22670768387846757,49.48260422392488],[0.2301542218132764,49.482683073346045],[0.2296703474555046,49.49166507697442],[0.22622320842276927,49.49158621456514],[0.2259809072395486,49.496077175786496],[0.2156386517887473,49.495839980820904]]]}},{"type":"Feature","properties":{"category":"firms_extent_snapshot","snapshot_index":4,"pass_time_utc":"2026-09-11T02:53:00+00:00","dt_local":"2026-09-11T04:53:00+02:00","label":"Emprise FIRMS cumulée à ce passage","interpretation":"Enveloppe des détections FIRMS, pas une surface brûlée","cumulative":true,"point_count":6,"extent_method":"cumulative_detection_extent_smoothed_landmasked_web_v1","local_cluster_link_m":10000.0,"model_version":"fire_progression_arrival_v1"},"geometry":{"type":"Polygon","coordinates":[[[0.21191580559138629,49.48822493600324],[0.21347489511149978,49.49319577450108],[0.21477168899997173,49.494196548734266],[0.2167237468211178,49.49468692516596],[0.22430047106086445,49.49326200258575],[0.22774931587792477,49.48928341467422],[0.22738992030430677,49.4878439672416],[0.22605768879276666,49.48679326178313],[0.21717618304712663,49.48419305180857],[0.21526270746806495,49.48434542107168],[0.2136068969393748,49.485087975886884],[0.21191580559138629,49.48822493600324]]]}},{"type":"Feature","properties":{"category":"historical_support","snapshot_index":4,"pass_time_utc":"2026-09-11T02:53:00+00:00","dt_local":"2026-09-11T04:53:00+02:00","area_km2":3.5,"label":"Isoline temporelle","coherence_level":"indisponible","coherence_fraction":0.0,"projection_displayed":false,"model_version":"fire_progression_arrival_v1"},"geometry":{"type":"Polygon","coordinates":[[[0.20874386789406374,49.495681360637455],[0.2089876721731659,49.49119043201202],[0.20554059679768835,49.49111098140304],[0.20602867872443684,49.48212906903003],[0.20947515303531014,49.48220850655415],[0.2097188296406352,49.47771750977984],[0.23039609563744504,49.47819203749211],[0.23027516400376913,49.480437558252696],[0.23372156225362573,49.48051630641261],[0.23347996781382632,49.485007337413805],[0.2369266771095616,49.48508599403597],[0.23680601434131138,49.48733150426575],[0.23335915477487557,49.48725284440469],[0.2331174970519673,49.49174384134894],[0.22622320842276927,49.49158621456514],[0.2259809072395486,49.496077175786496],[0.20874386789406374,49.495681360637455]]]}},{"type":"Feature","properties":{"category":"observed_front","snapshot_index":4,"pass_time_utc":"2026-09-11T02:53:00+00:00","dt_local":"2026-09-11T04:53:00+02:00","area_km2":2.438,"label":"Activité observée","coherence_level":"indisponible","coherence_fraction":0.0,"projection_displayed":false,"model_version":"fire_progression_arrival_v1"},"geometry":{"type":"Polygon","coordinates":[[[0.21576025862202908,49.49359451282173],[0.21588185483783293,49.49134903913291],[0.212434758190911,49.49126978458879],[0.21267821933968606,49.48677882668333],[0.20923143388320023,49.486699480641235],[0.20935329877829975,49.48445399643542],[0.21279993397378533,49.4845333392104],[0.21304333136836126,49.48004234724235],[0.21648967670332125,49.48012158547111],[0.21661120924343602,49.47787607772063],[0.23039609563744504,49.47819203749211],[0.23027516400376913,49.480437558252696],[0.23372156225362573,49.48051630641261],[0.23347996781382632,49.485007337413805],[0.2369266771095616,49.48508599403597],[0.23680601434131138,49.48733150426575],[0.23335915477487557,49.48725284440469],[0.2331174970519673,49.49174384134894],[0.22622320842276927,49.49158621456514],[0.22610206312026035,49.49383169802042],[0.21576025862202908,49.49359451282173]]]}},{"type":"Feature","properties":{"category":"firms_extent_snapshot","snapshot_index":5,"pass_time_utc":"2026-09-12T03:30:00+00:00","dt_local":"2026-09-12T05:30:00+02:00","label":"Emprise FIRMS cumulée à ce passage","interpretation":"Enveloppe des détections FIRMS, pas une surface brûlée","cumulative":true,"point_count":8,"extent_method":"cumulative_detection_extent_smoothed_landmasked_web_v1","local_cluster_link_m":10000.0,"model_version":"fire_progression_arrival_v1"},"geometry":{"type":"Polygon","coordinates":[[[0.21191580559138629,49.48822493600324],[0.21347489511149978,49.49319577450108],[0.2148415187201135,49.494227651896544],[0.2169597787370486,49.49469992174938],[0.2242319943598845,49.49329435584843],[0.22835686763733573,49.49050496472874],[0.22912923389623702,49.489079622651154],[0.2286754478238641,49.48769499878348],[0.22714905962393897,49.48662821878215],[0.22124423059234724,49.48566289495875],[0.21694019928324082,49.48418005549594],[0.2149666986601577,49.48442697054767],[0.21355254071792035,49.48513019319349],[0.21191580559138629,49.48822493600324]]]}},{"type":"Feature","properties":{"category":"historical_support","snapshot_index":5,"pass_time_utc":"2026-09-12T03:30:00+00:00","dt_local":"2026-09-12T05:30:00+02:00","area_km2":3.5,"label":"Isoline temporelle","coherence_level":"indisponible","coherence_fraction":0.0,"projection_displayed":false,"model_version":"fire_progression_arrival_v1"},"geometry":{"type":"Polygon","coordinates":[[[0.20874386789406374,49.495681360637455],[0.2089876721731659,49.49119043201202],[0.20554059679768835,49.49111098140304],[0.20602867872443684,49.48212906903003],[0.20947515303531014,49.48220850655415],[0.2097188296406352,49.47771750977984],[0.23039609563744504,49.47819203749211],[0.23027516400376913,49.480437558252696],[0.23372156225362573,49.48051630641261],[0.23347996781382632,49.485007337413805],[0.2369266771095616,49.48508599403597],[0.23680601434131138,49.48733150426575],[0.23335915477487557,49.48725284440469],[0.2331174970519673,49.49174384134894],[0.22622320842276927,49.49158621456514],[0.2259809072395486,49.496077175786496],[0.20874386789406374,49.495681360637455]]]}},{"type":"Feature","properties":{"category":"observed_front","snapshot_index":5,"pass_time_utc":"2026-09-12T03:30:00+00:00","dt_local":"2026-09-12T05:30:00+02:00","area_km2":2.188,"label":"Activité observée","coherence_level":"indisponible","coherence_fraction":0.0,"projection_displayed":false,"model_version":"fire_progression_arrival_v1"},"geometry":{"type":"Polygon","coordinates":[[[0.22253347815890176,49.49599820883981],[0.22265478435852448,49.493752734325334],[0.21576025862202908,49.49359451282173],[0.21588185483783293,49.49134903913291],[0.212434758190911,49.49126978458879],[0.21292163798287989,49.4822878460622],[0.21636813355406403,49.482367087553726],[0.21648967670332125,49.48012158547111],[0.22338239918758554,49.48027976788945],[0.22350363127725154,49.47803425362586],[0.22694985817309146,49.478113194564074],[0.2268287763107285,49.48035871207817],[0.23372156225362573,49.48051630641261],[0.23347996781382632,49.485007337413805],[0.2369266771095616,49.48508599403597],[0.23680601434131138,49.48733150426575],[0.23335915477487557,49.48725284440469],[0.2331174970519673,49.49174384134894],[0.22622320842276927,49.49158621456514],[0.2259809072395486,49.496077175786496],[0.22253347815890176,49.49599820883981]]]}},{"type":"Feature","properties":{"category":"firms_extent_snapshot","snapshot_index":6,"pass_time_utc":"2026-09-15T00:54:00+00:00","dt_local":"2026-09-15T02:54:00+02:00","label":"Emprise FIRMS cumulée à ce passage","interpretation":"Enveloppe des détections FIRMS, pas une surface brûlée","cumulative":true,"point_count":9,"extent_method":"cumulative_detection_extent_smoothed_landmasked_web_v1","local_cluster_link_m":10000.0,"model_version":"fire_progression_arrival_v1"},"geometry":{"type":"MultiPolygon","coordinates":[[[[0.21191580559138629,49.48822493600324],[0.21347489511149978,49.49319577450108],[0.2148415187201135,49.494227651896544],[0.2169597787370486,49.49469992174938],[0.2242319943598845,49.49329435584843],[0.22835686763733573,49.49050496472874],[0.22912923389623702,49.489079622651154],[0.22871453108660952,49.48774386672361],[0.2273478014661393,49.486712138361966],[0.22100096525323046,49.48559887338962],[0.21776967647461362,49.484065423410094],[0.21526270746806495,49.48434542107168],[0.2136068969393748,49.485087975886884],[0.21191580559138629,49.48822493600324]]],[[[0.21947062487375374,49.47954462333127],[0.22277621543034548,49.47900191392018],[0.22455551280876043,49.47735838292015],[0.2240474635545335,49.47532250664993],[0.22147906889685623,49.474116977951034],[0.21835479097185048,49.474447916030634],[0.2165045839622239,49.476121482939696],[0.21696964451085474,49.4781098246528],[0.21947062487375374,49.47954462333127]]]]}},{"type":"Feature","properties":{"category":"historical_support","snapshot_index":6,"pass_time_utc":"2026-09-15T00:54:00+00:00","dt_local":"2026-09-15T02:54:00+02:00","area_km2":3.5,"label":"Isoline temporelle","coherence_level":"indisponible","coherence_fraction":0.0,"projection_displayed":false,"model_version":"fire_progression_arrival_v1"},"geometry":{"type":"Polygon","coordinates":[[[0.20874386789406374,49.495681360637455],[0.2089876721731659,49.49119043201202],[0.20554059679768835,49.49111098140304],[0.20602867872443684,49.48212906903003],[0.20947515303531014,49.48220850655415],[0.2097188296406352,49.47771750977984],[0.23039609563744504,49.47819203749211],[0.23027516400376913,49.480437558252696],[0.23372156225362573,49.48051630641261],[0.23347996781382632,49.485007337413805],[0.2369266771095616,49.48508599403597],[0.23680601434131138,49.48733150426575],[0.23335915477487557,49.48725284440469],[0.2331174970519673,49.49174384134894],[0.22622320842276927,49.49158621456514],[0.2259809072395486,49.496077175786496],[0.20874386789406374,49.495681360637455]]]}},{"type":"Feature","properties":{"category":"historical_support","snapshot_index":7,"pass_time_utc":"2026-09-15T01:37:00+00:00","dt_local":"2026-09-15T03:37:00+02:00","area_km2":5.062,"label":"Isoline temporelle","coherence_level":"indisponible","coherence_fraction":0.0,"projection_displayed":false,"model_version":"fire_progression_arrival_v1"},"geometry":{"type":"MultiPolygon","coordinates":[[[[0.22386726406221946,49.47129767686611],[0.22398845383381386,49.46905213996864],[0.21709723334023687,49.468893990112726],[0.2169757432228097,49.47113952049833],[0.22386726406221946,49.47129767686611]]],[[[0.2259809072395486,49.496077175786496],[0.22622320842276927,49.49158621456514],[0.2331174970519673,49.49174384134894],[0.23335915477487557,49.48725284440469],[0.23680601434131138,49.48733150426575],[0.2369266771095616,49.48508599403597],[0.23347996781382632,49.485007337413805],[0.2336007703062836,49.482761824748565],[0.2370473293444043,49.48284047813198],[0.2371679710472167,49.48059495655746],[0.24061439037145804,49.480673508686834],[0.24109625103714752,49.471691352819136],[0.23075882721139238,49.47145544124325],[0.23063792723987553,49.47370097898376],[0.21685424250179214,49.47338504523061],[0.216732731175797,49.47563056430593],[0.2098406519917336,49.475472002894065],[0.20947515303531014,49.48220850655415],[0.20602867872443684,49.48212906903003],[0.20554059679768835,49.49111098140304],[0.2089876721731659,49.49119043201202],[0.20874386789406374,49.495681360637455],[0.2259809072395486,49.496077175786496]]]]}},{"type":"Feature","properties":{"category":"observed_front","snapshot_index":7,"pass_time_utc":"2026-09-15T01:37:00+00:00","dt_local":"2026-09-15T03:37:00+02:00","area_km2":2.75,"label":"Activité observée","coherence_level":"indisponible","coherence_fraction":0.0,"projection_displayed":false,"model_version":"fire_progression_arrival_v1"},"geometry":{"type":"MultiPolygon","coordinates":[[[[0.22386726406221946,49.47129767686611],[0.22398845383381386,49.46905213996864],[0.21709723334023687,49.468893990112726],[0.2169757432228097,49.47113952049833],[0.22386726406221946,49.47129767686611]]],[[[0.23347996781382632,49.485007337413805],[0.2336007703062836,49.482761824748565],[0.2370473293444043,49.48284047813198],[0.2371679710472167,49.48059495655746],[0.24061439037145804,49.480673508686834],[0.24109625103714752,49.471691352819136],[0.23075882721139238,49.47145544124325],[0.23063792723987553,49.47370097898376],[0.21685424250179214,49.47338504523061],[0.216732731175797,49.47563056430593],[0.2098406519917336,49.475472002894065],[0.20947515303531014,49.48220850655415],[0.21292163798287989,49.4822878460622],[0.21279993397378533,49.4845333392104],[0.23347996781382632,49.485007337413805]]]]}},{"type":"Feature","properties":{"category":"historical_support","snapshot_index":8,"pass_time_utc":"2026-09-15T02:15:00+00:00","dt_local":"2026-09-15T04:15:00+02:00","area_km2":5.062,"label":"Isoline temporelle","coherence_level":"indisponible","coherence_fraction":0.0,"projection_displayed":false,"model_version":"fire_progression_arrival_v1"},"geometry":{"type":"MultiPolygon","coordinates":[[[[0.22386726406221946,49.47129767686611],[0.22398845383381386,49.46905213996864],[0.21709723334023687,49.468893990112726],[0.2169757432228097,49.47113952049833],[0.22386726406221946,49.47129767686611]]],[[[0.2259809072395486,49.496077175786496],[0.22622320842276927,49.49158621456514],[0.2331174970519673,49.49174384134894],[0.23335915477487557,49.48725284440469],[0.23680601434131138,49.48733150426575],[0.2369266771095616,49.48508599403597],[0.23347996781382632,49.485007337413805],[0.2336007703062836,49.482761824748565],[0.2370473293444043,49.48284047813198],[0.2371679710472167,49.48059495655746],[0.24061439037145804,49.480673508686834],[0.24109625103714752,49.471691352819136],[0.23075882721139238,49.47145544124325],[0.23063792723987553,49.47370097898376],[0.21685424250179214,49.47338504523061],[0.216732731175797,49.47563056430593],[0.2098406519917336,49.475472002894065],[0.20947515303531014,49.48220850655415],[0.20602867872443684,49.48212906903003],[0.20554059679768835,49.49111098140304],[0.2089876721731659,49.49119043201202],[0.20874386789406374,49.495681360637455],[0.2259809072395486,49.496077175786496]]]]}},{"type":"Feature","properties":{"category":"observed_front","snapshot_index":8,"pass_time_utc":"2026-09-15T02:15:00+00:00","dt_local":"2026-09-15T04:15:00+02:00","area_km2":2.25,"label":"Activité observée","coherence_level":"indisponible","coherence_fraction":0.0,"projection_displayed":false,"model_version":"fire_progression_arrival_v1"},"geometry":{"type":"MultiPolygon","coordinates":[[[[0.22386726406221946,49.47129767686611],[0.22398845383381386,49.46905213996864],[0.21709723334023687,49.468893990112726],[0.2169757432228097,49.47113952049833],[0.22386726406221946,49.47129767686611]]],[[[0.2265865808749251,49.48484973010055],[0.22670768387846757,49.48260422392488],[0.2336007703062836,49.482761824748565],[0.23372156225362573,49.48051630641261],[0.2371679710472167,49.48059495655746],[0.2376504325657312,49.47161281362639],[0.23075882721139238,49.47145544124325],[0.23063792723987553,49.47370097898376],[0.21685424250179214,49.47338504523061],[0.216732731175797,49.47563056430593],[0.2098406519917336,49.475472002894065],[0.20947515303531014,49.48220850655415],[0.21636813355406403,49.482367087553726],[0.2162465797942748,49.48461258396484],[0.2265865808749251,49.48484973010055]]]]}},{"type":"Feature","properties":{"category":"historical_support","snapshot_index":9,"pass_time_utc":"2026-09-15T02:34:00+00:00","dt_local":"2026-09-15T04:34:00+02:00","area_km2":5.062,"label":"Isoline temporelle","coherence_level":"indisponible","coherence_fraction":0.0,"projection_displayed":false,"model_version":"fire_progression_arrival_v1"},"geometry":{"type":"MultiPolygon","coordinates":[[[[0.22386726406221946,49.47129767686611],[0.22398845383381386,49.46905213996864],[0.21709723334023687,49.468893990112726],[0.2169757432228097,49.47113952049833],[0.22386726406221946,49.47129767686611]]],[[[0.2259809072395486,49.496077175786496],[0.22622320842276927,49.49158621456514],[0.2331174970519673,49.49174384134894],[0.23335915477487557,49.48725284440469],[0.23680601434131138,49.48733150426575],[0.2369266771095616,49.48508599403597],[0.23347996781382632,49.485007337413805],[0.2336007703062836,49.482761824748565],[0.2370473293444043,49.48284047813198],[0.2371679710472167,49.48059495655746],[0.24061439037145804,49.480673508686834],[0.24109625103714752,49.471691352819136],[0.23075882721139238,49.47145544124325],[0.23063792723987553,49.47370097898376],[0.21685424250179214,49.47338504523061],[0.216732731175797,49.47563056430593],[0.2098406519917336,49.475472002894065],[0.20947515303531014,49.48220850655415],[0.20602867872443684,49.48212906903003],[0.20554059679768835,49.49111098140304],[0.2089876721731659,49.49119043201202],[0.20874386789406374,49.495681360637455],[0.2259809072395486,49.496077175786496]]]]}},{"type":"Feature","properties":{"category":"observed_front","snapshot_index":9,"pass_time_utc":"2026-09-15T02:34:00+00:00","dt_local":"2026-09-15T04:34:00+02:00","area_km2":2.688,"label":"Activité observée","coherence_level":"indisponible","coherence_fraction":0.0,"projection_displayed":false,"model_version":"fire_progression_arrival_v1"},"geometry":{"type":"MultiPolygon","coordinates":[[[[0.22386726406221946,49.47129767686611],[0.22398845383381386,49.46905213996864],[0.22054283829246013,49.46897311403728],[0.2204214983472564,49.471218647680836],[0.22386726406221946,49.47129767686611]]],[[[0.22646546729871747,49.48709523060159],[0.2265865808749251,49.48484973010055],[0.23347996781382632,49.485007337413805],[0.2336007703062836,49.482761824748565],[0.2370473293444043,49.48284047813198],[0.2376504325657312,49.47161281362639],[0.23075882721139238,49.47145544124325],[0.23063792723987553,49.47370097898376],[0.21685424250179214,49.47338504523061],[0.216732731175797,49.47563056430593],[0.2098406519917336,49.475472002894065],[0.20935329877829975,49.48445399643542],[0.2162465797942748,49.48461258396484],[0.21612501542256649,49.486858074700834],[0.22646546729871747,49.48709523060159]]]]}},{"type":"Feature","properties":{"category":"firms_extent_snapshot","snapshot_index":10,"pass_time_utc":"2026-09-15T03:19:00+00:00","dt_local":"2026-09-15T05:19:00+02:00","label":"Emprise FIRMS cumulée à ce passage","interpretation":"Enveloppe des détections FIRMS, pas une surface brûlée","cumulative":true,"point_count":18,"extent_method":"cumulative_detection_extent_smoothed_landmasked_web_v1","local_cluster_link_m":10000.0,"model_version":"fire_progression_arrival_v1"},"geometry":{"type":"Polygon","coordinates":[[[0.2132867241430165,49.492900783190876],[0.21511235875528953,49.49434042463735],[0.21793680883540795,49.494659816180224],[0.22461069473239087,49.49309139568404],[0.22857767434092752,49.49028303677929],[0.2290180728206742,49.48829232919925],[0.22714905962393897,49.48662821878215],[0.22166595011955523,49.485213795213355],[0.22062713319518362,49.48400291409632],[0.22073024642439548,49.482448475117835],[0.2225307265190458,49.48083285017838],[0.22472231948977345,49.480234865218215],[0.22656711218029113,49.48038106625239],[0.23133055275980574,49.481791042048634],[0.23445624043231084,49.481227313003615],[0.2360134995157689,49.479214384019684],[0.2359821169859913,49.47619713714685],[0.23492506982133074,49.474792311815015],[0.23081568621903573,49.473297900072374],[0.22875505303125,49.47306523847177],[0.22443175312146446,49.474371291853004],[0.2191627232605376,49.47419742947268],[0.21439041398000647,49.47606839944645],[0.21316713332368598,49.4774752997172],[0.21280637046671796,49.48117496563079],[0.2138765969761744,49.48422391693063],[0.21191580559138629,49.48822493600324],[0.21310040746920722,49.49071881029518],[0.2132867241430165,49.492900783190876]]]}},{"type":"Feature","properties":{"category":"historical_support","snapshot_index":10,"pass_time_utc":"2026-09-15T03:19:00+00:00","dt_local":"2026-09-15T05:19:00+02:00","area_km2":5.438,"label":"Isoline temporelle","coherence_level":"indisponible","coherence_fraction":0.0,"projection_displayed":false,"model_version":"fire_progression_arrival_v1"},"geometry":{"type":"MultiPolygon","coordinates":[[[[0.22386726406221946,49.47129767686611],[0.22398845383381386,49.46905213996864],[0.23087971663161827,49.469209897850035],[0.23100059550193355,49.46696434880774],[0.2344460925675558,49.467043077515285],[0.23456681073772978,49.464797519586],[0.22423080165021553,49.46456104922914],[0.22410963302935108,49.46680659742178],[0.22066416764853386,49.466727574744176],[0.22054283829246013,49.46897311403728],[0.21709723334023687,49.468893990112726],[0.2169757432228097,49.47113952049833],[0.22386726406221946,49.47129767686611]]],[[[0.2259809072395486,49.496077175786496],[0.22622320842276927,49.49158621456514],[0.2331174970519673,49.49174384134894],[0.23335915477487557,49.48725284440469],[0.23680601434131138,49.48733150426575],[0.2369266771095616,49.48508599403597],[0.23347996781382632,49.485007337413805],[0.2336007703062836,49.482761824748565],[0.2370473293444043,49.48284047813198],[0.2371679710472167,49.48059495655746],[0.24061439037145804,49.480673508686834],[0.24109625103714752,49.471691352819136],[0.23075882721139238,49.47145544124325],[0.23063792723987553,49.47370097898376],[0.21685424250179214,49.47338504523061],[0.216732731175797,49.47563056430593],[0.2098406519917336,49.475472002894065],[0.20947515303531014,49.48220850655415],[0.20602867872443684,49.48212906903003],[0.20554059679768835,49.49111098140304],[0.2089876721731659,49.49119043201202],[0.20874386789406374,49.495681360637455],[0.2259809072395486,49.496077175786496]]]]}},{"type":"Feature","properties":{"category":"observed_front","snapshot_index":10,"pass_time_utc":"2026-09-15T03:19:00+00:00","dt_local":"2026-09-15T05:19:00+02:00","area_km2":1.625,"label":"Activité observée","coherence_level":"indisponible","coherence_fraction":0.0,"projection_displayed":false,"model_version":"fire_progression_arrival_v1"},"geometry":{"type":"MultiPolygon","coordinates":[[[[0.22386726406221946,49.47129767686611],[0.22398845383381386,49.46905213996864],[0.23087971663161827,49.469209897850035],[0.23100059550193355,49.46696434880774],[0.2344460925675558,49.467043077515285],[0.23456681073772978,49.464797519586],[0.22423080165021553,49.46456104922914],[0.22410963302935108,49.46680659742178],[0.22066416764853386,49.466727574744176],[0.22054283829246013,49.46897311403728],[0.21709723334023687,49.468893990112726],[0.2169757432228097,49.47113952049833],[0.22386726406221946,49.47129767686611]]],[[[0.23372156225362573,49.48051630641261],[0.23384234365723428,49.47827078240955],[0.23728860221937753,49.478349429316],[0.23740922286226437,49.47610389641125],[0.24085534173393514,49.47618244207201],[0.24109625103714752,49.471691352819136],[0.23075882721139238,49.47145544124325],[0.23063792723987553,49.47370097898376],[0.21685424250179214,49.47338504523061],[0.216732731175797,49.47563056430593],[0.2201787866839151,49.475709698004785],[0.2200574149630061,49.4779552146779],[0.22350363127725154,49.47803425362586],[0.22338239918758554,49.48027976788945],[0.23372156225362573,49.48051630641261]]]]}}]}