{"type":"FeatureCollection","name":"detection_envelopes","crs":{"type":"name","properties":{"name":"urn:ogc:def:crs:OGC:1.3:CRS84"}},"features":[{"type":"Feature","properties":{"cluster_id":1,"snapshot_index":1,"estimated_time_utc":"2026-09-22T01:07:00Z","observed_until_utc":"2026-09-22T01:07:00Z","target_time_utc":"2026-09-22T01:07:00Z","arrival_h":0.0,"hours_ago":107.16666666666667,"supported_detections_cumulative":2,"sources_cumulative":"VIIRS_NOAA21_NRT","last_source":"VIIRS_NOAA21_NRT","last_satellite":"N21","last_instrument":"VIIRS","detected_area_km2":0.46424080717476873,"product_type":"cumulative_active_fire_detection_extent"},"geometry":{"type":"LineString","coordinates":[[7.818897972520666,48.597809811649306],[7.818648533721245,48.60031535696003],[7.820179600216238,48.60182278682621],[7.823202125596667,48.60231683614904],[7.825866032021813,48.60124862291596],[7.82662431700939,48.599991867027164],[7.826244869046916,48.59822294175085],[7.826717112174771,48.59660326933341],[7.825070065282809,48.59461715400566],[7.822777605007447,48.59409355339254],[7.820172097072889,48.59465610289412],[7.818711315095519,48.5961444571468],[7.818897972520666,48.597809811649306]]}},{"type":"Feature","properties":{"cluster_id":1,"snapshot_index":2,"estimated_time_utc":"2026-09-22T02:04:00Z","observed_until_utc":"2026-09-22T02:04:00Z","target_time_utc":"2026-09-22T07:07:00Z","arrival_h":0.95,"hours_ago":106.21666666666667,"supported_detections_cumulative":5,"sources_cumulative":"VIIRS_NOAA20_NRT, VIIRS_NOAA21_NRT, VIIRS_SNPP_NRT","last_source":"VIIRS_NOAA20_NRT","last_satellite":"N20","last_instrument":"VIIRS","detected_area_km2":0.5768651530567375,"product_type":"cumulative_active_fire_detection_extent"},"geometry":{"type":"LineString","coordinates":[[7.827467132738105,48.59690324381834],[7.825720117690569,48.59418432046171],[7.824317358121277,48.59326093061768],[7.821958630572392,48.59288888709185],[7.819497570982924,48.59358810620931],[7.818174926937261,48.595501904350826],[7.819006717295675,48.59813358224372],[7.818569195764647,48.600055913238],[7.819586806502838,48.601469139074275],[7.822405909819132,48.60234479792764],[7.82533286406291,48.60164181265707],[7.82723621453327,48.599707301387085],[7.827467132738105,48.59690324381834]]}},{"type":"Feature","properties":{"cluster_id":1,"snapshot_index":3,"estimated_time_utc":"2026-09-23T00:48:00Z","observed_until_utc":"2026-09-23T00:48:00Z","target_time_utc":"2026-09-23T01:07:00Z","arrival_h":23.683333333333334,"hours_ago":83.48333333333333,"supported_detections_cumulative":7,"sources_cumulative":"VIIRS_NOAA20_NRT, VIIRS_NOAA21_NRT, VIIRS_SNPP_NRT","last_source":"VIIRS_NOAA21_NRT","last_satellite":"N21","last_instrument":"VIIRS","detected_area_km2":0.6827929643534002,"product_type":"cumulative_active_fire_detection_extent"},"geometry":{"type":"LineString","coordinates":[[7.82743053901842,48.59668392228944],[7.824959488943287,48.59357431510045],[7.823213074946707,48.59296078559168],[7.821236893789986,48.59296577536699],[7.819448836481206,48.59361811768902],[7.81818033874986,48.595435256281604],[7.816115391568489,48.59643693622369],[7.815488617756292,48.598665253241386],[7.81647203748571,48.59985139061553],[7.820233489960446,48.601848638013585],[7.823593301783241,48.6022641989259],[7.825381602659165,48.60161179896561],[7.827090962280375,48.59995387516462],[7.82743053901842,48.59668392228944]]}},{"type":"Feature","properties":{"cluster_id":1,"snapshot_index":4,"estimated_time_utc":"2026-09-23T02:28:00Z","observed_until_utc":"2026-09-23T02:28:00Z","target_time_utc":"2026-09-23T07:07:00Z","arrival_h":25.35,"hours_ago":81.81666666666666,"supported_detections_cumulative":11,"sources_cumulative":"VIIRS_NOAA20_NRT, VIIRS_NOAA21_NRT, VIIRS_SNPP_NRT","last_source":"VIIRS_NOAA21_NRT","last_satellite":"N21","last_instrument":"VIIRS","detected_area_km2":0.7270037653754898,"product_type":"cumulative_active_fire_detection_extent"},"geometry":{"type":"LineString","coordinates":[[7.826412809617359,48.59527075796692],[7.82545687095803,48.5939296633927],[7.823964685765362,48.59313703397553],[7.822025003421264,48.59288619504561],[7.820079463058463,48.593294616433155],[7.818743964670932,48.594201934940436],[7.81818033874986,48.595435256281604],[7.815227035279729,48.59727577124996],[7.814848666622402,48.5985624355168],[7.81546428630609,48.599853038175596],[7.816832197808763,48.60073896521781],[7.819173937995478,48.60111180926696],[7.821297258469887,48.602207673536554],[7.824750908683266,48.601935326107395],[7.826876467577518,48.60022792365501],[7.827965248926397,48.59857552988779],[7.828004253271793,48.59683180514215],[7.826412809617359,48.59527075796692]]}},{"type":"Feature","properties":{"cluster_id":1,"snapshot_index":5,"estimated_time_utc":"2026-09-23T12:17:00Z","observed_until_utc":"2026-09-23T12:17:00Z","target_time_utc":"2026-09-23T13:07:00Z","arrival_h":35.166666666666664,"hours_ago":72.0,"supported_detections_cumulative":12,"sources_cumulative":"VIIRS_NOAA20_NRT, VIIRS_NOAA21_NRT, VIIRS_SNPP_NRT","last_source":"VIIRS_NOAA21_NRT","last_satellite":"N21","last_instrument":"VIIRS","detected_area_km2":0.7581560164802016,"product_type":"cumulative_active_fire_detection_extent"},"geometry":{"type":"LineString","coordinates":[[7.826367561315213,48.59523843282703],[7.82549712318175,48.59396477513755],[7.823964685765362,48.59313703397553],[7.822025003421264,48.59288619504561],[7.820079463058463,48.593294616433155],[7.818743964670932,48.594201934940436],[7.81818033874986,48.595435256281604],[7.815227035279729,48.59727577124996],[7.814848666622402,48.5985624355168],[7.81546428630609,48.599853038175596],[7.816832197808763,48.60073896521781],[7.819173937995478,48.60111180926696],[7.821616769602244,48.60226919497263],[7.826410973280372,48.60174529633202],[7.827780032550724,48.600799791841794],[7.828315389318029,48.59953788793702],[7.828004253271793,48.59683180514215],[7.826367561315213,48.59523843282703]]}},{"type":"Feature","properties":{"cluster_id":1,"snapshot_index":6,"estimated_time_utc":"2026-09-24T02:11:00Z","observed_until_utc":"2026-09-24T02:11:00Z","target_time_utc":"2026-09-24T07:07:00Z","arrival_h":49.06666666666667,"hours_ago":58.1,"supported_detections_cumulative":14,"sources_cumulative":"VIIRS_NOAA20_NRT, VIIRS_NOAA21_NRT, VIIRS_SNPP_NRT","last_source":"VIIRS_NOAA21_NRT","last_satellite":"N21","last_instrument":"VIIRS","detected_area_km2":0.7592142093213129,"product_type":"cumulative_active_fire_detection_extent"},"geometry":{"type":"LineString","coordinates":[[7.826249883816826,48.59513040888191],[7.82545687095803,48.5939296633927],[7.823904236143584,48.59311865412554],[7.821958630572392,48.59288888709185],[7.820079463058463,48.593294616433155],[7.818743964670932,48.594201934940436],[7.81818033874986,48.595435256281604],[7.815227035279729,48.59727577124996],[7.814848666622402,48.5985624355168],[7.81546428630609,48.599853038175596],[7.816832197808763,48.60073896521781],[7.819173937995478,48.60111180926696],[7.821616769602244,48.60226919497263],[7.82419783956225,48.60227983563154],[7.826410973280372,48.60174529633202],[7.827780032550724,48.600799791841794],[7.828311377370622,48.599317243861826],[7.82790385409487,48.596621433605584],[7.826249883816826,48.59513040888191]]}},{"type":"Feature","properties":{"cluster_id":1,"snapshot_index":7,"estimated_time_utc":"2026-09-25T02:47:00Z","observed_until_utc":"2026-09-25T02:47:00Z","target_time_utc":"2026-09-25T07:07:00Z","arrival_h":73.66666666666667,"hours_ago":33.5,"supported_detections_cumulative":18,"sources_cumulative":"VIIRS_NOAA20_NRT, VIIRS_NOAA21_NRT, VIIRS_SNPP_NRT","last_source":"VIIRS_NOAA20_NRT","last_satellite":"N20","last_instrument":"VIIRS","detected_area_km2":0.8404566769170195,"product_type":"cumulative_active_fire_detection_extent"},"geometry":{"type":"LineString","coordinates":[[7.826063743275272,48.594661491237666],[7.823964685765362,48.59313703397553],[7.820855444481985,48.5930435817585],[7.819172378726455,48.59380903696728],[7.81818033874986,48.595435256281604],[7.815227035279729,48.59727577124996],[7.815269112483597,48.599622121867],[7.81981494975236,48.60321291562378],[7.823292976819726,48.60320415514382],[7.827933315421556,48.60060394754633],[7.828820066933717,48.5978103232949],[7.826063743275272,48.594661491237666]]}},{"type":"Feature","properties":{"cluster_id":1,"snapshot_index":8,"estimated_time_utc":"2026-09-25T12:34:00Z","observed_until_utc":"2026-09-25T12:34:00Z","target_time_utc":"2026-09-25T13:07:00Z","arrival_h":83.45,"hours_ago":23.716666666666665,"supported_detections_cumulative":20,"sources_cumulative":"VIIRS_NOAA20_NRT, VIIRS_NOAA21_NRT, VIIRS_SNPP_NRT","last_source":"VIIRS_NOAA20_NRT","last_satellite":"N20","last_instrument":"VIIRS","detected_area_km2":0.8639578585972066,"product_type":"cumulative_active_fire_detection_extent"},"geometry":{"type":"LineString","coordinates":[[7.825909599434262,48.59441730703888],[7.823904236143584,48.59311865412554],[7.820793107130518,48.59305893814644],[7.819172378726455,48.59380903696728],[7.81818033874986,48.595435256281604],[7.81519931885197,48.59731586844713],[7.815269112483597,48.599622121867],[7.819875409590565,48.603231297398466],[7.821755003996982,48.6034637884423],[7.823644276222557,48.60307847285971],[7.827041654712424,48.60142176034582],[7.829250969540833,48.599413808322225],[7.829209717442616,48.59714720790749],[7.826259024722018,48.595168150143735],[7.825909599434262,48.59441730703888]]}},{"type":"Feature","properties":{"cluster_id":1,"snapshot_index":9,"estimated_time_utc":"2026-09-26T00:48:00Z","observed_until_utc":"2026-09-26T00:48:00Z","target_time_utc":"2026-09-26T01:07:00Z","arrival_h":95.68333333333334,"hours_ago":11.483333333333333,"supported_detections_cumulative":21,"sources_cumulative":"VIIRS_NOAA20_NRT, VIIRS_NOAA21_NRT, VIIRS_SNPP_NRT","last_source":"VIIRS_NOAA20_NRT","last_satellite":"N20","last_instrument":"VIIRS","detected_area_km2":0.961042963887718,"product_type":"cumulative_active_fire_detection_extent"},"geometry":{"type":"LineString","coordinates":[[7.818115728047637,48.595196730364016],[7.816082596900625,48.59508011214516],[7.813968926648777,48.5957779926691],[7.81279592390255,48.59713717496529],[7.81295901476545,48.5986995605851],[7.814349446262132,48.59991267218241],[7.817399635566678,48.60092222676618],[7.81918339548173,48.602968615210536],[7.821024375827244,48.603445795343994],[7.82298714186962,48.6032910368572],[7.826992917244405,48.60145177472154],[7.828855008219134,48.599872798951345],[7.829574233039952,48.598651767436316],[7.829340726406775,48.597350037435845],[7.826259024722018,48.595168150143735],[7.825242763688707,48.59376078523379],[7.823213074946707,48.59296078559168],[7.820079463058463,48.593294616433155],[7.818115728047637,48.595196730364016]]}},{"type":"Feature","properties":{"cluster_id":1,"snapshot_index":10,"estimated_time_utc":"2026-09-26T02:28:00Z","observed_until_utc":"2026-09-26T02:28:00Z","target_time_utc":"2026-09-26T07:07:00Z","arrival_h":97.35,"hours_ago":9.816666666666666,"supported_detections_cumulative":26,"sources_cumulative":"VIIRS_NOAA20_NRT, VIIRS_NOAA21_NRT, VIIRS_SNPP_NRT","last_source":"VIIRS_NOAA20_NRT","last_satellite":"N20","last_instrument":"VIIRS","detected_area_km2":1.1558017429354182,"product_type":"cumulative_active_fire_detection_extent"},"geometry":{"type":"LineString","coordinates":[[7.820631401879141,48.60339938939911],[7.823292976819726,48.60320415514382],[7.826738297287797,48.60159380348072],[7.829504311483129,48.59891240008285],[7.829020211143007,48.59691422710375],[7.826217985150731,48.595030342755045],[7.827618503677416,48.59357538007124],[7.827470370309391,48.59197009292078],[7.826339493757356,48.590895050403546],[7.824578263997918,48.59030056488726],[7.822602570666453,48.590327012031814],[7.82092765534403,48.590938134841544],[7.819814342779299,48.59207257835416],[7.819670453350058,48.593491673963115],[7.818599439289483,48.594381864406145],[7.814325231359924,48.59557928531211],[7.81279592390255,48.59713717496529],[7.813542620985316,48.59939009642526],[7.816850969984965,48.600746227649175],[7.81826979614133,48.60274481214859],[7.820631401879141,48.60339938939911]]}},{"type":"Feature","properties":{"cluster_id":1,"snapshot_index":11,"estimated_time_utc":"2026-09-26T12:17:00Z","observed_until_utc":"2026-09-26T12:17:00Z","target_time_utc":"2026-09-26T12:17:00Z","arrival_h":107.16666666666667,"hours_ago":0.0,"supported_detections_cumulative":27,"sources_cumulative":"VIIRS_NOAA20_NRT, VIIRS_NOAA21_NRT, VIIRS_SNPP_NRT","last_source":"VIIRS_NOAA20_NRT","last_satellite":"N20","last_instrument":"VIIRS","detected_area_km2":2.9490344316761967,"product_type":"cumulative_active_fire_detection_extent"},"geometry":{"type":"MultiLineString","coordinates":[[[7.747477750253417,48.542505194610925],[7.745134807086155,48.542913163902654],[7.743460796726549,48.54429837676759],[7.743351673436631,48.54586289300452],[7.744619765978237,48.54723325097626],[7.746771132832915,48.54787559319562],[7.749949921692775,48.54742657501901],[7.752297522186915,48.54769138155936],[7.75508249588814,48.54677276304201],[7.756073354588479,48.544815669203835],[7.754689833299804,48.54296657923632],[7.752538570864246,48.54232437773976],[7.749360113501235,48.5427734669494],[7.747477750253417,48.542505194610925]],[[7.81647665379027,48.5831714044452],[7.814208276751944,48.58394796867896],[7.813002203283398,48.58529426204135],[7.813149874418419,48.586899575914856],[7.814904436057437,48.588271272563354],[7.814336531060253,48.58933785038878],[7.814395236099068,48.591701617421634],[7.812421161777899,48.593064490443936],[7.811076055467369,48.59478246173024],[7.810644362754328,48.59809084563589],[7.812002616463658,48.600517653328474],[7.813965570048564,48.60206620528052],[7.819075346562434,48.60403128459796],[7.821827745851578,48.60433984463155],[7.828505121840403,48.60183280618596],[7.830566034226284,48.598581635885246],[7.830715219062419,48.59590830740677],[7.828794532225893,48.59293456129932],[7.824520920564888,48.589939619392844],[7.825544391092722,48.586727983361335],[7.824736591409763,48.585034784166176],[7.819872461425896,48.58292232101844],[7.81647665379027,48.5831714044452]]]}}],"metadata":{"generated_at_utc":"2026-09-26T22:12:13.698054Z","product_type":"cumulative_active_fire_detection_extent","product_label":"Emprises cumulées des détections actives FIRMS","not_a_burn_perimeter":true,"not_a_continuous_fire_front":true,"not_an_arrival_time_interpolation":true,"snapshot_step_hours":6,"confidence_filter":{"VIIRS":["nominal","high"],"MODIS_minimum":30},"footprint_radius_m":{"VIIRS":300.0,"MODIS":750.0},"same_pass_neighbour_m":2000.0,"continuity_distance_m":3000.0,"clusters":[{"cluster_id":1,"first_supported_detection_utc":"2026-09-22T01:07:00Z","last_supported_detection_utc":"2026-09-26T12:17:00Z","pass_states":20,"published_snapshots":11,"final_detected_area_km2":1.1558017429354182}]},"bbox":[7.743351673436631,48.54232437773976,7.8307152190624185,48.60433984463155]}