{"type":"FeatureCollection","name":"fire_progression_arrival_v1","features":[{"type":"Feature","properties":{"category":"arrival_step","arrival_snapshot_index":1,"first_detected_utc":"2026-10-04T01:20:00+00:00","first_detected_local":"2026-10-04T03:20:00+02:00","area_km2":2.375,"label":"Première détection FIRMS","model_version":"fire_progression_arrival_v1"},"geometry":{"type":"Polygon","coordinates":[[[7.821202828270408,48.603063342428165],[7.820995939146496,48.600818737806435],[7.814227396596848,48.60109297211761],[7.814020814206064,48.59884835175843],[7.810636660865216,48.59898531896816],[7.810017453358925,48.59225141414346],[7.813401173263651,48.5921144637875],[7.8129881678042645,48.58762518276508],[7.829905057175237,48.58693904424832],[7.830319507046243,48.59142826898023],[7.833703120568541,48.591290741418355],[7.834325361984305,48.5980245280191],[7.830941315066875,48.59816207250549],[7.831355942583322,48.60265125243188],[7.821202828270408,48.603063342428165]],[[7.817198240667404,48.59646666911244],[7.820582214096499,48.59632951510029],[7.820375378165862,48.5940848970231],[7.816991549210924,48.594222045409445],[7.817198240667404,48.59646666911244]]]}},{"type":"Feature","properties":{"category":"firms_extent_snapshot","snapshot_index":1,"pass_time_utc":"2026-10-04T01:20:00+00:00","dt_local":"2026-10-04T03:20:00+02:00","label":"Emprise FIRMS cumulée à ce passage","interpretation":"Enveloppe des détections FIRMS, pas une surface brûlée","cumulative":true,"point_count":2,"extent_method":"cumulative_detection_extent_smoothed_landmasked_web_v1","local_cluster_link_m":10000.0,"model_version":"fire_progression_arrival_v1"},"geometry":{"type":"MultiPolygon","coordinates":[[[[7.820211612554418,48.599679901815136],[7.820200819909182,48.599562781880394],[7.820198274163124,48.5996630069103],[7.820211612554418,48.599679901815136]]],[[[7.823958957453484,48.59979736572389],[7.823945470958217,48.59596780383583],[7.824772496514453,48.60154060096549],[7.8268546764217435,48.60104309424987],[7.827879542019085,48.6001031034623],[7.828208903663668,48.59886524965345],[7.827151911376164,48.59666256112184],[7.82722134369345,48.594456888764974],[7.826304834411591,48.5932961045092],[7.824210573234417,48.59246593856351],[7.821777178602977,48.59258198897182],[7.820635232538643,48.5932189910009],[7.821342664652889,48.60089506536007],[7.823349057270964,48.60152214902709],[7.823958957453484,48.59979736572389]]],[[[7.8198226958871615,48.59545910645601],[7.819583056523742,48.59426502947285],[7.819221680406597,48.595227142001605],[7.8198226958871615,48.59545910645601]]]]}},{"type":"Feature","properties":{"category":"historical_support","snapshot_index":1,"pass_time_utc":"2026-10-04T01:20:00+00:00","dt_local":"2026-10-04T03:20:00+02:00","area_km2":2.375,"label":"Isoline temporelle","coherence_level":"indisponible","coherence_fraction":0.0,"projection_displayed":false,"model_version":"fire_progression_arrival_v1"},"geometry":{"type":"Polygon","coordinates":[[[7.821202828270408,48.603063342428165],[7.820995939146496,48.600818737806435],[7.814227396596848,48.60109297211761],[7.814020814206064,48.59884835175843],[7.810636660865216,48.59898531896816],[7.810017453358925,48.59225141414346],[7.813401173263651,48.5921144637875],[7.8129881678042645,48.58762518276508],[7.829905057175237,48.58693904424832],[7.830319507046243,48.59142826898023],[7.833703120568541,48.591290741418355],[7.834325361984305,48.5980245280191],[7.830941315066875,48.59816207250549],[7.831355942583322,48.60265125243188],[7.821202828270408,48.603063342428165]],[[7.817198240667404,48.59646666911244],[7.820582214096499,48.59632951510029],[7.820375378165862,48.5940848970231],[7.816991549210924,48.594222045409445],[7.817198240667404,48.59646666911244]]]}},{"type":"Feature","properties":{"category":"observed_front","snapshot_index":1,"pass_time_utc":"2026-10-04T01:20:00+00:00","dt_local":"2026-10-04T03:20:00+02:00","area_km2":2.375,"label":"Activité observée","coherence_level":"indisponible","coherence_fraction":0.0,"projection_displayed":false,"model_version":"fire_progression_arrival_v1"},"geometry":{"type":"Polygon","coordinates":[[[7.821202828270408,48.603063342428165],[7.820995939146496,48.600818737806435],[7.814227396596848,48.60109297211761],[7.814020814206064,48.59884835175843],[7.810636660865216,48.59898531896816],[7.810017453358925,48.59225141414346],[7.813401173263651,48.5921144637875],[7.8129881678042645,48.58762518276508],[7.829905057175237,48.58693904424832],[7.830319507046243,48.59142826898023],[7.833703120568541,48.591290741418355],[7.834325361984305,48.5980245280191],[7.830941315066875,48.59816207250549],[7.831355942583322,48.60265125243188],[7.821202828270408,48.603063342428165]],[[7.817198240667404,48.59646666911244],[7.820582214096499,48.59632951510029],[7.820375378165862,48.5940848970231],[7.816991549210924,48.594222045409445],[7.817198240667404,48.59646666911244]]]}},{"type":"Feature","properties":{"category":"firms_extent_snapshot","snapshot_index":2,"pass_time_utc":"2026-10-04T01:39:00+00:00","dt_local":"2026-10-04T03:39:00+02:00","label":"Emprise FIRMS cumulée à ce passage","interpretation":"Enveloppe des détections FIRMS, pas une surface brûlée","cumulative":true,"point_count":4,"extent_method":"cumulative_detection_extent_smoothed_landmasked_web_v1","local_cluster_link_m":10000.0,"model_version":"fire_progression_arrival_v1"},"geometry":{"type":"MultiPolygon","coordinates":[[[[7.819677507466583,48.600882270580364],[7.820333387919203,48.60100135004006],[7.82007087922025,48.59815264573513],[7.816689116392563,48.5936394089274],[7.816351292900664,48.59382410962466],[7.8157613516910525,48.59539446482561],[7.816250744109406,48.59680488301885],[7.819677507466583,48.600882270580364]]],[[[7.823958957453484,48.59979736572389],[7.823945470958217,48.59596780383583],[7.824786108446813,48.60163231290527],[7.826210570547853,48.601354392017036],[7.827492251113947,48.60056508048734],[7.828211946364904,48.598920362798225],[7.827151911376164,48.59666256112184],[7.827284707798123,48.594662193262955],[7.825584236678069,48.59287322272844],[7.8234207798279405,48.592394638279295],[7.820575313242242,48.59256872393961],[7.821369805090842,48.60118950997913],[7.823340197626237,48.60154720301492],[7.823958957453484,48.59979736572389]]],[[[7.817637413022532,48.59312092757451],[7.8198226958871615,48.59545910645601],[7.81925880251803,48.59264924465705],[7.818404544610977,48.592701485041815],[7.817637413022532,48.59312092757451]]]]}},{"type":"Feature","properties":{"category":"historical_support","snapshot_index":2,"pass_time_utc":"2026-10-04T01:39:00+00:00","dt_local":"2026-10-04T03:39:00+02:00","area_km2":2.375,"label":"Isoline temporelle","coherence_level":"indisponible","coherence_fraction":0.0,"projection_displayed":false,"model_version":"fire_progression_arrival_v1"},"geometry":{"type":"Polygon","coordinates":[[[7.821202828270408,48.603063342428165],[7.820995939146496,48.600818737806435],[7.814227396596848,48.60109297211761],[7.814020814206064,48.59884835175843],[7.810636660865216,48.59898531896816],[7.810017453358925,48.59225141414346],[7.813401173263651,48.5921144637875],[7.8129881678042645,48.58762518276508],[7.829905057175237,48.58693904424832],[7.830319507046243,48.59142826898023],[7.833703120568541,48.591290741418355],[7.834325361984305,48.5980245280191],[7.830941315066875,48.59816207250549],[7.831355942583322,48.60265125243188],[7.821202828270408,48.603063342428165]],[[7.817198240667404,48.59646666911244],[7.820582214096499,48.59632951510029],[7.820375378165862,48.5940848970231],[7.816991549210924,48.594222045409445],[7.817198240667404,48.59646666911244]]]}},{"type":"Feature","properties":{"category":"observed_front","snapshot_index":2,"pass_time_utc":"2026-10-04T01:39:00+00:00","dt_local":"2026-10-04T03:39:00+02:00","area_km2":2.188,"label":"Activité observée","coherence_level":"indisponible","coherence_fraction":0.0,"projection_displayed":false,"model_version":"fire_progression_arrival_v1"},"geometry":{"type":"Polygon","coordinates":[[[7.821202828270408,48.603063342428165],[7.820995939146496,48.600818737806435],[7.814227396596848,48.60109297211761],[7.814020814206064,48.59884835175843],[7.810636660865216,48.59898531896816],[7.810017453358925,48.59225141414346],[7.813401173263651,48.5921144637875],[7.8129881678042645,48.58762518276508],[7.829905057175237,48.58693904424832],[7.830319507046243,48.59142826898023],[7.833703120568541,48.591290741418355],[7.834117930401837,48.59577993696694],[7.830734027961741,48.59591747581156],[7.831148619939976,48.60040666471347],[7.824380183827413,48.600681476324894],[7.824587217460083,48.602926075316105],[7.821202828270408,48.603063342428165]],[[7.817198240667404,48.59646666911244],[7.820582214096499,48.59632951510029],[7.820375378165862,48.5940848970231],[7.816991549210924,48.594222045409445],[7.817198240667404,48.59646666911244]]]}},{"type":"Feature","properties":{"category":"firms_extent_snapshot","snapshot_index":3,"pass_time_utc":"2026-10-05T01:20:00+00:00","dt_local":"2026-10-05T03:20:00+02:00","label":"Emprise FIRMS cumulée à ce passage","interpretation":"Enveloppe des détections FIRMS, pas une surface brûlée","cumulative":true,"point_count":6,"extent_method":"cumulative_detection_extent_smoothed_landmasked_web_v1","local_cluster_link_m":10000.0,"model_version":"fire_progression_arrival_v1"},"geometry":{"type":"MultiPolygon","coordinates":[[[[7.820401830042833,48.60174402139452],[7.82007087922025,48.59815264573513],[7.816689116392563,48.5936394089274],[7.816351292900664,48.59382410962466],[7.8157613516910525,48.59539446482561],[7.816061635369565,48.596579847296255],[7.820401830042833,48.60174402139452]]],[[[7.823607077631101,48.59598153313105],[7.824462995150873,48.60157931646026],[7.824475441545743,48.60171425751513],[7.824794965914973,48.60169306327758],[7.827492251113947,48.60056508048734],[7.828211946364904,48.598920362798225],[7.827151911376164,48.59666256112184],[7.827284707798123,48.594662193262955],[7.825584236678069,48.59287322272844],[7.8234207798279405,48.592394638279295],[7.820575313242242,48.59256872393961],[7.821436749639453,48.60191577198762],[7.82293935101689,48.6018161350793],[7.82320644381555,48.60179842223489],[7.823607077631101,48.59598153313105]]],[[[7.817637413022532,48.59312092757451],[7.8198226958871615,48.59545910645601],[7.81925880251803,48.59264924465705],[7.818404544610977,48.592701485041815],[7.817637413022532,48.59312092757451]]]]}},{"type":"Feature","properties":{"category":"historical_support","snapshot_index":3,"pass_time_utc":"2026-10-05T01:20:00+00:00","dt_local":"2026-10-05T03:20:00+02:00","area_km2":2.375,"label":"Isoline temporelle","coherence_level":"indisponible","coherence_fraction":0.0,"projection_displayed":false,"model_version":"fire_progression_arrival_v1"},"geometry":{"type":"Polygon","coordinates":[[[7.821202828270408,48.603063342428165],[7.820995939146496,48.600818737806435],[7.814227396596848,48.60109297211761],[7.814020814206064,48.59884835175843],[7.810636660865216,48.59898531896816],[7.810017453358925,48.59225141414346],[7.813401173263651,48.5921144637875],[7.8129881678042645,48.58762518276508],[7.829905057175237,48.58693904424832],[7.830319507046243,48.59142826898023],[7.833703120568541,48.591290741418355],[7.834325361984305,48.5980245280191],[7.830941315066875,48.59816207250549],[7.831355942583322,48.60265125243188],[7.821202828270408,48.603063342428165]],[[7.817198240667404,48.59646666911244],[7.820582214096499,48.59632951510029],[7.820375378165862,48.5940848970231],[7.816991549210924,48.594222045409445],[7.817198240667404,48.59646666911244]]]}},{"type":"Feature","properties":{"category":"observed_front","snapshot_index":3,"pass_time_utc":"2026-10-05T01:20:00+00:00","dt_local":"2026-10-05T03:20:00+02:00","area_km2":1.938,"label":"Activité observée","coherence_level":"indisponible","coherence_fraction":0.0,"projection_displayed":false,"model_version":"fire_progression_arrival_v1"},"geometry":{"type":"Polygon","coordinates":[[[7.821202828270408,48.603063342428165],[7.820995939146496,48.600818737806435],[7.814227396596848,48.60109297211761],[7.814020814206064,48.59884835175843],[7.810636660865216,48.59898531896816],[7.810017453358925,48.59225141414346],[7.813401173263651,48.5921144637875],[7.8129881678042645,48.58762518276508],[7.8265217147650326,48.5870764643372],[7.826935875762823,48.59156570034294],[7.830319507046243,48.59142826898023],[7.830941315066875,48.59816207250549],[7.827557250381478,48.598299520780905],[7.8279715889018195,48.60278871198377],[7.821202828270408,48.603063342428165]],[[7.817198240667404,48.59646666911244],[7.820582214096499,48.59632951510029],[7.820375378165862,48.5940848970231],[7.816991549210924,48.594222045409445],[7.817198240667404,48.59646666911244]]]}},{"type":"Feature","properties":{"category":"firms_extent_snapshot","snapshot_index":4,"pass_time_utc":"2026-10-05T02:41:00+00:00","dt_local":"2026-10-05T04:41:00+02:00","label":"Emprise FIRMS cumulée à ce passage","interpretation":"Enveloppe des détections FIRMS, pas une surface brûlée","cumulative":true,"point_count":7,"extent_method":"cumulative_detection_extent_smoothed_landmasked_web_v1","local_cluster_link_m":10000.0,"model_version":"fire_progression_arrival_v1"},"geometry":{"type":"MultiPolygon","coordinates":[[[[7.820401830042833,48.60174402139452],[7.82007087922025,48.59815264573513],[7.816689116392563,48.5936394089274],[7.816351292900664,48.59382410962466],[7.8157613516910525,48.59539446482561],[7.816061635369565,48.596579847296255],[7.820401830042833,48.60174402139452]]],[[[7.823607077631101,48.59598153313105],[7.824462995150873,48.60157931646026],[7.824475441545743,48.60171425751513],[7.824794965914973,48.60169306327758],[7.827492251113947,48.60056508048734],[7.828211946364904,48.598920362798225],[7.827151911376164,48.59666256112184],[7.827284707798123,48.594662193262955],[7.825584236678069,48.59287322272844],[7.8234207798279405,48.592394638279295],[7.820575313242242,48.59256872393961],[7.821436749639453,48.60191577198762],[7.82293935101689,48.6018161350793],[7.82320644381555,48.60179842223489],[7.823607077631101,48.59598153313105]]],[[[7.817637413022532,48.59312092757451],[7.8198226958871615,48.59545910645601],[7.81925880251803,48.59264924465705],[7.818404544610977,48.592701485041815],[7.817637413022532,48.59312092757451]]]]}},{"type":"Feature","properties":{"category":"historical_support","snapshot_index":4,"pass_time_utc":"2026-10-05T02:41:00+00:00","dt_local":"2026-10-05T04:41:00+02:00","area_km2":2.375,"label":"Isoline temporelle","coherence_level":"indisponible","coherence_fraction":0.0,"projection_displayed":false,"model_version":"fire_progression_arrival_v1"},"geometry":{"type":"Polygon","coordinates":[[[7.821202828270408,48.603063342428165],[7.820995939146496,48.600818737806435],[7.814227396596848,48.60109297211761],[7.814020814206064,48.59884835175843],[7.810636660865216,48.59898531896816],[7.810017453358925,48.59225141414346],[7.813401173263651,48.5921144637875],[7.8129881678042645,48.58762518276508],[7.829905057175237,48.58693904424832],[7.830319507046243,48.59142826898023],[7.833703120568541,48.591290741418355],[7.834325361984305,48.5980245280191],[7.830941315066875,48.59816207250549],[7.831355942583322,48.60265125243188],[7.821202828270408,48.603063342428165]],[[7.817198240667404,48.59646666911244],[7.820582214096499,48.59632951510029],[7.820375378165862,48.5940848970231],[7.816991549210924,48.594222045409445],[7.817198240667404,48.59646666911244]]]}},{"type":"Feature","properties":{"category":"observed_front","snapshot_index":4,"pass_time_utc":"2026-10-05T02:41:00+00:00","dt_local":"2026-10-05T04:41:00+02:00","area_km2":2.188,"label":"Activité observée","coherence_level":"indisponible","coherence_fraction":0.0,"projection_displayed":false,"model_version":"fire_progression_arrival_v1"},"geometry":{"type":"Polygon","coordinates":[[[7.821202828270408,48.603063342428165],[7.820995939146496,48.600818737806435],[7.814227396596848,48.60109297211761],[7.814020814206064,48.59884835175843],[7.810636660865216,48.59898531896816],[7.810017453358925,48.59225141414346],[7.813401173263651,48.5921144637875],[7.813194661685252,48.589869825511414],[7.816578219438437,48.58973278457398],[7.816371581117882,48.58748814744871],[7.8265217147650326,48.5870764643372],[7.826728786390649,48.589321084575715],[7.83011227323132,48.589183658850054],[7.830319507046243,48.59142826898023],[7.833703120568541,48.591290741418355],[7.834325361984305,48.5980245280191],[7.830941315066875,48.59816207250549],[7.831148619939976,48.60040666471347],[7.827764410762671,48.60054411862699],[7.8279715889018195,48.60278871198377],[7.821202828270408,48.603063342428165]],[[7.817198240667404,48.59646666911244],[7.820582214096499,48.59632951510029],[7.820375378165862,48.5940848970231],[7.816991549210924,48.594222045409445],[7.817198240667404,48.59646666911244]]]}},{"type":"Feature","properties":{"category":"firms_extent_snapshot","snapshot_index":5,"pass_time_utc":"2026-10-05T12:27:00+00:00","dt_local":"2026-10-05T14:27:00+02:00","label":"Emprise FIRMS cumulée à ce passage","interpretation":"Enveloppe des détections FIRMS, pas une surface brûlée","cumulative":true,"point_count":8,"extent_method":"cumulative_detection_extent_smoothed_landmasked_web_v1","local_cluster_link_m":10000.0,"model_version":"fire_progression_arrival_v1"},"geometry":{"type":"MultiPolygon","coordinates":[[[[7.820401830042833,48.60174402139452],[7.82007087922025,48.59815264573513],[7.816689116392563,48.5936394089274],[7.816351292900664,48.59382410962466],[7.8157613516910525,48.59539446482561],[7.816078385508993,48.59659977972827],[7.820401830042833,48.60174402139452]]],[[[7.823241994058112,48.60225439590568],[7.823607077631101,48.59598153313105],[7.824462995150873,48.60157931646026],[7.8244798828851305,48.60176240936022],[7.827492251113947,48.60056508048734],[7.828211946364904,48.598920362798225],[7.827151911376164,48.59666256112184],[7.827284707798123,48.594662193262955],[7.825584236678069,48.59287322272844],[7.8234207798279405,48.592394638279295],[7.820575313242242,48.59256872393961],[7.8214623784958786,48.60219380656794],[7.822955324814566,48.602368326550234],[7.823241994058112,48.60225439590568]]],[[[7.817637413022532,48.59312092757451],[7.8198226958871615,48.59545910645601],[7.81925880251803,48.59264924465705],[7.818404544610977,48.592701485041815],[7.817637413022532,48.59312092757451]]]]}},{"type":"Feature","properties":{"category":"historical_support","snapshot_index":5,"pass_time_utc":"2026-10-05T12:27:00+00:00","dt_local":"2026-10-05T14:27:00+02:00","area_km2":2.375,"label":"Isoline temporelle","coherence_level":"indisponible","coherence_fraction":0.0,"projection_displayed":false,"model_version":"fire_progression_arrival_v1"},"geometry":{"type":"Polygon","coordinates":[[[7.821202828270408,48.603063342428165],[7.820995939146496,48.600818737806435],[7.814227396596848,48.60109297211761],[7.814020814206064,48.59884835175843],[7.810636660865216,48.59898531896816],[7.810017453358925,48.59225141414346],[7.813401173263651,48.5921144637875],[7.8129881678042645,48.58762518276508],[7.829905057175237,48.58693904424832],[7.830319507046243,48.59142826898023],[7.833703120568541,48.591290741418355],[7.834325361984305,48.5980245280191],[7.830941315066875,48.59816207250549],[7.831355942583322,48.60265125243188],[7.821202828270408,48.603063342428165]],[[7.817198240667404,48.59646666911244],[7.820582214096499,48.59632951510029],[7.820375378165862,48.5940848970231],[7.816991549210924,48.594222045409445],[7.817198240667404,48.59646666911244]]]}},{"type":"Feature","properties":{"category":"observed_front","snapshot_index":5,"pass_time_utc":"2026-10-05T12:27:00+00:00","dt_local":"2026-10-05T14:27:00+02:00","area_km2":1.812,"label":"Activité observée","coherence_level":"indisponible","coherence_fraction":0.0,"projection_displayed":false,"model_version":"fire_progression_arrival_v1"},"geometry":{"type":"Polygon","coordinates":[[[7.821202828270408,48.603063342428165],[7.820995939146496,48.600818737806435],[7.814227396596848,48.60109297211761],[7.814020814206064,48.59884835175843],[7.810636660865216,48.59898531896816],[7.810223838170594,48.594496053563404],[7.81360770254174,48.59435909758978],[7.813401173263651,48.5921144637875],[7.816784875468693,48.59197741722876],[7.816578219438437,48.58973278457398],[7.826728786390649,48.589321084575715],[7.826935875762823,48.59156570034294],[7.830319507046243,48.59142826898023],[7.83052675862229,48.59367287463527],[7.833910516597344,48.59353534143215],[7.834325361984305,48.5980245280191],[7.830941315066875,48.59816207250549],[7.831355942583322,48.60265125243188],[7.821202828270408,48.603063342428165]],[[7.817198240667404,48.59646666911244],[7.820582214096499,48.59632951510029],[7.820375378165862,48.5940848970231],[7.816991549210924,48.594222045409445],[7.817198240667404,48.59646666911244]]]}},{"type":"Feature","properties":{"category":"historical_support","snapshot_index":6,"pass_time_utc":"2026-10-06T01:45:00+00:00","dt_local":"2026-10-06T03:45:00+02:00","area_km2":2.375,"label":"Isoline temporelle","coherence_level":"indisponible","coherence_fraction":0.0,"projection_displayed":false,"model_version":"fire_progression_arrival_v1"},"geometry":{"type":"Polygon","coordinates":[[[7.821202828270408,48.603063342428165],[7.820995939146496,48.600818737806435],[7.814227396596848,48.60109297211761],[7.814020814206064,48.59884835175843],[7.810636660865216,48.59898531896816],[7.810017453358925,48.59225141414346],[7.813401173263651,48.5921144637875],[7.8129881678042645,48.58762518276508],[7.829905057175237,48.58693904424832],[7.830319507046243,48.59142826898023],[7.833703120568541,48.591290741418355],[7.834325361984305,48.5980245280191],[7.830941315066875,48.59816207250549],[7.831355942583322,48.60265125243188],[7.821202828270408,48.603063342428165]],[[7.817198240667404,48.59646666911244],[7.820582214096499,48.59632951510029],[7.820375378165862,48.5940848970231],[7.816991549210924,48.594222045409445],[7.817198240667404,48.59646666911244]]]}},{"type":"Feature","properties":{"category":"observed_front","snapshot_index":6,"pass_time_utc":"2026-10-06T01:45:00+00:00","dt_local":"2026-10-06T03:45:00+02:00","area_km2":2.188,"label":"Activité observée","coherence_level":"indisponible","coherence_fraction":0.0,"projection_displayed":false,"model_version":"fire_progression_arrival_v1"},"geometry":{"type":"Polygon","coordinates":[[[7.821202828270408,48.603063342428165],[7.820995939146496,48.600818737806435],[7.814227396596848,48.60109297211761],[7.814020814206064,48.59884835175843],[7.810636660865216,48.59898531896816],[7.810017453358925,48.59225141414346],[7.813401173263651,48.5921144637875],[7.813194661685252,48.589869825511414],[7.816578219438437,48.58973278457398],[7.816371581117882,48.58748814744871],[7.8265217147650326,48.5870764643372],[7.826728786390649,48.589321084575715],[7.83011227323132,48.589183658850054],[7.830319507046243,48.59142826898023],[7.833703120568541,48.591290741418355],[7.834325361984305,48.5980245280191],[7.830941315066875,48.59816207250549],[7.831148619939976,48.60040666471347],[7.827764410762671,48.60054411862699],[7.8279715889018195,48.60278871198377],[7.821202828270408,48.603063342428165]],[[7.817198240667404,48.59646666911244],[7.820582214096499,48.59632951510029],[7.820375378165862,48.5940848970231],[7.816991549210924,48.594222045409445],[7.817198240667404,48.59646666911244]]]}},{"type":"Feature","properties":{"category":"firms_extent_snapshot","snapshot_index":7,"pass_time_utc":"2026-10-06T02:21:00+00:00","dt_local":"2026-10-06T04:21:00+02:00","label":"Emprise FIRMS cumulée à ce passage","interpretation":"Enveloppe des détections FIRMS, pas une surface brûlée","cumulative":true,"point_count":11,"extent_method":"cumulative_detection_extent_smoothed_landmasked_web_v1","local_cluster_link_m":10000.0,"model_version":"fire_progression_arrival_v1"},"geometry":{"type":"MultiPolygon","coordinates":[[[[7.817124055558072,48.60048415105232],[7.814834454411574,48.59742844569404],[7.81469116390209,48.59777442802094],[7.815332567315482,48.59907035028542],[7.817124055558072,48.60048415105232]]],[[[7.823243831220478,48.602222833642806],[7.823607077631101,48.59598153313105],[7.824462995150873,48.60157931646026],[7.824488492023824,48.60185574714203],[7.826282421554946,48.601326633252214],[7.827662896727366,48.600388711261154],[7.828214815942922,48.59617216242462],[7.826774121053827,48.59372330729184],[7.825318365391788,48.592760035760904],[7.8234207798279405,48.592394638279295],[7.82056993239152,48.592510328086576],[7.821477042312885,48.6023528855887],[7.822564861508137,48.60242307376455],[7.823243831220478,48.602222833642806]]],[[[7.817732772304455,48.593222964072844],[7.8198226958871615,48.59545910645601],[7.819241737195017,48.59256420388106],[7.819175366599842,48.59256689569038],[7.817732772304455,48.593222964072844]]],[[[7.815457364535539,48.59592434079439],[7.820401830042833,48.60174402139452],[7.82007087922025,48.59815264573513],[7.816721624119837,48.59368279736552],[7.816307652722038,48.59387105159223],[7.815457364535539,48.59592434079439]]]]}},{"type":"Feature","properties":{"category":"historical_support","snapshot_index":7,"pass_time_utc":"2026-10-06T02:21:00+00:00","dt_local":"2026-10-06T04:21:00+02:00","area_km2":2.375,"label":"Isoline temporelle","coherence_level":"indisponible","coherence_fraction":0.0,"projection_displayed":false,"model_version":"fire_progression_arrival_v1"},"geometry":{"type":"Polygon","coordinates":[[[7.821202828270408,48.603063342428165],[7.820995939146496,48.600818737806435],[7.814227396596848,48.60109297211761],[7.814020814206064,48.59884835175843],[7.810636660865216,48.59898531896816],[7.810017453358925,48.59225141414346],[7.813401173263651,48.5921144637875],[7.8129881678042645,48.58762518276508],[7.829905057175237,48.58693904424832],[7.830319507046243,48.59142826898023],[7.833703120568541,48.591290741418355],[7.834325361984305,48.5980245280191],[7.830941315066875,48.59816207250549],[7.831355942583322,48.60265125243188],[7.821202828270408,48.603063342428165]],[[7.817198240667404,48.59646666911244],[7.820582214096499,48.59632951510029],[7.820375378165862,48.5940848970231],[7.816991549210924,48.594222045409445],[7.817198240667404,48.59646666911244]]]}},{"type":"Feature","properties":{"category":"observed_front","snapshot_index":7,"pass_time_utc":"2026-10-06T02:21:00+00:00","dt_local":"2026-10-06T04:21:00+02:00","area_km2":2.188,"label":"Activité observée","coherence_level":"indisponible","coherence_fraction":0.0,"projection_displayed":false,"model_version":"fire_progression_arrival_v1"},"geometry":{"type":"Polygon","coordinates":[[[7.821202828270408,48.603063342428165],[7.820995939146496,48.600818737806435],[7.814227396596848,48.60109297211761],[7.814020814206064,48.59884835175843],[7.810636660865216,48.59898531896816],[7.810017453358925,48.59225141414346],[7.813401173263651,48.5921144637875],[7.813194661685252,48.589869825511414],[7.816578219438437,48.58973278457398],[7.816371581117882,48.58748814744871],[7.8265217147650326,48.5870764643372],[7.826728786390649,48.589321084575715],[7.83011227323132,48.589183658850054],[7.830319507046243,48.59142826898023],[7.833703120568541,48.591290741418355],[7.834325361984305,48.5980245280191],[7.830941315066875,48.59816207250549],[7.831148619939976,48.60040666471347],[7.827764410762671,48.60054411862699],[7.8279715889018195,48.60278871198377],[7.821202828270408,48.603063342428165]],[[7.817198240667404,48.59646666911244],[7.820582214096499,48.59632951510029],[7.820375378165862,48.5940848970231],[7.816991549210924,48.594222045409445],[7.817198240667404,48.59646666911244]]]}},{"type":"Feature","properties":{"category":"historical_support","snapshot_index":8,"pass_time_utc":"2026-10-07T01:26:00+00:00","dt_local":"2026-10-07T03:26:00+02:00","area_km2":2.375,"label":"Isoline temporelle","coherence_level":"indisponible","coherence_fraction":0.0,"projection_displayed":false,"model_version":"fire_progression_arrival_v1"},"geometry":{"type":"Polygon","coordinates":[[[7.821202828270408,48.603063342428165],[7.820995939146496,48.600818737806435],[7.814227396596848,48.60109297211761],[7.814020814206064,48.59884835175843],[7.810636660865216,48.59898531896816],[7.810017453358925,48.59225141414346],[7.813401173263651,48.5921144637875],[7.8129881678042645,48.58762518276508],[7.829905057175237,48.58693904424832],[7.830319507046243,48.59142826898023],[7.833703120568541,48.591290741418355],[7.834325361984305,48.5980245280191],[7.830941315066875,48.59816207250549],[7.831355942583322,48.60265125243188],[7.821202828270408,48.603063342428165]],[[7.817198240667404,48.59646666911244],[7.820582214096499,48.59632951510029],[7.820375378165862,48.5940848970231],[7.816991549210924,48.594222045409445],[7.817198240667404,48.59646666911244]]]}},{"type":"Feature","properties":{"category":"observed_front","snapshot_index":8,"pass_time_utc":"2026-10-07T01:26:00+00:00","dt_local":"2026-10-07T03:26:00+02:00","area_km2":2.25,"label":"Activité observée","coherence_level":"indisponible","coherence_fraction":0.0,"projection_displayed":false,"model_version":"fire_progression_arrival_v1"},"geometry":{"type":"Polygon","coordinates":[[[7.821202828270408,48.603063342428165],[7.820995939146496,48.600818737806435],[7.814227396596848,48.60109297211761],[7.814020814206064,48.59884835175843],[7.810636660865216,48.59898531896816],[7.810017453358925,48.59225141414346],[7.813401173263651,48.5921144637875],[7.8129881678042645,48.58762518276508],[7.829905057175237,48.58693904424832],[7.830319507046243,48.59142826898023],[7.833703120568541,48.591290741418355],[7.834325361984305,48.5980245280191],[7.830941315066875,48.59816207250549],[7.831148619939976,48.60040666471347],[7.824380183827413,48.600681476324894],[7.824587217460083,48.602926075316105],[7.821202828270408,48.603063342428165]],[[7.817198240667404,48.59646666911244],[7.820582214096499,48.59632951510029],[7.820375378165862,48.5940848970231],[7.816991549210924,48.594222045409445],[7.817198240667404,48.59646666911244]]]}},{"type":"Feature","properties":{"category":"historical_support","snapshot_index":9,"pass_time_utc":"2026-10-07T02:04:00+00:00","dt_local":"2026-10-07T04:04:00+02:00","area_km2":2.375,"label":"Isoline temporelle","coherence_level":"indisponible","coherence_fraction":0.0,"projection_displayed":false,"model_version":"fire_progression_arrival_v1"},"geometry":{"type":"Polygon","coordinates":[[[7.821202828270408,48.603063342428165],[7.820995939146496,48.600818737806435],[7.814227396596848,48.60109297211761],[7.814020814206064,48.59884835175843],[7.810636660865216,48.59898531896816],[7.810017453358925,48.59225141414346],[7.813401173263651,48.5921144637875],[7.8129881678042645,48.58762518276508],[7.829905057175237,48.58693904424832],[7.830319507046243,48.59142826898023],[7.833703120568541,48.591290741418355],[7.834325361984305,48.5980245280191],[7.830941315066875,48.59816207250549],[7.831355942583322,48.60265125243188],[7.821202828270408,48.603063342428165]],[[7.817198240667404,48.59646666911244],[7.820582214096499,48.59632951510029],[7.820375378165862,48.5940848970231],[7.816991549210924,48.594222045409445],[7.817198240667404,48.59646666911244]]]}},{"type":"Feature","properties":{"category":"observed_front","snapshot_index":9,"pass_time_utc":"2026-10-07T02:04:00+00:00","dt_local":"2026-10-07T04:04:00+02:00","area_km2":1.812,"label":"Activité observée","coherence_level":"indisponible","coherence_fraction":0.0,"projection_displayed":false,"model_version":"fire_progression_arrival_v1"},"geometry":{"type":"Polygon","coordinates":[[[7.821202828270408,48.603063342428165],[7.820995939146496,48.600818737806435],[7.814227396596848,48.60109297211761],[7.814020814206064,48.59884835175843],[7.810636660865216,48.59898531896816],[7.810223838170594,48.594496053563404],[7.81360770254174,48.59435909758978],[7.813401173263651,48.5921144637875],[7.816784875468693,48.59197741722876],[7.816578219438437,48.58973278457398],[7.826728786390649,48.589321084575715],[7.826935875762823,48.59156570034294],[7.830319507046243,48.59142826898023],[7.83052675862229,48.59367287463527],[7.833910516597344,48.59353534143215],[7.834325361984305,48.5980245280191],[7.830941315066875,48.59816207250549],[7.831355942583322,48.60265125243188],[7.821202828270408,48.603063342428165]],[[7.817198240667404,48.59646666911244],[7.820582214096499,48.59632951510029],[7.820375378165862,48.5940848970231],[7.816991549210924,48.594222045409445],[7.817198240667404,48.59646666911244]]]}},{"type":"Feature","properties":{"category":"firms_extent_snapshot","snapshot_index":10,"pass_time_utc":"2026-10-07T02:21:00+00:00","dt_local":"2026-10-07T04:21:00+02:00","label":"Emprise FIRMS cumulée à ce passage","interpretation":"Enveloppe des détections FIRMS, pas une surface brûlée","cumulative":true,"point_count":16,"extent_method":"cumulative_detection_extent_smoothed_landmasked_web_v1","local_cluster_link_m":10000.0,"model_version":"fire_progression_arrival_v1"},"geometry":{"type":"MultiPolygon","coordinates":[[[[7.820130395592282,48.604217870263184],[7.8119728393471775,48.59370966900173],[7.811094614180835,48.59475171667467],[7.810656153648668,48.596816696371796],[7.816774177316088,48.603008838564406],[7.8198258280785895,48.604230215395404],[7.820130395592282,48.604217870263184]]],[[[7.823368921309691,48.60395090940195],[7.823607077631101,48.59598153313105],[7.823945470958217,48.59596780383583],[7.824640518042804,48.603503913006406],[7.827392229454405,48.60253654803497],[7.8288503875711335,48.601443311343395],[7.830742946178894,48.597963840912165],[7.83051359229243,48.59528252452548],[7.82933843302314,48.59346306718481],[7.825085567878056,48.58969864308539],[7.8255437908528265,48.58669486744336],[7.825134049195271,48.58546761778857],[7.821358787002746,48.58334231396171],[7.817545226765611,48.582871599417736],[7.814748919989874,48.583673228098334],[7.813290962234264,48.58476630793679],[7.8128991608120195,48.58615931745262],[7.814271084318817,48.58846956049343],[7.814271890494798,48.588781532798805],[7.819145913468391,48.59548654065667],[7.819112103627717,48.59143250201168],[7.819367759400161,48.590520934359986],[7.820065157506452,48.59071796151224],[7.8219624797044665,48.603933736844105],[7.821193633122482,48.604174767563165],[7.8229326996338875,48.60410424673766],[7.823368921309691,48.60395090940195]]],[[[7.812907008648145,48.59260118788286],[7.8200633984643,48.6017577405515],[7.82007087922025,48.59815264573513],[7.814275960736276,48.5903565684355],[7.814277558451098,48.590974799611665],[7.812907008648145,48.59260118788286]]],[[[7.7475340960107575,48.54789244638567],[7.753871352115204,48.54740004925177],[7.755527405705443,48.546360898755175],[7.7560749458875495,48.544837701903624],[7.7547144206941265,48.54298141188036],[7.7517756871016115,48.54230755658013],[7.7454390268325115,48.54279984406964],[7.743782885789817,48.543838857043255],[7.743234998934641,48.5453619985012],[7.744595179446032,48.54721841629574],[7.7475340960107575,48.54789244638567]]]]}},{"type":"Feature","properties":{"category":"historical_support","snapshot_index":10,"pass_time_utc":"2026-10-07T02:21:00+00:00","dt_local":"2026-10-07T04:21:00+02:00","area_km2":2.375,"label":"Isoline temporelle","coherence_level":"indisponible","coherence_fraction":0.0,"projection_displayed":false,"model_version":"fire_progression_arrival_v1"},"geometry":{"type":"Polygon","coordinates":[[[7.821202828270408,48.603063342428165],[7.820995939146496,48.600818737806435],[7.814227396596848,48.60109297211761],[7.814020814206064,48.59884835175843],[7.810636660865216,48.59898531896816],[7.810017453358925,48.59225141414346],[7.813401173263651,48.5921144637875],[7.8129881678042645,48.58762518276508],[7.829905057175237,48.58693904424832],[7.830319507046243,48.59142826898023],[7.833703120568541,48.591290741418355],[7.834325361984305,48.5980245280191],[7.830941315066875,48.59816207250549],[7.831355942583322,48.60265125243188],[7.821202828270408,48.603063342428165]],[[7.817198240667404,48.59646666911244],[7.820582214096499,48.59632951510029],[7.820375378165862,48.5940848970231],[7.816991549210924,48.594222045409445],[7.817198240667404,48.59646666911244]]]}},{"type":"Feature","properties":{"category":"observed_front","snapshot_index":10,"pass_time_utc":"2026-10-07T02:21:00+00:00","dt_local":"2026-10-07T04:21:00+02:00","area_km2":1.812,"label":"Activité observée","coherence_level":"indisponible","coherence_fraction":0.0,"projection_displayed":false,"model_version":"fire_progression_arrival_v1"},"geometry":{"type":"Polygon","coordinates":[[[7.821202828270408,48.603063342428165],[7.820995939146496,48.600818737806435],[7.814227396596848,48.60109297211761],[7.814020814206064,48.59884835175843],[7.810636660865216,48.59898531896816],[7.810017453358925,48.59225141414346],[7.813401173263651,48.5921144637875],[7.8129881678042645,48.58762518276508],[7.823138354610551,48.58721378823405],[7.823345281803421,48.58945841410541],[7.826728786390649,48.589321084575715],[7.826935875762823,48.59156570034294],[7.830319507046243,48.59142826898023],[7.830941315066875,48.59816207250549],[7.827557250381478,48.598299520780905],[7.827764410762671,48.60054411862699],[7.824380183827413,48.600681476324894],[7.824587217460083,48.602926075316105],[7.821202828270408,48.603063342428165]],[[7.817198240667404,48.59646666911244],[7.820582214096499,48.59632951510029],[7.820375378165862,48.5940848970231],[7.816991549210924,48.594222045409445],[7.817198240667404,48.59646666911244]]]}}]}