{"type":"FeatureCollection","name":"detection_envelopes","crs":{"type":"name","properties":{"name":"urn:ogc:def:crs:OGC:1.3:CRS84"}},"features":[{"type":"Feature","properties":{"cluster_id":1,"snapshot_index":1,"estimated_time_utc":"2026-08-15T12:49:00Z","observed_until_utc":"2026-08-15T12:49:00Z","target_time_utc":"2026-08-15T12:49:00Z","arrival_h":0.0,"hours_ago":14.466666666666667,"supported_detections_cumulative":2,"sources_cumulative":"VIIRS_NOAA21_NRT","last_source":"VIIRS_NOAA21_NRT","last_satellite":"N21","last_instrument":"VIIRS","detected_area_km2":0.5830975110568123,"product_type":"cumulative_active_fire_detection_extent"},"geometry":{"type":"LineString","coordinates":[[4.736475678447134,49.909961339957995],[4.737751582803103,49.91037871942791],[4.738168340139176,49.912705318485],[4.740145529603657,49.91405312186296],[4.743331173590775,49.91419309710038],[4.745736939879363,49.9128374429817],[4.746145476464051,49.911338680079275],[4.745396855204772,49.91007625028223],[4.743854294881218,49.90922684279693],[4.740833974618738,49.90873137946603],[4.739716738290752,49.905706399618836],[4.738174404753702,49.90485691588179],[4.736194196949504,49.904577277900444],[4.733282930286999,49.905423374658966],[4.732150582348097,49.907351180181664],[4.733460632106255,49.90923145635059],[4.736475678447134,49.909961339957995]]}},{"type":"Feature","properties":{"cluster_id":1,"snapshot_index":2,"estimated_time_utc":"2026-08-15T13:25:00Z","observed_until_utc":"2026-08-15T13:25:00Z","target_time_utc":"2026-08-15T18:49:00Z","arrival_h":0.6,"hours_ago":13.866666666666667,"supported_detections_cumulative":4,"sources_cumulative":"VIIRS_NOAA21_NRT, VIIRS_SNPP_NRT","last_source":"VIIRS_SNPP_NRT","last_satellite":"N","last_instrument":"VIIRS","detected_area_km2":0.8497406742255926,"product_type":"cumulative_active_fire_detection_extent"},"geometry":{"type":"LineString","coordinates":[[4.737843162893972,49.911413127467135],[4.738168340139176,49.912705318485],[4.739398444737562,49.913745932601124],[4.741242996180357,49.91428920123094],[4.743266345403226,49.914206811939316],[4.745875986888531,49.91263620362387],[4.746344872062288,49.909654723117036],[4.744134231451512,49.90784683442568],[4.742222068130024,49.90756632215765],[4.740386446422255,49.907862042470306],[4.740151290090693,49.90620473226762],[4.738589226730483,49.905009584616536],[4.735383244189091,49.904644865749255],[4.733282930286999,49.905423374658966],[4.732149236024271,49.907311549582964],[4.730080007269299,49.90837428231235],[4.729514961721144,49.91044485237365],[4.730720382598155,49.91180138602457],[4.732822585448336,49.91248915499965],[4.734910705004252,49.91239319444736],[4.737843162893972,49.911413127467135]]}},{"type":"Feature","properties":{"cluster_id":1,"snapshot_index":3,"estimated_time_utc":"2026-08-16T03:17:00Z","observed_until_utc":"2026-08-16T03:17:00Z","target_time_utc":"2026-08-16T03:17:00Z","arrival_h":14.466666666666667,"hours_ago":0.0,"supported_detections_cumulative":26,"sources_cumulative":"VIIRS_NOAA20_NRT, VIIRS_NOAA21_NRT, VIIRS_SNPP_NRT","last_source":"VIIRS_SNPP_NRT","last_satellite":"N","last_instrument":"VIIRS","detected_area_km2":2.274139230269673,"product_type":"cumulative_active_fire_detection_extent"},"geometry":{"type":"LineString","coordinates":[[4.740645692317043,49.915255708355915],[4.743208407701824,49.91755600370491],[4.745868130387707,49.918143649810474],[4.748007863334261,49.917737209499734],[4.750511083589211,49.917894539971165],[4.752332718387633,49.91731767804518],[4.754230815066023,49.918040489954976],[4.756587110354777,49.918006661856985],[4.758624059991976,49.91708485757097],[4.759491561999452,49.91540207065183],[4.757680894666822,49.91220761003766],[4.757747172404338,49.9108045540726],[4.757006466488574,49.90958592682307],[4.753688575077169,49.90825096569567],[4.751216026795184,49.908154974604926],[4.74753882690495,49.904939418324574],[4.744399369833678,49.90456538778473],[4.739831138554483,49.90581967130465],[4.737799258451957,49.90475114697794],[4.73498935812021,49.90471680469116],[4.733059398146096,49.90558986243218],[4.732149236024271,49.907311549582964],[4.730043362911333,49.9084114371304],[4.729626331010408,49.91069925156015],[4.731031856260964,49.911972950820854],[4.733500585660881,49.91253127521058],[4.73401830927565,49.913842587746714],[4.735400397380112,49.914800377231046],[4.737727697036839,49.91523366339041],[4.74022372925116,49.914818833231124],[4.740645692317043,49.915255708355915]]}}],"metadata":{"generated_at_utc":"2026-08-16T19:53:21.769040Z","product_type":"cumulative_active_fire_detection_extent","product_label":"Emprises cumulées des détections actives FIRMS","not_a_burn_perimeter":true,"not_a_continuous_fire_front":true,"not_an_arrival_time_interpolation":true,"snapshot_step_hours":6,"confidence_filter":{"VIIRS":["nominal","high"],"MODIS_minimum":30},"footprint_radius_m":{"VIIRS":300.0,"MODIS":750.0},"same_pass_neighbour_m":2000.0,"continuity_distance_m":3000.0,"clusters":[{"cluster_id":1,"first_supported_detection_utc":"2026-08-15T12:49:00Z","last_supported_detection_utc":"2026-08-16T03:17:00Z","pass_states":7,"published_snapshots":3,"final_detected_area_km2":2.274139230269673}]},"bbox":[4.7295149617211445,49.90456538778473,4.759491561999452,49.918143649810474]}