{"type":"FeatureCollection","name":"fire_progression_arrival_v1","features":[{"type":"Feature","properties":{"category":"arrival_step","arrival_snapshot_index":1,"first_detected_utc":"2026-08-15T12:49:00+00:00","first_detected_local":"2026-08-15T14:49:00+02:00","area_km2":2.625,"label":"Première détection FIRMS","model_version":"fire_progression_arrival_v1"},"geometry":{"type":"Polygon","coordinates":[[[4.73214489166555,49.915378997232295],[4.732068608343915,49.913133777679185],[4.728591671129201,49.91318298587093],[4.728439430662375,49.90869252381474],[4.724962792769704,49.908741629088674],[4.724810885084839,49.90425113781892],[4.72828721700514,49.904202036595784],[4.728211120227907,49.9019567835594],[4.731687292482465,49.90190758551533],[4.7316110494533135,49.89966232822843],[4.74551505940727,49.899464555753106],[4.745591914234183,49.90170980488231],[4.749068052788211,49.90166011261122],[4.749222088678755,49.90615058792572],[4.75269852638531,49.90610079270236],[4.752852895391707,49.91059123875824],[4.74937615169833,49.91064103808968],[4.7494531933837445,49.912886253731074],[4.7459762898918205,49.912935956251715],[4.746053185334222,49.91518116764474],[4.73214489166555,49.915378997232295]]]}},{"type":"Feature","properties":{"category":"arrival_step","arrival_snapshot_index":3,"first_detected_utc":"2026-08-16T01:00:00+00:00","first_detected_local":"2026-08-16T03:00:00+02:00","area_km2":0.688,"label":"Première détection FIRMS","model_version":"fire_progression_arrival_v1"},"geometry":{"type":"Polygon","coordinates":[[[4.735698418279306,49.91757489935769],[4.735621975194158,49.915329688140325],[4.746053185334222,49.91518116764474],[4.7459762898918205,49.912935956251715],[4.7494531933837445,49.912886253731074],[4.74937615169833,49.91064103808968],[4.752852895391707,49.91059123875824],[4.75269852638531,49.90610079270236],[4.756174957296151,49.90605089862654],[4.756406979999294,49.91278655209515],[4.752930090090724,49.91283645234546],[4.753084499884879,49.917326860620186],[4.735698418279306,49.91757489935769]]]}},{"type":"Feature","properties":{"category":"arrival_step","arrival_snapshot_index":5,"first_detected_utc":"2026-08-16T01:56:00+00:00","first_detected_local":"2026-08-16T03:56:00+02:00","area_km2":0.875,"label":"Première détection FIRMS","model_version":"fire_progression_arrival_v1"},"geometry":{"type":"Polygon","coordinates":[[[4.753084499884879,49.917326860620186],[4.752930090090724,49.91283645234546],[4.756406979999294,49.91278655209515],[4.756174957296151,49.90605089862654],[4.749222088678755,49.90615058792572],[4.749068052788211,49.90166011261122],[4.756020309541416,49.901560431535536],[4.756097630014647,49.90380566822314],[4.759573901144887,49.903755677357154],[4.75972886847338,49.90824612775195],[4.763205438736404,49.908196033905796],[4.763360739367361,49.912686455001534],[4.759883863095994,49.91273655298043],[4.760038885019939,49.91722695301334],[4.753084499884879,49.917326860620186]]]}},{"type":"Feature","properties":{"category":"firms_extent_snapshot","snapshot_index":1,"pass_time_utc":"2026-08-15T12:49:00+00:00","dt_local":"2026-08-15T14:49:00+02:00","label":"Emprise FIRMS cumulée à ce passage","interpretation":"Enveloppe des détections FIRMS, pas une surface brûlée","cumulative":true,"point_count":2,"extent_method":"cumulative_detection_extent_smoothed_landmasked_web_v1","local_cluster_link_m":10000.0,"model_version":"fire_progression_arrival_v1"},"geometry":{"type":"Polygon","coordinates":[[[4.7321502541096105,49.9073291537822],[4.732954456092412,49.90885962906075],[4.736849916108517,49.9105962991267],[4.738365587224529,49.9129617770057],[4.739759626319286,49.913912061674715],[4.742903834977908,49.91426956874799],[4.745518523445035,49.91308664525581],[4.74616343892708,49.911789745990475],[4.74563422435328,49.91031811280929],[4.741469737116956,49.908313727500484],[4.739954060160166,49.90594827448091],[4.7385602351330505,49.90499798265514],[4.736552265335263,49.90458138378891],[4.734273616174785,49.90492294503902],[4.732758107497168,49.9058702462313],[4.7321502541096105,49.9073291537822]]]}},{"type":"Feature","properties":{"category":"historical_support","snapshot_index":1,"pass_time_utc":"2026-08-15T12:49:00+00:00","dt_local":"2026-08-15T14:49:00+02:00","area_km2":2.625,"label":"Isoline temporelle","coherence_level":"indisponible","coherence_fraction":0.0,"projection_displayed":false,"model_version":"fire_progression_arrival_v1"},"geometry":{"type":"Polygon","coordinates":[[[4.73214489166555,49.915378997232295],[4.732068608343915,49.913133777679185],[4.728591671129201,49.91318298587093],[4.728439430662375,49.90869252381474],[4.724962792769704,49.908741629088674],[4.724810885084839,49.90425113781892],[4.72828721700514,49.904202036595784],[4.728211120227907,49.9019567835594],[4.731687292482465,49.90190758551533],[4.7316110494533135,49.89966232822843],[4.74551505940727,49.899464555753106],[4.745591914234183,49.90170980488231],[4.749068052788211,49.90166011261122],[4.749222088678755,49.90615058792572],[4.75269852638531,49.90610079270236],[4.752852895391707,49.91059123875824],[4.74937615169833,49.91064103808968],[4.7494531933837445,49.912886253731074],[4.7459762898918205,49.912935956251715],[4.746053185334222,49.91518116764474],[4.73214489166555,49.915378997232295]]]}},{"type":"Feature","properties":{"category":"observed_front","snapshot_index":1,"pass_time_utc":"2026-08-15T12:49:00+00:00","dt_local":"2026-08-15T14:49:00+02:00","area_km2":2.625,"label":"Activité observée","coherence_level":"indisponible","coherence_fraction":0.0,"projection_displayed":false,"model_version":"fire_progression_arrival_v1"},"geometry":{"type":"Polygon","coordinates":[[[4.73214489166555,49.915378997232295],[4.732068608343915,49.913133777679185],[4.728591671129201,49.91318298587093],[4.728439430662375,49.90869252381474],[4.724962792769704,49.908741629088674],[4.724810885084839,49.90425113781892],[4.72828721700514,49.904202036595784],[4.728211120227907,49.9019567835594],[4.731687292482465,49.90190758551533],[4.7316110494533135,49.89966232822843],[4.74551505940727,49.899464555753106],[4.745591914234183,49.90170980488231],[4.749068052788211,49.90166011261122],[4.749222088678755,49.90615058792572],[4.75269852638531,49.90610079270236],[4.752852895391707,49.91059123875824],[4.74937615169833,49.91064103808968],[4.7494531933837445,49.912886253731074],[4.7459762898918205,49.912935956251715],[4.746053185334222,49.91518116764474],[4.73214489166555,49.915378997232295]]]}},{"type":"Feature","properties":{"category":"firms_extent_snapshot","snapshot_index":2,"pass_time_utc":"2026-08-15T13:25:00+00:00","dt_local":"2026-08-15T15:25:00+02:00","label":"Emprise FIRMS cumulée à ce passage","interpretation":"Enveloppe des détections FIRMS, pas une surface brûlée","cumulative":true,"point_count":4,"extent_method":"cumulative_detection_extent_smoothed_landmasked_web_v1","local_cluster_link_m":10000.0,"model_version":"fire_progression_arrival_v1"},"geometry":{"type":"Polygon","coordinates":[[[4.729410040787663,49.90989906014573],[4.729989150335045,49.91120884415049],[4.731619848375347,49.91221671392801],[4.736755848541877,49.91248877785693],[4.740040171662023,49.91401684359178],[4.741767989766642,49.91432860304567],[4.74368091412166,49.91410517243242],[4.745282003212693,49.91330238848798],[4.74644332707505,49.91040973671467],[4.745163439241811,49.90831376242627],[4.741547269262958,49.907211582738746],[4.738894260611784,49.90515073467087],[4.736552265335263,49.90458138378891],[4.733249381362272,49.90544836215097],[4.729899754254922,49.908574151912795],[4.729410040787663,49.90989906014573]]]}},{"type":"Feature","properties":{"category":"historical_support","snapshot_index":2,"pass_time_utc":"2026-08-15T13:25:00+00:00","dt_local":"2026-08-15T15:25:00+02:00","area_km2":2.625,"label":"Isoline temporelle","coherence_level":"indisponible","coherence_fraction":0.0,"projection_displayed":false,"model_version":"fire_progression_arrival_v1"},"geometry":{"type":"Polygon","coordinates":[[[4.73214489166555,49.915378997232295],[4.732068608343915,49.913133777679185],[4.728591671129201,49.91318298587093],[4.728439430662375,49.90869252381474],[4.724962792769704,49.908741629088674],[4.724810885084839,49.90425113781892],[4.72828721700514,49.904202036595784],[4.728211120227907,49.9019567835594],[4.731687292482465,49.90190758551533],[4.7316110494533135,49.89966232822843],[4.74551505940727,49.899464555753106],[4.745591914234183,49.90170980488231],[4.749068052788211,49.90166011261122],[4.749222088678755,49.90615058792572],[4.75269852638531,49.90610079270236],[4.752852895391707,49.91059123875824],[4.74937615169833,49.91064103808968],[4.7494531933837445,49.912886253731074],[4.7459762898918205,49.912935956251715],[4.746053185334222,49.91518116764474],[4.73214489166555,49.915378997232295]]]}},{"type":"Feature","properties":{"category":"observed_front","snapshot_index":2,"pass_time_utc":"2026-08-15T13:25:00+00:00","dt_local":"2026-08-15T15:25:00+02:00","area_km2":2.375,"label":"Activité observée","coherence_level":"indisponible","coherence_fraction":0.0,"projection_displayed":false,"model_version":"fire_progression_arrival_v1"},"geometry":{"type":"Polygon","coordinates":[[[4.73214489166555,49.915378997232295],[4.732068608343915,49.913133777679185],[4.728591671129201,49.91318298587093],[4.728439430662375,49.90869252381474],[4.724962792769704,49.908741629088674],[4.724810885084839,49.90425113781892],[4.72828721700514,49.904202036595784],[4.728211120227907,49.9019567835594],[4.731687292482465,49.90190758551533],[4.7316110494533135,49.89966232822843],[4.742039067034331,49.89951414713379],[4.742115768913139,49.901759398308535],[4.749068052788211,49.90166011261122],[4.7494531933837445,49.912886253731074],[4.742499379628412,49.91298555990712],[4.742576122041959,49.91523077334627],[4.73214489166555,49.915378997232295]]]}},{"type":"Feature","properties":{"category":"historical_support","snapshot_index":3,"pass_time_utc":"2026-08-16T01:00:00+00:00","dt_local":"2026-08-16T03:00:00+02:00","area_km2":3.312,"label":"Isoline temporelle","coherence_level":"indisponible","coherence_fraction":0.0,"projection_displayed":false,"model_version":"fire_progression_arrival_v1"},"geometry":{"type":"Polygon","coordinates":[[[4.735698418279306,49.91757489935769],[4.735621975194158,49.915329688140325],[4.73214489166555,49.915378997232295],[4.732068608343915,49.913133777679185],[4.728591671129201,49.91318298587093],[4.728439430662375,49.90869252381474],[4.724962792769704,49.908741629088674],[4.724810885084839,49.90425113781892],[4.72828721700514,49.904202036595784],[4.728211120227907,49.9019567835594],[4.731687292482465,49.90190758551533],[4.7316110494533135,49.89966232822843],[4.74551505940727,49.899464555753106],[4.745591914234183,49.90170980488231],[4.749068052788211,49.90166011261122],[4.749222088678755,49.90615058792572],[4.756174957296151,49.90605089862654],[4.756406979999294,49.91278655209515],[4.752930090090724,49.91283645234546],[4.753084499884879,49.917326860620186],[4.735698418279306,49.91757489935769]]]}},{"type":"Feature","properties":{"category":"observed_front","snapshot_index":3,"pass_time_utc":"2026-08-16T01:00:00+00:00","dt_local":"2026-08-16T03:00:00+02:00","area_km2":2.438,"label":"Activité observée","coherence_level":"indisponible","coherence_fraction":0.0,"projection_displayed":false,"model_version":"fire_progression_arrival_v1"},"geometry":{"type":"Polygon","coordinates":[[[4.735698418279306,49.91757489935769],[4.735545538840996,49.91308447062113],[4.732068608343915,49.913133777679185],[4.731839798681246,49.90639808124593],[4.735316270164519,49.906348780288994],[4.735163458023825,49.90185828862531],[4.749068052788211,49.90166011261122],[4.749222088678755,49.90615058792572],[4.756174957296151,49.90605089862654],[4.756406979999294,49.91278655209515],[4.752930090090724,49.91283645234546],[4.753084499884879,49.917326860620186],[4.735698418279306,49.91757489935769]]]}},{"type":"Feature","properties":{"category":"historical_support","snapshot_index":4,"pass_time_utc":"2026-08-16T01:37:00+00:00","dt_local":"2026-08-16T03:37:00+02:00","area_km2":3.312,"label":"Isoline temporelle","coherence_level":"indisponible","coherence_fraction":0.0,"projection_displayed":false,"model_version":"fire_progression_arrival_v1"},"geometry":{"type":"Polygon","coordinates":[[[4.735698418279306,49.91757489935769],[4.735621975194158,49.915329688140325],[4.73214489166555,49.915378997232295],[4.732068608343915,49.913133777679185],[4.728591671129201,49.91318298587093],[4.728439430662375,49.90869252381474],[4.724962792769704,49.908741629088674],[4.724810885084839,49.90425113781892],[4.72828721700514,49.904202036595784],[4.728211120227907,49.9019567835594],[4.731687292482465,49.90190758551533],[4.7316110494533135,49.89966232822843],[4.74551505940727,49.899464555753106],[4.745591914234183,49.90170980488231],[4.749068052788211,49.90166011261122],[4.749222088678755,49.90615058792572],[4.756174957296151,49.90605089862654],[4.756406979999294,49.91278655209515],[4.752930090090724,49.91283645234546],[4.753084499884879,49.917326860620186],[4.735698418279306,49.91757489935769]]]}},{"type":"Feature","properties":{"category":"observed_front","snapshot_index":4,"pass_time_utc":"2026-08-16T01:37:00+00:00","dt_local":"2026-08-16T03:37:00+02:00","area_km2":3.0,"label":"Activité observée","coherence_level":"indisponible","coherence_fraction":0.0,"projection_displayed":false,"model_version":"fire_progression_arrival_v1"},"geometry":{"type":"Polygon","coordinates":[[[4.735698418279306,49.91757489935769],[4.735621975194158,49.915329688140325],[4.73214489166555,49.915378997232295],[4.732068608343915,49.913133777679185],[4.728591671129201,49.91318298587093],[4.72828721700514,49.904202036595784],[4.7317635422248125,49.90415283652238],[4.731687292482465,49.90190758551533],[4.738639616838535,49.90180889288962],[4.738563067908724,49.89956363967343],[4.74551505940727,49.899464555753106],[4.745591914234183,49.90170980488231],[4.749068052788211,49.90166011261122],[4.749222088678755,49.90615058792572],[4.756174957296151,49.90605089862654],[4.756406979999294,49.91278655209515],[4.752930090090724,49.91283645234546],[4.753084499884879,49.917326860620186],[4.735698418279306,49.91757489935769]]]}},{"type":"Feature","properties":{"category":"historical_support","snapshot_index":5,"pass_time_utc":"2026-08-16T01:56:00+00:00","dt_local":"2026-08-16T03:56:00+02:00","area_km2":4.188,"label":"Isoline temporelle","coherence_level":"indisponible","coherence_fraction":0.0,"projection_displayed":false,"model_version":"fire_progression_arrival_v1"},"geometry":{"type":"Polygon","coordinates":[[[4.735698418279306,49.91757489935769],[4.735621975194158,49.915329688140325],[4.73214489166555,49.915378997232295],[4.732068608343915,49.913133777679185],[4.728591671129201,49.91318298587093],[4.728439430662375,49.90869252381474],[4.724962792769704,49.908741629088674],[4.724810885084839,49.90425113781892],[4.72828721700514,49.904202036595784],[4.728211120227907,49.9019567835594],[4.731687292482465,49.90190758551533],[4.7316110494533135,49.89966232822843],[4.74551505940727,49.899464555753106],[4.745591914234183,49.90170980488231],[4.756020309541416,49.901560431535536],[4.756097630014647,49.90380566822314],[4.759573901144887,49.903755677357154],[4.75972886847338,49.90824612775195],[4.763205438736404,49.908196033905796],[4.763360739367361,49.912686455001534],[4.759883863095994,49.91273655298043],[4.760038885019939,49.91722695301334],[4.735698418279306,49.91757489935769]]]}},{"type":"Feature","properties":{"category":"observed_front","snapshot_index":5,"pass_time_utc":"2026-08-16T01:56:00+00:00","dt_local":"2026-08-16T03:56:00+02:00","area_km2":3.312,"label":"Activité observée","coherence_level":"indisponible","coherence_fraction":0.0,"projection_displayed":false,"model_version":"fire_progression_arrival_v1"},"geometry":{"type":"Polygon","coordinates":[[[4.739175648120033,49.917525489357516],[4.739099051990784,49.91528028017824],[4.735621975194158,49.915329688140325],[4.735545538840996,49.91308447062113],[4.732068608343915,49.913133777679185],[4.7317635422248125,49.90415283652238],[4.735239860730402,49.90410353759894],[4.735163458023825,49.90185828862531],[4.756020309541416,49.901560431535536],[4.756097630014647,49.90380566822314],[4.759573901144887,49.903755677357154],[4.75972886847338,49.90824612775195],[4.763205438736404,49.908196033905796],[4.763360739367361,49.912686455001534],[4.759883863095994,49.91273655298043],[4.760038885019939,49.91722695301334],[4.739175648120033,49.917525489357516]]]}},{"type":"Feature","properties":{"category":"historical_support","snapshot_index":6,"pass_time_utc":"2026-08-16T02:43:00+00:00","dt_local":"2026-08-16T04:43:00+02:00","area_km2":4.188,"label":"Isoline temporelle","coherence_level":"indisponible","coherence_fraction":0.0,"projection_displayed":false,"model_version":"fire_progression_arrival_v1"},"geometry":{"type":"Polygon","coordinates":[[[4.735698418279306,49.91757489935769],[4.735621975194158,49.915329688140325],[4.73214489166555,49.915378997232295],[4.732068608343915,49.913133777679185],[4.728591671129201,49.91318298587093],[4.728439430662375,49.90869252381474],[4.724962792769704,49.908741629088674],[4.724810885084839,49.90425113781892],[4.72828721700514,49.904202036595784],[4.728211120227907,49.9019567835594],[4.731687292482465,49.90190758551533],[4.7316110494533135,49.89966232822843],[4.74551505940727,49.899464555753106],[4.745591914234183,49.90170980488231],[4.756020309541416,49.901560431535536],[4.756097630014647,49.90380566822314],[4.759573901144887,49.903755677357154],[4.75972886847338,49.90824612775195],[4.763205438736404,49.908196033905796],[4.763360739367361,49.912686455001534],[4.759883863095994,49.91273655298043],[4.760038885019939,49.91722695301334],[4.735698418279306,49.91757489935769]]]}},{"type":"Feature","properties":{"category":"observed_front","snapshot_index":6,"pass_time_utc":"2026-08-16T02:43:00+00:00","dt_local":"2026-08-16T04:43:00+02:00","area_km2":3.5,"label":"Activité observée","coherence_level":"indisponible","coherence_fraction":0.0,"projection_displayed":false,"model_version":"fire_progression_arrival_v1"},"geometry":{"type":"Polygon","coordinates":[[[4.746130087549001,49.91742637273563],[4.746053185334222,49.91518116764474],[4.739099051990784,49.91528028017824],[4.739022462606982,49.91303506469702],[4.732068608343915,49.913133777679185],[4.731992331739909,49.91088855182799],[4.728515547544147,49.910937757990006],[4.728211120227907,49.9019567835594],[4.731687292482465,49.90190758551533],[4.7316110494533135,49.89966232822843],[4.74551505940727,49.899464555753106],[4.745591914234183,49.90170980488231],[4.756020309541416,49.901560431535536],[4.756174957296151,49.90605089862654],[4.759651381397819,49.90600090569853],[4.760038885019939,49.91722695301334],[4.746130087549001,49.91742637273563]]]}},{"type":"Feature","properties":{"category":"firms_extent_snapshot","snapshot_index":7,"pass_time_utc":"2026-08-16T03:17:00+00:00","dt_local":"2026-08-16T05:17:00+02:00","label":"Emprise FIRMS cumulée à ce passage","interpretation":"Enveloppe des détections FIRMS, pas une surface brûlée","cumulative":true,"point_count":26,"extent_method":"cumulative_detection_extent_smoothed_landmasked_web_v1","local_cluster_link_m":10000.0,"model_version":"fire_progression_arrival_v1"},"geometry":{"type":"Polygon","coordinates":[[[4.729410040787663,49.90989906014573],[4.730214201055557,49.911429548574816],[4.733057716486281,49.91285826689204],[4.735029523027623,49.91462417130945],[4.740452259768967,49.9155658371594],[4.744606024879812,49.91802810104447],[4.752180009641059,49.91771480364524],[4.7561408923027955,49.91808007807951],[4.758100780807185,49.91744672287805],[4.759312840020319,49.91621701147861],[4.759392118337379,49.91485585356057],[4.757025697289946,49.909604119371544],[4.755493966473918,49.90874685572713],[4.751163613513191,49.90762095068496],[4.748153152117138,49.90525368454536],[4.746473685923338,49.90462185782235],[4.744366168310921,49.90457042571507],[4.740887105824721,49.90538110960055],[4.736959176320276,49.90460903248822],[4.734562484988461,49.90482812526778],[4.733038677176074,49.90560735856472],[4.730062039297441,49.90839300542058],[4.729410040787663,49.90989906014573]]]}},{"type":"Feature","properties":{"category":"historical_support","snapshot_index":7,"pass_time_utc":"2026-08-16T03:17:00+00:00","dt_local":"2026-08-16T05:17:00+02:00","area_km2":4.188,"label":"Isoline temporelle","coherence_level":"indisponible","coherence_fraction":0.0,"projection_displayed":false,"model_version":"fire_progression_arrival_v1"},"geometry":{"type":"Polygon","coordinates":[[[4.735698418279306,49.91757489935769],[4.735621975194158,49.915329688140325],[4.73214489166555,49.915378997232295],[4.732068608343915,49.913133777679185],[4.728591671129201,49.91318298587093],[4.728439430662375,49.90869252381474],[4.724962792769704,49.908741629088674],[4.724810885084839,49.90425113781892],[4.72828721700514,49.904202036595784],[4.728211120227907,49.9019567835594],[4.731687292482465,49.90190758551533],[4.7316110494533135,49.89966232822843],[4.74551505940727,49.899464555753106],[4.745591914234183,49.90170980488231],[4.756020309541416,49.901560431535536],[4.756097630014647,49.90380566822314],[4.759573901144887,49.903755677357154],[4.75972886847338,49.90824612775195],[4.763205438736404,49.908196033905796],[4.763360739367361,49.912686455001534],[4.759883863095994,49.91273655298043],[4.760038885019939,49.91722695301334],[4.735698418279306,49.91757489935769]]]}},{"type":"Feature","properties":{"category":"observed_front","snapshot_index":7,"pass_time_utc":"2026-08-16T03:17:00+00:00","dt_local":"2026-08-16T05:17:00+02:00","area_km2":2.25,"label":"Activité observée","coherence_level":"indisponible","coherence_fraction":0.0,"projection_displayed":false,"model_version":"fire_progression_arrival_v1"},"geometry":{"type":"Polygon","coordinates":[[[4.739099051990784,49.91528028017824],[4.739022462606982,49.91303506469702],[4.735545538840996,49.91308447062113],[4.7354691092189265,49.91083924680374],[4.731992331739909,49.91088855182799],[4.7317635422248125,49.90415283652238],[4.735239860730402,49.90410353759894],[4.735163458023825,49.90185828862531],[4.738639616838535,49.90180889288962],[4.738563067908724,49.89956363967343],[4.74551505940727,49.899464555753106],[4.745591914234183,49.90170980488231],[4.752544184561774,49.90161032149554],[4.752621352076133,49.90385556024099],[4.756097630014647,49.90380566822314],[4.756329632287575,49.910541340566205],[4.752852895391707,49.91059123875824],[4.752930090090724,49.91283645234546],[4.7494531933837445,49.912886253731074],[4.749530241854106,49.915131463073884],[4.739099051990784,49.91528028017824]]]}}]}