{"type":"FeatureCollection","name":"detection_envelopes","crs":{"type":"name","properties":{"name":"urn:ogc:def:crs:OGC:1.3:CRS84"}},"features":[{"type":"Feature","properties":{"cluster_id":1,"snapshot_index":1,"estimated_time_utc":"2026-09-17T13:04:00Z","observed_until_utc":"2026-09-17T13:04:00Z","target_time_utc":"2026-09-17T13:04:00Z","arrival_h":0.0,"hours_ago":37.03333333333333,"supported_detections_cumulative":7,"sources_cumulative":"VIIRS_SNPP_NRT","last_source":"VIIRS_SNPP_NRT","last_satellite":"N","last_instrument":"VIIRS","detected_area_km2":1.574093691516041,"product_type":"cumulative_active_fire_detection_extent"},"geometry":{"type":"LineString","coordinates":[[-1.148299356729698,44.14071347181289],[-1.149442983065794,44.14345521395487],[-1.147918647743482,44.14548562139858],[-1.135280912017493,44.147495651386905],[-1.133664588701589,44.146890603164586],[-1.132614433794969,44.14576685570252],[-1.132551244062844,44.14375225279595],[-1.131479582189136,44.14223296400667],[-1.131524101929001,44.1404659039171],[-1.13047486423976,44.138995708745675],[-1.130454104267518,44.137684097068615],[-1.131294323618189,44.136520308932454],[-1.132797066775383,44.13577916497851],[-1.135749257176336,44.13574928138788],[-1.137917582208599,44.13492942328889],[-1.139738770125027,44.134914334065115],[-1.141617875783805,44.13570441751825],[-1.143073412255637,44.13731267831183],[-1.145598042076022,44.13742486289185],[-1.147200273600777,44.138048683061044],[-1.148295031085558,44.13935382157073],[-1.148299356729698,44.14071347181289]]}},{"type":"Feature","properties":{"cluster_id":1,"snapshot_index":2,"estimated_time_utc":"2026-09-18T01:41:00Z","observed_until_utc":"2026-09-18T01:41:00Z","target_time_utc":"2026-09-18T07:04:00Z","arrival_h":12.616666666666667,"hours_ago":24.416666666666668,"supported_detections_cumulative":11,"sources_cumulative":"VIIRS_NOAA20_NRT, VIIRS_SNPP_NRT","last_source":"VIIRS_NOAA20_NRT","last_satellite":"N20","last_instrument":"VIIRS","detected_area_km2":1.9797177939563724,"product_type":"cumulative_active_fire_detection_extent"},"geometry":{"type":"LineString","coordinates":[[-1.132532327055848,44.14394008368704],[-1.128036025529627,44.14375301127647],[-1.125974619359094,44.14198556105285],[-1.125968666431497,44.140631098180464],[-1.12716346209716,44.138969662420415],[-1.126698921572861,44.13650112383002],[-1.128744402101233,44.1347242678985],[-1.130898286658973,44.134502027373806],[-1.133465969600014,44.135268032379955],[-1.140091936361839,44.134988301599805],[-1.141659185421834,44.13573702111735],[-1.142967999921607,44.13726752523767],[-1.146233154776903,44.13758675638087],[-1.148065869109553,44.13889755924409],[-1.148271645127454,44.141150410248564],[-1.149442983065794,44.14345521395487],[-1.148736511835117,44.14489262882518],[-1.147286566638483,44.14575549799859],[-1.144054852477892,44.14587171589051],[-1.141872709097875,44.14670056333923],[-1.139225090742568,44.146661753230354],[-1.137395644168146,44.14741581432212],[-1.135581856150408,44.147538014543116],[-1.132957031594564,44.146284080329174],[-1.132532327055848,44.14394008368704]]}},{"type":"Feature","properties":{"cluster_id":1,"snapshot_index":3,"estimated_time_utc":"2026-09-18T13:04:00Z","observed_until_utc":"2026-09-18T13:04:00Z","target_time_utc":"2026-09-18T13:04:00Z","arrival_h":24.0,"hours_ago":13.033333333333333,"supported_detections_cumulative":14,"sources_cumulative":"VIIRS_NOAA20_NRT, VIIRS_SNPP_NRT","last_source":"VIIRS_NOAA20_NRT","last_satellite":"N20","last_instrument":"VIIRS","detected_area_km2":2.102302427532065,"product_type":"cumulative_active_fire_detection_extent"},"geometry":{"type":"LineString","coordinates":[[-1.127356428576062,44.14360426124939],[-1.125565929699307,44.14336297553759],[-1.124144841751174,44.14254237995064],[-1.12349872039718,44.14024101652159],[-1.124626826580785,44.13890097364509],[-1.126814795652821,44.13810646886214],[-1.126625362111261,44.136760657589406],[-1.127524498513478,44.135380213554434],[-1.130834625907986,44.13423344793075],[-1.132563658976726,44.13447695535839],[-1.133887808065169,44.13521300337985],[-1.140091936361839,44.134988301599805],[-1.141617875783805,44.13570441751825],[-1.143073412255637,44.13731267831183],[-1.146867705554823,44.137853501275025],[-1.148205019942968,44.139142758360485],[-1.148271645127454,44.141150410248564],[-1.149444717085175,44.143190330742165],[-1.148905982773028,44.144708623270894],[-1.147286566638483,44.14575549799859],[-1.143940689239242,44.14589046870067],[-1.141512756585308,44.14675523474386],[-1.139225090742568,44.146661753230354],[-1.136315657127611,44.14756655929123],[-1.134530711267536,44.147304368873804],[-1.133164892819552,44.14650262892881],[-1.132338988597894,44.143832175227296],[-1.129397484982671,44.143995248789246],[-1.127356428576062,44.14360426124939]]}},{"type":"Feature","properties":{"cluster_id":1,"snapshot_index":4,"estimated_time_utc":"2026-09-19T02:06:00Z","observed_until_utc":"2026-09-19T02:06:00Z","target_time_utc":"2026-09-19T02:06:00Z","arrival_h":37.03333333333333,"hours_ago":0.0,"supported_detections_cumulative":16,"sources_cumulative":"VIIRS_NOAA20_NRT, VIIRS_NOAA21_NRT, VIIRS_SNPP_NRT","last_source":"VIIRS_NOAA21_NRT","last_satellite":"N21","last_instrument":"VIIRS","detected_area_km2":2.1075099933819197,"product_type":"cumulative_active_fire_detection_extent"},"geometry":{"type":"LineString","coordinates":[[-1.132335341592486,44.14394586710846],[-1.129092244423675,44.143974311918555],[-1.125849578372674,44.14344682407357],[-1.124340100180895,44.142712614201855],[-1.123489535404596,44.14155269850854],[-1.123924767134125,44.13951074296778],[-1.126814795652821,44.13810646886214],[-1.126949899022599,44.1360038201495],[-1.129414379978324,44.13448427790051],[-1.131869124164204,44.13430439728924],[-1.133887808065169,44.13521300337985],[-1.140091936361839,44.134988301599805],[-1.141659185421834,44.13573702111735],[-1.142967999921607,44.13726752523767],[-1.146233154776903,44.13758675638087],[-1.148065869109553,44.13889755924409],[-1.148271645127454,44.141150410248564],[-1.149442983065794,44.14345521395487],[-1.148736511835117,44.14489262882518],[-1.147286566638483,44.14575549799859],[-1.144054852477892,44.14587171589051],[-1.141872709097875,44.14670056333923],[-1.139225090742568,44.146661753230354],[-1.137395644168146,44.14741581432212],[-1.135581856150408,44.147538014543116],[-1.132957031594564,44.146284080329174],[-1.132335341592486,44.14394586710846]]}}],"metadata":{"generated_at_utc":"2026-09-20T00:08:52.126679Z","product_type":"cumulative_active_fire_detection_extent","product_label":"Emprises cumulées des détections actives FIRMS","not_a_burn_perimeter":true,"not_a_continuous_fire_front":true,"not_an_arrival_time_interpolation":true,"snapshot_step_hours":6,"confidence_filter":{"VIIRS":["nominal","high"],"MODIS_minimum":30},"footprint_radius_m":{"VIIRS":300.0,"MODIS":750.0},"same_pass_neighbour_m":2000.0,"continuity_distance_m":3000.0,"clusters":[{"cluster_id":1,"first_supported_detection_utc":"2026-09-17T13:04:00Z","last_supported_detection_utc":"2026-09-19T02:06:00Z","pass_states":4,"published_snapshots":4,"final_detected_area_km2":2.1075099933819197}]},"bbox":[-1.1494447170851751,44.13423344793075,-1.1234895354045962,44.14756655929123]}