{"type":"FeatureCollection","name":"fire_progression_arrival_v1","features":[{"type":"Feature","properties":{"category":"arrival_step","arrival_snapshot_index":1,"first_detected_utc":"2026-09-17T13:04:00+00:00","first_detected_local":"2026-09-17T15:04:00+02:00","area_km2":3.188,"label":"Première détection FIRMS","model_version":"fire_progression_arrival_v1"},"geometry":{"type":"Polygon","coordinates":[[[-1.1457731322066955,44.14816689052882],[-1.145609137218894,44.145919831599635],[-1.1487297909824024,44.14580170589425],[-1.1485656859716844,44.14355465420531],[-1.1516862037803133,44.14343644451497],[-1.1510294215860073,44.13444828138469],[-1.1479093956139128,44.13456647182662],[-1.1477453554380679,44.13231943234289],[-1.1446254394385837,44.13243752919728],[-1.1444615351519585,44.130190487356785],[-1.131982233446291,44.13066196780848],[-1.1321456460101806,44.13290902884403],[-1.1290256653437691,44.13302668181018],[-1.1291889678775504,44.135273750087784],[-1.1260688513610388,44.135391319060915],[-1.1265584675089904,44.142132552934314],[-1.1296789529205855,44.14201496960085],[-1.1300056741659736,44.146509128143144],[-1.1331263926423811,44.14639144643414],[-1.1332898956368391,44.148638524564156],[-1.1457731322066955,44.14816689052882]]]}},{"type":"Feature","properties":{"category":"arrival_step","arrival_snapshot_index":2,"first_detected_utc":"2026-09-18T01:41:00+00:00","first_detected_local":"2026-09-18T03:41:00+02:00","area_km2":1.125,"label":"Première détection FIRMS","model_version":"fire_progression_arrival_v1"},"geometry":{"type":"Polygon","coordinates":[[[-1.129842307087257,44.144262047654195],[-1.1296789529205855,44.14201496960085],[-1.1265584675089904,44.142132552934314],[-1.1260688513610388,44.135391319060915],[-1.1291889678775504,44.135273750087784],[-1.1290256653437691,44.13302668181018],[-1.1321456460101806,44.13290902884403],[-1.131982233446291,44.13066196780848],[-1.138221910162832,44.13042640513073],[-1.1380582646663655,44.12817935614048],[-1.1255793512794845,44.12865010722979],[-1.1257425050796148,44.13089717538547],[-1.122622621551629,44.13101464600977],[-1.122785665307406,44.13326172140381],[-1.1196656459567786,44.13337910803017],[-1.120317457992918,44.14236745321763],[-1.1234379691965455,44.14225004747342],[-1.1236010773929699,44.14449713509752],[-1.129842307087257,44.144262047654195]]]}},{"type":"Feature","properties":{"category":"firms_extent_snapshot","snapshot_index":1,"pass_time_utc":"2026-09-17T13:04:00+00:00","dt_local":"2026-09-17T15:04:00+02:00","label":"Emprise FIRMS cumulée à ce passage","interpretation":"Enveloppe des détections FIRMS, pas une surface brûlée","cumulative":true,"point_count":7,"extent_method":"cumulative_detection_extent_smoothed_landmasked_web_v1","local_cluster_link_m":10000.0,"model_version":"fire_progression_arrival_v1"},"geometry":{"type":"Polygon","coordinates":[[[-1.1494427304985944,44.143168306813294],[-1.1488805476482467,44.144736239921876],[-1.1469747305003328,44.145847942219504],[-1.1392277480912891,44.14683073997151],[-1.1367121818972339,44.14753830316269],[-1.1345586208291116,44.14731349308329],[-1.1325172930345955,44.14553432222961],[-1.1303947776060383,44.13871465882088],[-1.1307070830724921,44.137164031149965],[-1.1331038003409526,44.135709103368285],[-1.1358114675655118,44.135570669073616],[-1.1383838303547544,44.13486478520144],[-1.140460920421129,44.13509645705014],[-1.143252458345351,44.13696032149823],[-1.1462607411289016,44.13759636964711],[-1.1476251237064792,44.13838152007278],[-1.1494427304985944,44.143168306813294]]]}},{"type":"Feature","properties":{"category":"historical_support","snapshot_index":1,"pass_time_utc":"2026-09-17T13:04:00+00:00","dt_local":"2026-09-17T15:04:00+02:00","area_km2":3.188,"label":"Isoline temporelle","coherence_level":"indisponible","coherence_fraction":0.0,"projection_displayed":false,"model_version":"fire_progression_arrival_v1"},"geometry":{"type":"Polygon","coordinates":[[[-1.1457731322066955,44.14816689052882],[-1.145609137218894,44.145919831599635],[-1.1487297909824024,44.14580170589425],[-1.1485656859716844,44.14355465420531],[-1.1516862037803133,44.14343644451497],[-1.1510294215860073,44.13444828138469],[-1.1479093956139128,44.13456647182662],[-1.1477453554380679,44.13231943234289],[-1.1446254394385837,44.13243752919728],[-1.1444615351519585,44.130190487356785],[-1.131982233446291,44.13066196780848],[-1.1321456460101806,44.13290902884403],[-1.1290256653437691,44.13302668181018],[-1.1291889678775504,44.135273750087784],[-1.1260688513610388,44.135391319060915],[-1.1265584675089904,44.142132552934314],[-1.1296789529205855,44.14201496960085],[-1.1300056741659736,44.146509128143144],[-1.1331263926423811,44.14639144643414],[-1.1332898956368391,44.148638524564156],[-1.1457731322066955,44.14816689052882]]]}},{"type":"Feature","properties":{"category":"observed_front","snapshot_index":1,"pass_time_utc":"2026-09-17T13:04:00+00:00","dt_local":"2026-09-17T15:04:00+02:00","area_km2":3.188,"label":"Activité observée","coherence_level":"indisponible","coherence_fraction":0.0,"projection_displayed":false,"model_version":"fire_progression_arrival_v1"},"geometry":{"type":"Polygon","coordinates":[[[-1.1457731322066955,44.14816689052882],[-1.145609137218894,44.145919831599635],[-1.1487297909824024,44.14580170589425],[-1.1485656859716844,44.14355465420531],[-1.1516862037803133,44.14343644451497],[-1.1510294215860073,44.13444828138469],[-1.1479093956139128,44.13456647182662],[-1.1477453554380679,44.13231943234289],[-1.1446254394385837,44.13243752919728],[-1.1444615351519585,44.130190487356785],[-1.131982233446291,44.13066196780848],[-1.1321456460101806,44.13290902884403],[-1.1290256653437691,44.13302668181018],[-1.1291889678775504,44.135273750087784],[-1.1260688513610388,44.135391319060915],[-1.1265584675089904,44.142132552934314],[-1.1296789529205855,44.14201496960085],[-1.1300056741659736,44.146509128143144],[-1.1331263926423811,44.14639144643414],[-1.1332898956368391,44.148638524564156],[-1.1457731322066955,44.14816689052882]]]}},{"type":"Feature","properties":{"category":"firms_extent_snapshot","snapshot_index":2,"pass_time_utc":"2026-09-18T01:41:00+00:00","dt_local":"2026-09-18T03:41:00+02:00","label":"Emprise FIRMS cumulée à ce passage","interpretation":"Enveloppe des détections FIRMS, pas une surface brûlée","cumulative":true,"point_count":11,"extent_method":"cumulative_detection_extent_smoothed_landmasked_web_v1","local_cluster_link_m":10000.0,"model_version":"fire_progression_arrival_v1"},"geometry":{"type":"Polygon","coordinates":[[[-1.1494427304985944,44.143168306813294],[-1.1488805476482467,44.144736239921876],[-1.1470461374418848,44.145827905447106],[-1.1392277480912891,44.14683073997151],[-1.1367121818972339,44.14753830316269],[-1.1346287864948827,44.147335690388594],[-1.1333308801531745,44.14664730009592],[-1.1313492221793733,44.144531461129546],[-1.127750312183745,44.14364633567247],[-1.1262171479359495,44.142461673159914],[-1.1258615752100127,44.14112112046988],[-1.1268267152038587,44.138927618886406],[-1.1269063985373544,44.1360744348981],[-1.1280880213845221,44.13500745291081],[-1.129844235259019,44.13449474787819],[-1.1334423913573826,44.13507857098516],[-1.1403907675802105,44.135074263620815],[-1.143252458345351,44.13696032149823],[-1.1462607411289016,44.13759636964711],[-1.1476251237064792,44.13838152007278],[-1.1494427304985944,44.143168306813294]]]}},{"type":"Feature","properties":{"category":"historical_support","snapshot_index":2,"pass_time_utc":"2026-09-18T01:41:00+00:00","dt_local":"2026-09-18T03:41:00+02:00","area_km2":4.312,"label":"Isoline temporelle","coherence_level":"indisponible","coherence_fraction":0.0,"projection_displayed":false,"model_version":"fire_progression_arrival_v1"},"geometry":{"type":"Polygon","coordinates":[[[-1.1457731322066955,44.14816689052882],[-1.145609137218894,44.145919831599635],[-1.1487297909824024,44.14580170589425],[-1.1485656859716844,44.14355465420531],[-1.1516862037803133,44.14343644451497],[-1.1510294215860073,44.13444828138469],[-1.1479093956139128,44.13456647182662],[-1.1477453554380679,44.13231943234289],[-1.1446254394385837,44.13243752919728],[-1.1444615351519585,44.130190487356785],[-1.138221910162832,44.13042640513073],[-1.1380582646663655,44.12817935614048],[-1.1255793512794845,44.12865010722979],[-1.1257425050796148,44.13089717538547],[-1.122622621551629,44.13101464600977],[-1.122785665307406,44.13326172140381],[-1.1196656459567786,44.13337910803017],[-1.120317457992918,44.14236745321763],[-1.1234379691965455,44.14225004747342],[-1.1236010773929699,44.14449713509752],[-1.129842307087257,44.144262047654195],[-1.1300056741659736,44.146509128143144],[-1.1331263926423811,44.14639144643414],[-1.1332898956368391,44.148638524564156],[-1.1457731322066955,44.14816689052882]]]}},{"type":"Feature","properties":{"category":"observed_front","snapshot_index":2,"pass_time_utc":"2026-09-18T01:41:00+00:00","dt_local":"2026-09-18T03:41:00+02:00","area_km2":2.688,"label":"Activité observée","coherence_level":"indisponible","coherence_fraction":0.0,"projection_displayed":false,"model_version":"fire_progression_arrival_v1"},"geometry":{"type":"Polygon","coordinates":[[[-1.1392040547641809,44.143908750510285],[-1.1390403316536117,44.14166168684011],[-1.1421607653651464,44.141543748334975],[-1.1413417291281522,44.130308490630505],[-1.138221910162832,44.13042640513073],[-1.1380582646663655,44.12817935614048],[-1.1255793512794845,44.12865010722979],[-1.1257425050796148,44.13089717538547],[-1.122622621551629,44.13101464600977],[-1.122785665307406,44.13326172140381],[-1.1196656459567786,44.13337910803017],[-1.120317457992918,44.14236745321763],[-1.1234379691965455,44.14225004747342],[-1.1236010773929699,44.14449713509752],[-1.1392040547641809,44.143908750510285]]]}},{"type":"Feature","properties":{"category":"historical_support","snapshot_index":3,"pass_time_utc":"2026-09-18T12:46:00+00:00","dt_local":"2026-09-18T14:46:00+02:00","area_km2":4.312,"label":"Isoline temporelle","coherence_level":"indisponible","coherence_fraction":0.0,"projection_displayed":false,"model_version":"fire_progression_arrival_v1"},"geometry":{"type":"Polygon","coordinates":[[[-1.1457731322066955,44.14816689052882],[-1.145609137218894,44.145919831599635],[-1.1487297909824024,44.14580170589425],[-1.1485656859716844,44.14355465420531],[-1.1516862037803133,44.14343644451497],[-1.1510294215860073,44.13444828138469],[-1.1479093956139128,44.13456647182662],[-1.1477453554380679,44.13231943234289],[-1.1446254394385837,44.13243752919728],[-1.1444615351519585,44.130190487356785],[-1.138221910162832,44.13042640513073],[-1.1380582646663655,44.12817935614048],[-1.1255793512794845,44.12865010722979],[-1.1257425050796148,44.13089717538547],[-1.122622621551629,44.13101464600977],[-1.122785665307406,44.13326172140381],[-1.1196656459567786,44.13337910803017],[-1.120317457992918,44.14236745321763],[-1.1234379691965455,44.14225004747342],[-1.1236010773929699,44.14449713509752],[-1.129842307087257,44.144262047654195],[-1.1300056741659736,44.146509128143144],[-1.1331263926423811,44.14639144643414],[-1.1332898956368391,44.148638524564156],[-1.1457731322066955,44.14816689052882]]]}},{"type":"Feature","properties":{"category":"observed_front","snapshot_index":3,"pass_time_utc":"2026-09-18T12:46:00+00:00","dt_local":"2026-09-18T14:46:00+02:00","area_km2":2.0,"label":"Activité observée","coherence_level":"indisponible","coherence_fraction":0.0,"projection_displayed":false,"model_version":"fire_progression_arrival_v1"},"geometry":{"type":"Polygon","coordinates":[[[-1.1329629025711672,44.14414437073617],[-1.1327994254216658,44.14189729747362],[-1.1359198850025627,44.141779536553194],[-1.1357562978016098,44.13953247052354],[-1.1388766214825568,44.13941462560827],[-1.1383855685911533,44.13267345657597],[-1.1352656137625294,44.13279128709912],[-1.1351020782656587,44.130544230856906],[-1.131982233446291,44.13066196780848],[-1.131818833794934,44.128414909228304],[-1.1255793512794845,44.12865010722979],[-1.1257425050796148,44.13089717538547],[-1.122622621551629,44.13101464600977],[-1.122785665307406,44.13326172140381],[-1.1196656459567786,44.13337910803017],[-1.120317457992918,44.14236745321763],[-1.1234379691965455,44.14225004747342],[-1.1236010773929699,44.14449713509752],[-1.1329629025711672,44.14414437073617]]]}},{"type":"Feature","properties":{"category":"firms_extent_snapshot","snapshot_index":4,"pass_time_utc":"2026-09-18T13:04:00+00:00","dt_local":"2026-09-18T15:04:00+02:00","label":"Emprise FIRMS cumulée à ce passage","interpretation":"Enveloppe des détections FIRMS, pas une surface brûlée","cumulative":true,"point_count":14,"extent_method":"cumulative_detection_extent_smoothed_landmasked_web_v1","local_cluster_link_m":10000.0,"model_version":"fire_progression_arrival_v1"},"geometry":{"type":"Polygon","coordinates":[[[-1.1494427304985944,44.143168306813294],[-1.1489213236228395,44.14468951634467],[-1.1472441094201553,44.145768284429195],[-1.1356122425376869,44.14754091200381],[-1.133586387417352,44.14683771357558],[-1.130948284185175,44.14434103195028],[-1.1248464059263867,44.14304898420911],[-1.1236331109529616,44.14187864891596],[-1.123421113268803,44.14052242749158],[-1.124112783845518,44.139309170588575],[-1.1261608406427996,44.13778708967582],[-1.1273128921977404,44.13556926183164],[-1.129386884235289,44.13449402265506],[-1.131171786640123,44.13423401820152],[-1.134416841724006,44.13496271118677],[-1.1394075098867251,44.134869086219574],[-1.1410922818410396,44.13536692590999],[-1.143252458345351,44.13696032149823],[-1.1474381880319469,44.13822075362907],[-1.1482815216414668,44.13932214396646],[-1.1494427304985944,44.143168306813294]]]}},{"type":"Feature","properties":{"category":"historical_support","snapshot_index":4,"pass_time_utc":"2026-09-18T13:04:00+00:00","dt_local":"2026-09-18T15:04:00+02:00","area_km2":4.312,"label":"Isoline temporelle","coherence_level":"indisponible","coherence_fraction":0.0,"projection_displayed":false,"model_version":"fire_progression_arrival_v1"},"geometry":{"type":"Polygon","coordinates":[[[-1.1457731322066955,44.14816689052882],[-1.145609137218894,44.145919831599635],[-1.1487297909824024,44.14580170589425],[-1.1485656859716844,44.14355465420531],[-1.1516862037803133,44.14343644451497],[-1.1510294215860073,44.13444828138469],[-1.1479093956139128,44.13456647182662],[-1.1477453554380679,44.13231943234289],[-1.1446254394385837,44.13243752919728],[-1.1444615351519585,44.130190487356785],[-1.138221910162832,44.13042640513073],[-1.1380582646663655,44.12817935614048],[-1.1255793512794845,44.12865010722979],[-1.1257425050796148,44.13089717538547],[-1.122622621551629,44.13101464600977],[-1.122785665307406,44.13326172140381],[-1.1196656459567786,44.13337910803017],[-1.120317457992918,44.14236745321763],[-1.1234379691965455,44.14225004747342],[-1.1236010773929699,44.14449713509752],[-1.129842307087257,44.144262047654195],[-1.1300056741659736,44.146509128143144],[-1.1331263926423811,44.14639144643414],[-1.1332898956368391,44.148638524564156],[-1.1457731322066955,44.14816689052882]]]}},{"type":"Feature","properties":{"category":"observed_front","snapshot_index":4,"pass_time_utc":"2026-09-18T13:04:00+00:00","dt_local":"2026-09-18T15:04:00+02:00","area_km2":2.562,"label":"Activité observée","coherence_level":"indisponible","coherence_fraction":0.0,"projection_displayed":false,"model_version":"fire_progression_arrival_v1"},"geometry":{"type":"Polygon","coordinates":[[[-1.1331263926423811,44.14639144643414],[-1.1329629025711672,44.14414437073617],[-1.1392040547641809,44.143908750510285],[-1.1388766214825568,44.13941462560827],[-1.1419969322255217,44.139296691904505],[-1.1415055104863916,44.13255553727516],[-1.1383855685911533,44.13267345657597],[-1.138221910162832,44.13042640513073],[-1.1351020782656587,44.130544230856906],[-1.1349385556909817,44.128297177069896],[-1.1255793512794845,44.12865010722979],[-1.1257425050796148,44.13089717538547],[-1.122622621551629,44.13101464600977],[-1.122785665307406,44.13326172140381],[-1.1196656459567786,44.13337910803017],[-1.120317457992918,44.14236745321763],[-1.1234379691965455,44.14225004747342],[-1.1236010773929699,44.14449713509752],[-1.129842307087257,44.144262047654195],[-1.1300056741659736,44.146509128143144],[-1.1331263926423811,44.14639144643414]]]}},{"type":"Feature","properties":{"category":"firms_extent_snapshot","snapshot_index":5,"pass_time_utc":"2026-09-19T02:06:00+00:00","dt_local":"2026-09-19T04:06:00+02:00","label":"Emprise FIRMS cumulée à ce passage","interpretation":"Enveloppe des détections FIRMS, pas une surface brûlée","cumulative":true,"point_count":16,"extent_method":"cumulative_detection_extent_smoothed_landmasked_web_v1","local_cluster_link_m":10000.0,"model_version":"fire_progression_arrival_v1"},"geometry":{"type":"Polygon","coordinates":[[[-1.1494427304985944,44.143168306813294],[-1.1489213236228395,44.14468951634467],[-1.1472441094201553,44.145768284429195],[-1.1356122425376869,44.14754091200381],[-1.133586387417352,44.14683771357558],[-1.130948284185175,44.14434103195028],[-1.1248464059263867,44.14304898420911],[-1.1236331109529616,44.14187864891596],[-1.123421113268803,44.14052242749158],[-1.124112783845518,44.139309170588575],[-1.1261608406427996,44.13778708967582],[-1.1273128921977404,44.13556926183164],[-1.129386884235289,44.13449402265506],[-1.131171786640123,44.13423401820152],[-1.134416841724006,44.13496271118677],[-1.1394075098867251,44.134869086219574],[-1.1410922818410396,44.13536692590999],[-1.143252458345351,44.13696032149823],[-1.1474381880319469,44.13822075362907],[-1.1482815216414668,44.13932214396646],[-1.1494427304985944,44.143168306813294]]]}},{"type":"Feature","properties":{"category":"historical_support","snapshot_index":5,"pass_time_utc":"2026-09-19T02:06:00+00:00","dt_local":"2026-09-19T04:06:00+02:00","area_km2":4.312,"label":"Isoline temporelle","coherence_level":"indisponible","coherence_fraction":0.0,"projection_displayed":false,"model_version":"fire_progression_arrival_v1"},"geometry":{"type":"Polygon","coordinates":[[[-1.1457731322066955,44.14816689052882],[-1.145609137218894,44.145919831599635],[-1.1487297909824024,44.14580170589425],[-1.1485656859716844,44.14355465420531],[-1.1516862037803133,44.14343644451497],[-1.1510294215860073,44.13444828138469],[-1.1479093956139128,44.13456647182662],[-1.1477453554380679,44.13231943234289],[-1.1446254394385837,44.13243752919728],[-1.1444615351519585,44.130190487356785],[-1.138221910162832,44.13042640513073],[-1.1380582646663655,44.12817935614048],[-1.1255793512794845,44.12865010722979],[-1.1257425050796148,44.13089717538547],[-1.122622621551629,44.13101464600977],[-1.122785665307406,44.13326172140381],[-1.1196656459567786,44.13337910803017],[-1.120317457992918,44.14236745321763],[-1.1234379691965455,44.14225004747342],[-1.1236010773929699,44.14449713509752],[-1.129842307087257,44.144262047654195],[-1.1300056741659736,44.146509128143144],[-1.1331263926423811,44.14639144643414],[-1.1332898956368391,44.148638524564156],[-1.1457731322066955,44.14816689052882]]]}},{"type":"Feature","properties":{"category":"observed_front","snapshot_index":5,"pass_time_utc":"2026-09-19T02:06:00+00:00","dt_local":"2026-09-19T04:06:00+02:00","area_km2":2.5,"label":"Activité observée","coherence_level":"indisponible","coherence_fraction":0.0,"projection_displayed":false,"model_version":"fire_progression_arrival_v1"},"geometry":{"type":"Polygon","coordinates":[[[-1.1331263926423811,44.14639144643414],[-1.1329629025711672,44.14414437073617],[-1.1392040547641809,44.143908750510285],[-1.1390403316536117,44.14166168684011],[-1.1421607653651464,44.141543748334975],[-1.1415055104863916,44.13255553727516],[-1.1383855685911533,44.13267345657597],[-1.138221910162832,44.13042640513073],[-1.131982233446291,44.13066196780848],[-1.131818833794934,44.128414909228304],[-1.1286990989878811,44.12853255261512],[-1.1288623757143887,44.130779615984856],[-1.122622621551629,44.13101464600977],[-1.122785665307406,44.13326172140381],[-1.1196656459567786,44.13337910803017],[-1.120317457992918,44.14236745321763],[-1.1234379691965455,44.14225004747342],[-1.1236010773929699,44.14449713509752],[-1.129842307087257,44.144262047654195],[-1.1300056741659736,44.146509128143144],[-1.1331263926423811,44.14639144643414]]]}}]}