{"type":"FeatureCollection","name":"detection_envelopes","crs":{"type":"name","properties":{"name":"urn:ogc:def:crs:OGC:1.3:CRS84"}},"features":[{"type":"Feature","properties":{"cluster_id":1,"snapshot_index":1,"estimated_time_utc":"2026-08-12T01:11:00Z","observed_until_utc":"2026-08-12T01:11:00Z","target_time_utc":"2026-08-12T01:11:00Z","arrival_h":0.0,"hours_ago":2.033333333333333,"supported_detections_cumulative":8,"sources_cumulative":"VIIRS_SNPP_NRT","last_source":"VIIRS_SNPP_NRT","last_satellite":"N","last_instrument":"VIIRS","detected_area_km2":1.6010110038887737,"product_type":"cumulative_active_fire_detection_extent"},"geometry":{"type":"LineString","coordinates":[[-0.064952519856686,47.449512643299016],[-0.065112001252872,47.45021841210747],[-0.067248594409095,47.451760994710334],[-0.067478705133762,47.45353140308414],[-0.066519220838602,47.454719489742324],[-0.061931362414442,47.45736812061304],[-0.059684560138184,47.45742721814361],[-0.057295536763722,47.456703434911226],[-0.054775244106554,47.45736119834966],[-0.052789662989172,47.457214388626035],[-0.050174242510888,47.455387014208206],[-0.047912649634318,47.45454607954176],[-0.04686830198251,47.453441881747416],[-0.046714708611929,47.452134153147206],[-0.047448767163551,47.450966905070864],[-0.050353710569908,47.44966875490184],[-0.051418878767948,47.4470870110233],[-0.056289098827585,47.444171819122964],[-0.059327794735188,47.44431143823426],[-0.061566432594061,47.44600139132496],[-0.063788809578758,47.446813626467446],[-0.064881142624257,47.44794765502705],[-0.064952519856686,47.449512643299016]]}},{"type":"Feature","properties":{"cluster_id":1,"snapshot_index":2,"estimated_time_utc":"2026-08-12T03:13:00Z","observed_until_utc":"2026-08-12T03:13:00Z","target_time_utc":"2026-08-12T03:13:00Z","arrival_h":2.033333333333333,"hours_ago":0.0,"supported_detections_cumulative":23,"sources_cumulative":"VIIRS_NOAA20_NRT, VIIRS_NOAA21_NRT, VIIRS_SNPP_NRT","last_source":"VIIRS_NOAA20_NRT","last_satellite":"N20","last_instrument":"VIIRS","detected_area_km2":7.354821488996357,"product_type":"cumulative_active_fire_detection_extent"},"geometry":{"type":"MultiLineString","coordinates":[[[-0.065112001252872,47.45021841210747],[-0.067221373383694,47.451720898570855],[-0.067462245921862,47.453574111178966],[-0.066519220838602,47.454719489742324],[-0.064440846628791,47.45571687487033],[-0.06308346744726,47.45769717297619],[-0.061411362977188,47.458438125025864],[-0.058430407182778,47.45831784696352],[-0.056346681397259,47.456960684678606],[-0.05471076633554,47.45736722095373],[-0.052789662989172,47.457214388626035],[-0.050789034718465,47.45608045361893],[-0.048121727603392,47.455554598194546],[-0.04672824268657,47.45425187688857],[-0.047265070152272,47.451149214357606],[-0.050353710569908,47.44966875490184],[-0.051418878767948,47.4470870110233],[-0.056289098827585,47.444171819122964],[-0.059327794735188,47.44431143823426],[-0.061566432594061,47.44600139132496],[-0.063836573850604,47.446843606120645],[-0.06497243472795,47.44815961626324],[-0.065112001252872,47.45021841210747]],[[-0.06238897639014,47.47356768953779],[-0.064796054732618,47.474690465964],[-0.066618879712821,47.476238609265664],[-0.067869222127894,47.47868648770496],[-0.067848868898098,47.48066736396796],[-0.065965928592871,47.48368916337342],[-0.062043319664227,47.485928905407796],[-0.06086186040271,47.488789396685746],[-0.058476386063179,47.490923037315284],[-0.055177921097588,47.49223168647897],[-0.052242294103245,47.49260595911828],[-0.048467654472056,47.492199082872055],[-0.045733716335643,47.491160950838506],[-0.044929881082914,47.4914811034457],[-0.045631129931561,47.49292803088237],[-0.045061489928692,47.49440329925322],[-0.043689569488705,47.49532872585516],[-0.041835931794768,47.49570654947995],[-0.039217708246174,47.495147707494546],[-0.037751129935015,47.49355260003706],[-0.035678984900477,47.49343945038662],[-0.030659005223526,47.49177482023262],[-0.029682561567719,47.48986075470172],[-0.031053564014171,47.48725388768794],[-0.02883613068923,47.48603385331906],[-0.028445983626141,47.48398473825519],[-0.030771918077877,47.480305954733],[-0.032880061697145,47.47966271676804],[-0.035241049753302,47.4799286318745],[-0.03587035642532,47.47877265158054],[-0.035866396649539,47.47531930552005],[-0.03702191009233,47.47349988140335],[-0.038906548838268,47.47198619559014],[-0.042265689297855,47.47066356317085],[-0.046115535098672,47.47031310359289],[-0.050669914964581,47.4712853254696],[-0.053925814953831,47.47347554539055],[-0.058568999517017,47.4728904222782],[-0.06238897639014,47.47356768953779]]]}}],"metadata":{"generated_at_utc":"2026-08-16T03:12:26.793078Z","product_type":"cumulative_active_fire_detection_extent","product_label":"Emprises cumulées des détections actives FIRMS","not_a_burn_perimeter":true,"not_a_continuous_fire_front":true,"not_an_arrival_time_interpolation":true,"snapshot_step_hours":6,"confidence_filter":{"VIIRS":["nominal","high"],"MODIS_minimum":30},"footprint_radius_m":{"VIIRS":300.0,"MODIS":750.0},"same_pass_neighbour_m":2000.0,"continuity_distance_m":3000.0,"clusters":[{"cluster_id":1,"first_supported_detection_utc":"2026-08-12T01:11:00Z","last_supported_detection_utc":"2026-08-12T03:13:00Z","pass_states":5,"published_snapshots":2,"final_detected_area_km2":2.1984678207247828}]},"bbox":[-0.06786922212789358,47.444171819122964,-0.02844598362614076,47.49570654947995]}