{"type":"FeatureCollection","name":"fire_progression_arrival_v1","features":[{"type":"Feature","properties":{"category":"arrival_step","arrival_snapshot_index":1,"first_detected_utc":"2026-08-11T00:56:00+00:00","first_detected_local":"2026-08-11T02:56:00+02:00","area_km2":3.125,"label":"Première détection FIRMS","model_version":"fire_progression_arrival_v1"},"geometry":{"type":"Polygon","coordinates":[[[-0.04222804899924383,47.49340530035979],[-0.042100159700943864,47.491156562809074],[-0.04873570785398633,47.49098301867965],[-0.04847940475990623,47.48648555019807],[-0.051796884323300235,47.48639864351894],[-0.0512838507434631,47.47740369050975],[-0.04796692776813738,47.47749058295386],[-0.04783883542820014,47.47524183485483],[-0.031254754966654544,47.47567486235349],[-0.03138215169688747,47.47792362818634],[-0.028065164325290947,47.47800995383208],[-0.028319711610888462,47.48250748503248],[-0.025002435257728165,47.48259372327337],[-0.025256746985518212,47.487091251466545],[-0.028574301674950422,47.4870050061619],[-0.02882893452825731,47.49150251719215],[-0.03214675690059651,47.49141617033198],[-0.032274228584190164,47.49366491851479],[-0.04222804899924383,47.49340530035979]]]}},{"type":"Feature","properties":{"category":"arrival_step","arrival_snapshot_index":5,"first_detected_utc":"2026-08-11T03:30:00+00:00","first_detected_local":"2026-08-11T05:30:00+02:00","area_km2":0.812,"label":"Première détection FIRMS","model_version":"fire_progression_arrival_v1"},"geometry":{"type":"Polygon","coordinates":[[[-0.04567400691729502,47.49556730345054],[-0.04554596765712239,47.493318571987764],[-0.04886387555532362,47.49323174912298],[-0.04873570785398633,47.49098301867965],[-0.042100159700943864,47.491156562809074],[-0.04222804899924383,47.49340530035979],[-0.032274228584190164,47.49366491851479],[-0.03214675690059651,47.49141617033198],[-0.02882893452825731,47.49150251719215],[-0.028574301674950422,47.4870050061619],[-0.025256746985518212,47.487091251466545],[-0.025129585779471112,47.484842488630505],[-0.02181215957970026,47.484928635923204],[-0.022066214315160714,47.489426166127],[-0.025383918877216433,47.48934001177795],[-0.025638294722948537,47.49383752481278],[-0.028956267004247103,47.49375126891128],[-0.029083610181591606,47.49600001809505],[-0.04567400691729502,47.49556730345054]]]}},{"type":"Feature","properties":{"category":"arrival_step","arrival_snapshot_index":6,"first_detected_utc":"2026-08-11T12:21:00+00:00","first_detected_local":"2026-08-11T14:21:00+02:00","area_km2":0.75,"label":"Première détection FIRMS","model_version":"fire_progression_arrival_v1"},"geometry":{"type":"Polygon","coordinates":[[[-0.028319711610888462,47.48250748503248],[-0.028065164325290947,47.47800995383208],[-0.03138215169688747,47.47792362818634],[-0.031254754966654544,47.47567486235349],[-0.04783883542820014,47.47524183485483],[-0.04771075384875287,47.47299308424764],[-0.041077432080563164,47.47316657152971],[-0.04094963945347264,47.470917811313434],[-0.034316552940574716,47.47109091367271],[-0.034444067369037004,47.47333968097797],[-0.027810659807382152,47.473512412588896],[-0.02793790672104924,47.47576118446407],[-0.02462104778486773,47.47584741211053],[-0.025002435257728165,47.48259372327337],[-0.028319711610888462,47.48250748503248]]]}},{"type":"Feature","properties":{"category":"arrival_step","arrival_snapshot_index":9,"first_detected_utc":"2026-08-11T14:50:00+00:00","first_detected_local":"2026-08-11T16:50:00+02:00","area_km2":1.875,"label":"Première détection FIRMS","model_version":"fire_progression_arrival_v1"},"geometry":{"type":"Polygon","coordinates":[[[-0.05856037478877734,47.488473271536655],[-0.05830325821675457,47.48397581937766],[-0.061620566247961986,47.48388863282963],[-0.061234554981833424,47.47714244639022],[-0.057917664361963675,47.477229622227476],[-0.057532167678419496,47.47048340246782],[-0.05421568357228892,47.470570473143425],[-0.05408734534525516,47.468321724650075],[-0.0375054587528215,47.468755643457264],[-0.03763310155844018,47.47100440972059],[-0.04094963945347264,47.470917811313434],[-0.041077432080563164,47.47316657152971],[-0.04771075384875287,47.47299308424764],[-0.04796692776813738,47.47749058295386],[-0.0512838507434631,47.47740369050975],[-0.051796884323300235,47.48639864351894],[-0.04847940475990623,47.48648555019807],[-0.04860755092263297,47.4887342857035],[-0.05856037478877734,47.488473271536655]]]}},{"type":"Feature","properties":{"category":"arrival_step","arrival_snapshot_index":10,"first_detected_utc":"2026-08-12T01:11:00+00:00","first_detected_local":"2026-08-12T03:11:00+02:00","area_km2":0.875,"label":"Première détection FIRMS","model_version":"fire_progression_arrival_v1"},"geometry":{"type":"Polygon","coordinates":[[[-0.06352143431582857,47.45906526388614],[-0.06339273291191219,47.45681651364435],[-0.06670835032277928,47.45672918107359],[-0.06657952072043698,47.4544804319272],[-0.0632640423158494,47.45456776092179],[-0.06313536252627973,47.45231900572198],[-0.05318927951218905,47.452580415452594],[-0.05306102748492278,47.45033164707464],[-0.04643052958324909,47.45050544100262],[-0.046686488428271375,47.45500298951952],[-0.05000202074894445,47.454916132651505],[-0.050130155306300654,47.45716489964018],[-0.05676146567825646,47.456990895500624],[-0.05688988904225588,47.45923965288351],[-0.06352143431582857,47.45906526388614]]]}},{"type":"Feature","properties":{"category":"arrival_step","arrival_snapshot_index":11,"first_detected_utc":"2026-08-12T01:32:00+00:00","first_detected_local":"2026-08-12T03:32:00+02:00","area_km2":1.812,"label":"Première détection FIRMS","model_version":"fire_progression_arrival_v1"},"geometry":{"type":"Polygon","coordinates":[[[-0.06657952072043698,47.4544804319272],[-0.06593553495345063,47.443236649104406],[-0.059305957058303715,47.44341117693162],[-0.05917747021863153,47.441162405827],[-0.05254812705097647,47.44133654890086],[-0.052676336010906016,47.44358532713655],[-0.04604667190430467,47.443759099715614],[-0.04617461372061053,47.44600788260815],[-0.04285962659294463,47.446094630839056],[-0.043370945359295414,47.45508975196087],[-0.046686488428271375,47.45500298951952],[-0.04643052958324909,47.45050544100262],[-0.05306102748492278,47.45033164707464],[-0.05318927951218905,47.452580415452594],[-0.06313536252627973,47.45231900572198],[-0.0632640423158494,47.45456776092179],[-0.06657952072043698,47.4544804319272]]]}},{"type":"Feature","properties":{"category":"arrival_step","arrival_snapshot_index":12,"first_detected_utc":"2026-08-12T02:15:00+00:00","first_detected_local":"2026-08-12T04:15:00+02:00","area_km2":0.25,"label":"Première détection FIRMS","model_version":"fire_progression_arrival_v1"},"geometry":{"type":"Polygon","coordinates":[[[-0.06976603052940523,47.4521442604647],[-0.06925030768985477,47.44314924358356],[-0.06593553495345063,47.443236649104406],[-0.06645070193622622,47.45223168030339],[-0.06976603052940523,47.4521442604647]]]}},{"type":"Feature","properties":{"category":"firms_extent_snapshot","snapshot_index":1,"pass_time_utc":"2026-08-11T00:56:00+00:00","dt_local":"2026-08-11T02:56:00+02:00","label":"Emprise FIRMS cumulée à ce passage","interpretation":"Enveloppe des détections FIRMS, pas une surface brûlée","cumulative":true,"point_count":6,"extent_method":"cumulative_detection_extent_smoothed_landmasked_web_v1","local_cluster_link_m":10000.0,"model_version":"fire_progression_arrival_v1"},"geometry":{"type":"Polygon","coordinates":[[[-0.04858883804949328,47.48443588513003],[-0.04822523542886381,47.48566938716283],[-0.047190696583197946,47.48659448496585],[-0.04307667835584119,47.48752411939105],[-0.041552566556987004,47.48843741621382],[-0.040859937810976826,47.49163658722017],[-0.03961071227576036,47.49295464671217],[-0.0367923352138004,47.49359432208549],[-0.03399845046127858,47.49264906470297],[-0.03196078175555717,47.489323682579716],[-0.03321045178126005,47.4862837780413],[-0.0317422913531087,47.48261381500089],[-0.03312992556743465,47.480775257077305],[-0.03555696990603296,47.48013284765495],[-0.039469507935012686,47.48085135006229],[-0.042977351146365896,47.48021603907775],[-0.0449007747073367,47.48035835488324],[-0.04695650778226954,47.48152679736521],[-0.04858883804949328,47.48443588513003]]]}},{"type":"Feature","properties":{"category":"historical_support","snapshot_index":1,"pass_time_utc":"2026-08-11T00:56:00+00:00","dt_local":"2026-08-11T02:56:00+02:00","area_km2":3.125,"label":"Isoline temporelle","coherence_level":"indisponible","coherence_fraction":0.0,"projection_displayed":false,"model_version":"fire_progression_arrival_v1"},"geometry":{"type":"Polygon","coordinates":[[[-0.04222804899924383,47.49340530035979],[-0.042100159700943864,47.491156562809074],[-0.04873570785398633,47.49098301867965],[-0.04847940475990623,47.48648555019807],[-0.051796884323300235,47.48639864351894],[-0.0512838507434631,47.47740369050975],[-0.04796692776813738,47.47749058295386],[-0.04783883542820014,47.47524183485483],[-0.031254754966654544,47.47567486235349],[-0.03138215169688747,47.47792362818634],[-0.028065164325290947,47.47800995383208],[-0.028319711610888462,47.48250748503248],[-0.025002435257728165,47.48259372327337],[-0.025256746985518212,47.487091251466545],[-0.028574301674950422,47.4870050061619],[-0.02882893452825731,47.49150251719215],[-0.03214675690059651,47.49141617033198],[-0.032274228584190164,47.49366491851479],[-0.04222804899924383,47.49340530035979]]]}},{"type":"Feature","properties":{"category":"observed_front","snapshot_index":1,"pass_time_utc":"2026-08-11T00:56:00+00:00","dt_local":"2026-08-11T02:56:00+02:00","area_km2":3.125,"label":"Activité observée","coherence_level":"indisponible","coherence_fraction":0.0,"projection_displayed":false,"model_version":"fire_progression_arrival_v1"},"geometry":{"type":"Polygon","coordinates":[[[-0.04222804899924383,47.49340530035979],[-0.042100159700943864,47.491156562809074],[-0.04873570785398633,47.49098301867965],[-0.04847940475990623,47.48648555019807],[-0.051796884323300235,47.48639864351894],[-0.0512838507434631,47.47740369050975],[-0.04796692776813738,47.47749058295386],[-0.04783883542820014,47.47524183485483],[-0.031254754966654544,47.47567486235349],[-0.03138215169688747,47.47792362818634],[-0.028065164325290947,47.47800995383208],[-0.028319711610888462,47.48250748503248],[-0.025002435257728165,47.48259372327337],[-0.025256746985518212,47.487091251466545],[-0.028574301674950422,47.4870050061619],[-0.02882893452825731,47.49150251719215],[-0.03214675690059651,47.49141617033198],[-0.032274228584190164,47.49366491851479],[-0.04222804899924383,47.49340530035979]]]}},{"type":"Feature","properties":{"category":"historical_support","snapshot_index":2,"pass_time_utc":"2026-08-11T01:32:00+00:00","dt_local":"2026-08-11T03:32:00+02:00","area_km2":3.125,"label":"Isoline temporelle","coherence_level":"indisponible","coherence_fraction":0.0,"projection_displayed":false,"model_version":"fire_progression_arrival_v1"},"geometry":{"type":"Polygon","coordinates":[[[-0.04222804899924383,47.49340530035979],[-0.042100159700943864,47.491156562809074],[-0.04873570785398633,47.49098301867965],[-0.04847940475990623,47.48648555019807],[-0.051796884323300235,47.48639864351894],[-0.0512838507434631,47.47740369050975],[-0.04796692776813738,47.47749058295386],[-0.04783883542820014,47.47524183485483],[-0.031254754966654544,47.47567486235349],[-0.03138215169688747,47.47792362818634],[-0.028065164325290947,47.47800995383208],[-0.028319711610888462,47.48250748503248],[-0.025002435257728165,47.48259372327337],[-0.025256746985518212,47.487091251466545],[-0.028574301674950422,47.4870050061619],[-0.02882893452825731,47.49150251719215],[-0.03214675690059651,47.49141617033198],[-0.032274228584190164,47.49366491851479],[-0.04222804899924383,47.49340530035979]]]}},{"type":"Feature","properties":{"category":"observed_front","snapshot_index":2,"pass_time_utc":"2026-08-11T01:32:00+00:00","dt_local":"2026-08-11T03:32:00+02:00","area_km2":2.688,"label":"Activité observée","coherence_level":"indisponible","coherence_fraction":0.0,"projection_displayed":false,"model_version":"fire_progression_arrival_v1"},"geometry":{"type":"Polygon","coordinates":[[[-0.04222804899924383,47.49340530035979],[-0.042100159700943864,47.491156562809074],[-0.04873570785398633,47.49098301867965],[-0.04847940475990623,47.48648555019807],[-0.051796884323300235,47.48639864351894],[-0.0512838507434631,47.47740369050975],[-0.04796692776813738,47.47749058295386],[-0.04783883542820014,47.47524183485483],[-0.03457159251003127,47.47558844577928],[-0.03469912836490726,47.47783720807307],[-0.03138215169688747,47.47792362818634],[-0.03150955913069712,47.48017239150832],[-0.028192432621455432,47.48025872068939],[-0.028701612752274865,47.489253762941196],[-0.032019295928674106,47.489167419617154],[-0.03214675690059651,47.49141617033198],[-0.03878236949860368,47.491243193139994],[-0.03891011959335341,47.493491934238605],[-0.04222804899924383,47.49340530035979]]]}},{"type":"Feature","properties":{"category":"historical_support","snapshot_index":3,"pass_time_utc":"2026-08-11T01:49:00+00:00","dt_local":"2026-08-11T03:49:00+02:00","area_km2":3.125,"label":"Isoline temporelle","coherence_level":"indisponible","coherence_fraction":0.0,"projection_displayed":false,"model_version":"fire_progression_arrival_v1"},"geometry":{"type":"Polygon","coordinates":[[[-0.04222804899924383,47.49340530035979],[-0.042100159700943864,47.491156562809074],[-0.04873570785398633,47.49098301867965],[-0.04847940475990623,47.48648555019807],[-0.051796884323300235,47.48639864351894],[-0.0512838507434631,47.47740369050975],[-0.04796692776813738,47.47749058295386],[-0.04783883542820014,47.47524183485483],[-0.031254754966654544,47.47567486235349],[-0.03138215169688747,47.47792362818634],[-0.028065164325290947,47.47800995383208],[-0.028319711610888462,47.48250748503248],[-0.025002435257728165,47.48259372327337],[-0.025256746985518212,47.487091251466545],[-0.028574301674950422,47.4870050061619],[-0.02882893452825731,47.49150251719215],[-0.03214675690059651,47.49141617033198],[-0.032274228584190164,47.49366491851479],[-0.04222804899924383,47.49340530035979]]]}},{"type":"Feature","properties":{"category":"observed_front","snapshot_index":3,"pass_time_utc":"2026-08-11T01:49:00+00:00","dt_local":"2026-08-11T03:49:00+02:00","area_km2":2.812,"label":"Activité observée","coherence_level":"indisponible","coherence_fraction":0.0,"projection_displayed":false,"model_version":"fire_progression_arrival_v1"},"geometry":{"type":"Polygon","coordinates":[[[-0.04222804899924383,47.49340530035979],[-0.042100159700943864,47.491156562809074],[-0.04873570785398633,47.49098301867965],[-0.04847940475990623,47.48648555019807],[-0.051796884323300235,47.48639864351894],[-0.0512838507434631,47.47740369050975],[-0.04796692776813738,47.47749058295386],[-0.04783883542820014,47.47524183485483],[-0.031254754966654544,47.47567486235349],[-0.03138215169688747,47.47792362818634],[-0.028065164325290947,47.47800995383208],[-0.028701612752274865,47.489253762941196],[-0.032019295928674106,47.489167419617154],[-0.03214675690059651,47.49141617033198],[-0.03878236949860368,47.491243193139994],[-0.03891011959335341,47.493491934238605],[-0.04222804899924383,47.49340530035979]]]}},{"type":"Feature","properties":{"category":"historical_support","snapshot_index":4,"pass_time_utc":"2026-08-11T02:36:00+00:00","dt_local":"2026-08-11T04:36:00+02:00","area_km2":3.125,"label":"Isoline temporelle","coherence_level":"indisponible","coherence_fraction":0.0,"projection_displayed":false,"model_version":"fire_progression_arrival_v1"},"geometry":{"type":"Polygon","coordinates":[[[-0.04222804899924383,47.49340530035979],[-0.042100159700943864,47.491156562809074],[-0.04873570785398633,47.49098301867965],[-0.04847940475990623,47.48648555019807],[-0.051796884323300235,47.48639864351894],[-0.0512838507434631,47.47740369050975],[-0.04796692776813738,47.47749058295386],[-0.04783883542820014,47.47524183485483],[-0.031254754966654544,47.47567486235349],[-0.03138215169688747,47.47792362818634],[-0.028065164325290947,47.47800995383208],[-0.028319711610888462,47.48250748503248],[-0.025002435257728165,47.48259372327337],[-0.025256746985518212,47.487091251466545],[-0.028574301674950422,47.4870050061619],[-0.02882893452825731,47.49150251719215],[-0.03214675690059651,47.49141617033198],[-0.032274228584190164,47.49366491851479],[-0.04222804899924383,47.49340530035979]]]}},{"type":"Feature","properties":{"category":"observed_front","snapshot_index":4,"pass_time_utc":"2026-08-11T02:36:00+00:00","dt_local":"2026-08-11T04:36:00+02:00","area_km2":3.062,"label":"Activité observée","coherence_level":"indisponible","coherence_fraction":0.0,"projection_displayed":false,"model_version":"fire_progression_arrival_v1"},"geometry":{"type":"Polygon","coordinates":[[[-0.04222804899924383,47.49340530035979],[-0.042100159700943864,47.491156562809074],[-0.04873570785398633,47.49098301867965],[-0.04847940475990623,47.48648555019807],[-0.051796884323300235,47.48639864351894],[-0.05141209297477998,47.47965243253861],[-0.0480950308699211,47.47973932854123],[-0.04783883542820014,47.47524183485483],[-0.031254754966654544,47.47567486235349],[-0.03138215169688747,47.47792362818634],[-0.028065164325290947,47.47800995383208],[-0.028319711610888462,47.48250748503248],[-0.025002435257728165,47.48259372327337],[-0.025256746985518212,47.487091251466545],[-0.028574301674950422,47.4870050061619],[-0.02882893452825731,47.49150251719215],[-0.03214675690059651,47.49141617033198],[-0.032274228584190164,47.49366491851479],[-0.04222804899924383,47.49340530035979]]]}},{"type":"Feature","properties":{"category":"firms_extent_snapshot","snapshot_index":5,"pass_time_utc":"2026-08-11T03:30:00+00:00","dt_local":"2026-08-11T05:30:00+02:00","label":"Emprise FIRMS cumulée à ce passage","interpretation":"Enveloppe des détections FIRMS, pas une surface brûlée","cumulative":true,"point_count":25,"extent_method":"cumulative_detection_extent_smoothed_landmasked_web_v1","local_cluster_link_m":10000.0,"model_version":"fire_progression_arrival_v1"},"geometry":{"type":"Polygon","coordinates":[[[-0.04909863785115865,47.481755867581974],[-0.048480793586395524,47.485169587953656],[-0.04726214133849739,47.48757378111349],[-0.04718242871477215,47.48969334783303],[-0.04573159160431193,47.49162627312523],[-0.045385317346722465,47.493946053767175],[-0.044053217655129755,47.49516131392908],[-0.04219271226291694,47.49568395095622],[-0.04026874507790063,47.49554159145702],[-0.03730521116922542,47.49387020810518],[-0.03191899901773761,47.49242752527607],[-0.03048564355564825,47.49162847798705],[-0.029685838606801313,47.49015868502938],[-0.030074771342326483,47.4875948843913],[-0.028526762468907098,47.48557204510478],[-0.028357779823090942,47.48426538014872],[-0.029368510502528998,47.482856062343615],[-0.03330767128022139,47.48067850147163],[-0.03709073018167871,47.47878357531066],[-0.039348615458706306,47.478450300562926],[-0.04261242866702341,47.47925360575909],[-0.04686005862874537,47.479432265393584],[-0.04851356980337011,47.480449815331426],[-0.04909863785115865,47.481755867581974]]]}},{"type":"Feature","properties":{"category":"historical_support","snapshot_index":5,"pass_time_utc":"2026-08-11T03:30:00+00:00","dt_local":"2026-08-11T05:30:00+02:00","area_km2":3.938,"label":"Isoline temporelle","coherence_level":"indisponible","coherence_fraction":0.0,"projection_displayed":false,"model_version":"fire_progression_arrival_v1"},"geometry":{"type":"Polygon","coordinates":[[[-0.04567400691729502,47.49556730345054],[-0.04554596765712239,47.493318571987764],[-0.04886387555532362,47.49323174912298],[-0.04847940475990623,47.48648555019807],[-0.051796884323300235,47.48639864351894],[-0.0512838507434631,47.47740369050975],[-0.04796692776813738,47.47749058295386],[-0.04783883542820014,47.47524183485483],[-0.031254754966654544,47.47567486235349],[-0.03138215169688747,47.47792362818634],[-0.028065164325290947,47.47800995383208],[-0.028319711610888462,47.48250748503248],[-0.025002435257728165,47.48259372327337],[-0.025129585779471112,47.484842488630505],[-0.02181215957970026,47.484928635923204],[-0.022066214315160714,47.489426166127],[-0.025383918877216433,47.48934001177795],[-0.025638294722948537,47.49383752481278],[-0.028956267004247103,47.49375126891128],[-0.029083610181591606,47.49600001809505],[-0.04567400691729502,47.49556730345054]]]}},{"type":"Feature","properties":{"category":"observed_front","snapshot_index":5,"pass_time_utc":"2026-08-11T03:30:00+00:00","dt_local":"2026-08-11T05:30:00+02:00","area_km2":2.812,"label":"Activité observée","coherence_level":"indisponible","coherence_fraction":0.0,"projection_displayed":false,"model_version":"fire_progression_arrival_v1"},"geometry":{"type":"Polygon","coordinates":[[[-0.04567400691729502,47.49556730345054],[-0.04554596765712239,47.493318571987764],[-0.04886387555532362,47.49323174912298],[-0.048351269364449216,47.484236812166856],[-0.04503391819964258,47.48432362081012],[-0.044905932724300324,47.482074876701695],[-0.04158870996079327,47.48216158731653],[-0.04146087438225112,47.47991283713862],[-0.028192432621455432,47.48025872068939],[-0.028319711610888462,47.48250748503248],[-0.025002435257728165,47.48259372327337],[-0.025129585779471112,47.484842488630505],[-0.02181215957970026,47.484928635923204],[-0.022066214315160714,47.489426166127],[-0.025383918877216433,47.48934001177795],[-0.025638294722948537,47.49383752481278],[-0.028956267004247103,47.49375126891128],[-0.029083610181591606,47.49600001809505],[-0.04567400691729502,47.49556730345054]]]}},{"type":"Feature","properties":{"category":"firms_extent_snapshot","snapshot_index":6,"pass_time_utc":"2026-08-11T12:21:00+00:00","dt_local":"2026-08-11T14:21:00+02:00","label":"Emprise FIRMS cumulée à ce passage","interpretation":"Enveloppe des détections FIRMS, pas une surface brûlée","cumulative":true,"point_count":28,"extent_method":"cumulative_detection_extent_smoothed_landmasked_web_v1","local_cluster_link_m":10000.0,"model_version":"fire_progression_arrival_v1"},"geometry":{"type":"Polygon","coordinates":[[[-0.04909863785115865,47.481755867581974],[-0.048480793586395524,47.485169587953656],[-0.04726214133849739,47.48757378111349],[-0.04718242871477215,47.48969334783303],[-0.04573159160431193,47.49162627312523],[-0.045385317346722465,47.493946053767175],[-0.044053217655129755,47.49516131392908],[-0.04219271226291694,47.49568395095622],[-0.04026874507790063,47.49554159145702],[-0.03730521116922542,47.49387020810518],[-0.03191899901773761,47.49242752527607],[-0.03048564355564825,47.49162847798705],[-0.029685838606801313,47.49015868502938],[-0.030074771342326483,47.4875948843913],[-0.028312434821708872,47.48458384744583],[-0.02968581446579254,47.4813522807398],[-0.030987786517608914,47.4801884531296],[-0.04067515691399624,47.47820707075112],[-0.04720268934307883,47.479559575580076],[-0.048556400911127666,47.48049674950262],[-0.04909863785115865,47.481755867581974]]]}},{"type":"Feature","properties":{"category":"historical_support","snapshot_index":6,"pass_time_utc":"2026-08-11T12:21:00+00:00","dt_local":"2026-08-11T14:21:00+02:00","area_km2":4.688,"label":"Isoline temporelle","coherence_level":"indisponible","coherence_fraction":0.0,"projection_displayed":false,"model_version":"fire_progression_arrival_v1"},"geometry":{"type":"Polygon","coordinates":[[[-0.04567400691729502,47.49556730345054],[-0.04554596765712239,47.493318571987764],[-0.04886387555532362,47.49323174912298],[-0.04847940475990623,47.48648555019807],[-0.051796884323300235,47.48639864351894],[-0.0512838507434631,47.47740369050975],[-0.04796692776813738,47.47749058295386],[-0.04771075384875287,47.47299308424764],[-0.041077432080563164,47.47316657152971],[-0.04094963945347264,47.470917811313434],[-0.034316552940574716,47.47109091367271],[-0.034444067369037004,47.47333968097797],[-0.027810659807382152,47.473512412588896],[-0.02793790672104924,47.47576118446407],[-0.02462104778486773,47.47584741211053],[-0.025129585779471112,47.484842488630505],[-0.02181215957970026,47.484928635923204],[-0.022066214315160714,47.489426166127],[-0.025383918877216433,47.48934001177795],[-0.025638294722948537,47.49383752481278],[-0.028956267004247103,47.49375126891128],[-0.029083610181591606,47.49600001809505],[-0.04567400691729502,47.49556730345054]]]}},{"type":"Feature","properties":{"category":"observed_front","snapshot_index":6,"pass_time_utc":"2026-08-11T12:21:00+00:00","dt_local":"2026-08-11T14:21:00+02:00","area_km2":3.062,"label":"Activité observée","coherence_level":"indisponible","coherence_fraction":0.0,"projection_displayed":false,"model_version":"fire_progression_arrival_v1"},"geometry":{"type":"Polygon","coordinates":[[[-0.04860755092263297,47.4887342857035],[-0.04847940475990623,47.48648555019807],[-0.051796884323300235,47.48639864351894],[-0.0512838507434631,47.47740369050975],[-0.04796692776813738,47.47749058295386],[-0.04771075384875287,47.47299308424764],[-0.041077432080563164,47.47316657152971],[-0.04094963945347264,47.470917811313434],[-0.034316552940574716,47.47109091367271],[-0.034444067369037004,47.47333968097797],[-0.027810659807382152,47.473512412588896],[-0.02793790672104924,47.47576118446407],[-0.02462104778486773,47.47584741211053],[-0.025002435257728165,47.48259372327337],[-0.028319711610888462,47.48250748503248],[-0.028574301674950422,47.4870050061619],[-0.03520937895022142,47.48683223210284],[-0.035336968394753046,47.489080981806296],[-0.04860755092263297,47.4887342857035]]]}},{"type":"Feature","properties":{"category":"historical_support","snapshot_index":7,"pass_time_utc":"2026-08-11T12:57:00+00:00","dt_local":"2026-08-11T14:57:00+02:00","area_km2":4.688,"label":"Isoline temporelle","coherence_level":"indisponible","coherence_fraction":0.0,"projection_displayed":false,"model_version":"fire_progression_arrival_v1"},"geometry":{"type":"Polygon","coordinates":[[[-0.04567400691729502,47.49556730345054],[-0.04554596765712239,47.493318571987764],[-0.04886387555532362,47.49323174912298],[-0.04847940475990623,47.48648555019807],[-0.051796884323300235,47.48639864351894],[-0.0512838507434631,47.47740369050975],[-0.04796692776813738,47.47749058295386],[-0.04771075384875287,47.47299308424764],[-0.041077432080563164,47.47316657152971],[-0.04094963945347264,47.470917811313434],[-0.034316552940574716,47.47109091367271],[-0.034444067369037004,47.47333968097797],[-0.027810659807382152,47.473512412588896],[-0.02793790672104924,47.47576118446407],[-0.02462104778486773,47.47584741211053],[-0.025129585779471112,47.484842488630505],[-0.02181215957970026,47.484928635923204],[-0.022066214315160714,47.489426166127],[-0.025383918877216433,47.48934001177795],[-0.025638294722948537,47.49383752481278],[-0.028956267004247103,47.49375126891128],[-0.029083610181591606,47.49600001809505],[-0.04567400691729502,47.49556730345054]]]}},{"type":"Feature","properties":{"category":"observed_front","snapshot_index":7,"pass_time_utc":"2026-08-11T12:57:00+00:00","dt_local":"2026-08-11T14:57:00+02:00","area_km2":3.0,"label":"Activité observée","coherence_level":"indisponible","coherence_fraction":0.0,"projection_displayed":false,"model_version":"fire_progression_arrival_v1"},"geometry":{"type":"Polygon","coordinates":[[[-0.04541793915662591,47.49106983798881],[-0.04528992141445026,47.48882110145721],[-0.04860755092263297,47.4887342857035],[-0.04847940475990623,47.48648555019807],[-0.051796884323300235,47.48639864351894],[-0.0512838507434631,47.47740369050975],[-0.04796692776813738,47.47749058295386],[-0.04783883542820014,47.47524183485483],[-0.04452204081026327,47.47532862927919],[-0.04439409833840095,47.47307987511767],[-0.031127368938650184,47.47342609401333],[-0.031254754966654544,47.47567486235349],[-0.02793790672104924,47.47576118446407],[-0.028192432621455432,47.48025872068939],[-0.024875295418944,47.48034495539864],[-0.025002435257728165,47.48259372327337],[-0.028319711610888462,47.48250748503248],[-0.028701612752274865,47.489253762941196],[-0.035336968394753046,47.489080981806296],[-0.035464568561266466,47.49132972898111],[-0.04541793915662591,47.49106983798881]]]}},{"type":"Feature","properties":{"category":"historical_support","snapshot_index":8,"pass_time_utc":"2026-08-11T13:16:00+00:00","dt_local":"2026-08-11T15:16:00+02:00","area_km2":4.688,"label":"Isoline temporelle","coherence_level":"indisponible","coherence_fraction":0.0,"projection_displayed":false,"model_version":"fire_progression_arrival_v1"},"geometry":{"type":"Polygon","coordinates":[[[-0.04567400691729502,47.49556730345054],[-0.04554596765712239,47.493318571987764],[-0.04886387555532362,47.49323174912298],[-0.04847940475990623,47.48648555019807],[-0.051796884323300235,47.48639864351894],[-0.0512838507434631,47.47740369050975],[-0.04796692776813738,47.47749058295386],[-0.04771075384875287,47.47299308424764],[-0.041077432080563164,47.47316657152971],[-0.04094963945347264,47.470917811313434],[-0.034316552940574716,47.47109091367271],[-0.034444067369037004,47.47333968097797],[-0.027810659807382152,47.473512412588896],[-0.02793790672104924,47.47576118446407],[-0.02462104778486773,47.47584741211053],[-0.025129585779471112,47.484842488630505],[-0.02181215957970026,47.484928635923204],[-0.022066214315160714,47.489426166127],[-0.025383918877216433,47.48934001177795],[-0.025638294722948537,47.49383752481278],[-0.028956267004247103,47.49375126891128],[-0.029083610181591606,47.49600001809505],[-0.04567400691729502,47.49556730345054]]]}},{"type":"Feature","properties":{"category":"observed_front","snapshot_index":8,"pass_time_utc":"2026-08-11T13:16:00+00:00","dt_local":"2026-08-11T15:16:00+02:00","area_km2":2.188,"label":"Activité observée","coherence_level":"indisponible","coherence_fraction":0.0,"projection_displayed":false,"model_version":"fire_progression_arrival_v1"},"geometry":{"type":"Polygon","coordinates":[[[-0.04860755092263297,47.4887342857035],[-0.04847940475990623,47.48648555019807],[-0.051796884323300235,47.48639864351894],[-0.0512838507434631,47.47740369050975],[-0.04796692776813738,47.47749058295386],[-0.04771075384875287,47.47299308424764],[-0.034444067369037004,47.47333968097797],[-0.03469912836490726,47.47783720807307],[-0.03138215169688747,47.47792362818634],[-0.03176440611444043,47.484669910605604],[-0.03508180022632146,47.48458347987425],[-0.035336968394753046,47.489080981806296],[-0.04860755092263297,47.4887342857035]]]}},{"type":"Feature","properties":{"category":"firms_extent_snapshot","snapshot_index":9,"pass_time_utc":"2026-08-11T14:50:00+00:00","dt_local":"2026-08-11T16:50:00+02:00","label":"Emprise FIRMS cumulée à ce passage","interpretation":"Enveloppe des détections FIRMS, pas une surface brûlée","cumulative":true,"point_count":35,"extent_method":"cumulative_detection_extent_smoothed_landmasked_web_v1","local_cluster_link_m":10000.0,"model_version":"fire_progression_arrival_v1"},"geometry":{"type":"Polygon","coordinates":[[[-0.05543866810631114,47.476789303300755],[-0.05512207605627202,47.478758476155356],[-0.05397589895405498,47.480580542791735],[-0.04880474437994075,47.48422504667479],[-0.04726214133849739,47.48757378111349],[-0.04718242871477215,47.48969334783303],[-0.04573159160431193,47.49162627312523],[-0.045385317346722465,47.493946053767175],[-0.044293209630067845,47.49502893629196],[-0.04227308930539853,47.49567509039589],[-0.04026874507790063,47.49554159145702],[-0.037075502990845846,47.49377841709463],[-0.030680914340034723,47.49179115128304],[-0.029705752882662285,47.49031262917637],[-0.030074771342326483,47.4875948843913],[-0.02850205438613611,47.48551945816105],[-0.028438121597209532,47.48400615809797],[-0.03026827670263752,47.48066589035984],[-0.03497413480738873,47.478474930308614],[-0.03618218243445615,47.47465764690522],[-0.03888246493681844,47.47200104688218],[-0.041328589638892625,47.47091804806991],[-0.04413297261393063,47.470363076197636],[-0.04705417934794008,47.470383908817155],[-0.04976666524978995,47.470955860459014],[-0.053594349507779415,47.47313149761466],[-0.05489849971079929,47.47484261458496],[-0.05543866810631114,47.476789303300755]]]}},{"type":"Feature","properties":{"category":"historical_support","snapshot_index":9,"pass_time_utc":"2026-08-11T14:50:00+00:00","dt_local":"2026-08-11T16:50:00+02:00","area_km2":6.562,"label":"Isoline temporelle","coherence_level":"indisponible","coherence_fraction":0.0,"projection_displayed":false,"model_version":"fire_progression_arrival_v1"},"geometry":{"type":"Polygon","coordinates":[[[-0.04567400691729502,47.49556730345054],[-0.04554596765712239,47.493318571987764],[-0.04886387555532362,47.49323174912298],[-0.04860755092263297,47.4887342857035],[-0.05856037478877734,47.488473271536655],[-0.05830325821675457,47.48397581937766],[-0.061620566247961986,47.48388863282963],[-0.061234554981833424,47.47714244639022],[-0.057917664361963675,47.477229622227476],[-0.057532167678419496,47.47048340246782],[-0.05421568357228892,47.470570473143425],[-0.05408734534525516,47.468321724650075],[-0.0375054587528215,47.468755643457264],[-0.03763310155844018,47.47100440972059],[-0.034316552940574716,47.47109091367271],[-0.034444067369037004,47.47333968097797],[-0.027810659807382152,47.473512412588896],[-0.02793790672104924,47.47576118446407],[-0.02462104778486773,47.47584741211053],[-0.025129585779471112,47.484842488630505],[-0.02181215957970026,47.484928635923204],[-0.022066214315160714,47.489426166127],[-0.025383918877216433,47.48934001177795],[-0.025638294722948537,47.49383752481278],[-0.028956267004247103,47.49375126891128],[-0.029083610181591606,47.49600001809505],[-0.04567400691729502,47.49556730345054]]]}},{"type":"Feature","properties":{"category":"observed_front","snapshot_index":9,"pass_time_utc":"2026-08-11T14:50:00+00:00","dt_local":"2026-08-11T16:50:00+02:00","area_km2":3.625,"label":"Activité observée","coherence_level":"indisponible","coherence_fraction":0.0,"projection_displayed":false,"model_version":"fire_progression_arrival_v1"},"geometry":{"type":"Polygon","coordinates":[[[-0.05856037478877734,47.488473271536655],[-0.05830325821675457,47.48397581937766],[-0.061620566247961986,47.48388863282963],[-0.061234554981833424,47.47714244639022],[-0.057917664361963675,47.477229622227476],[-0.057532167678419496,47.47048340246782],[-0.05421568357228892,47.470570473143425],[-0.05408734534525516,47.468321724650075],[-0.0375054587528215,47.468755643457264],[-0.03776075508689225,47.4732531734833],[-0.034444067369037004,47.47333968097797],[-0.034826674935015116,47.480085967855864],[-0.0381437800227515,47.47999944973249],[-0.03852690151273999,47.48674570334931],[-0.0418444133429658,47.486659080113704],[-0.04197228114930203,47.48890782272588],[-0.05856037478877734,47.488473271536655]]]}},{"type":"Feature","properties":{"category":"historical_support","snapshot_index":10,"pass_time_utc":"2026-08-12T01:11:00+00:00","dt_local":"2026-08-12T03:11:00+02:00","area_km2":7.438,"label":"Isoline temporelle","coherence_level":"indisponible","coherence_fraction":0.0,"projection_displayed":false,"model_version":"fire_progression_arrival_v1"},"geometry":{"type":"MultiPolygon","coordinates":[[[[-0.05688988904225588,47.45923965288351],[-0.05676146567825646,47.456990895500624],[-0.050130155306300654,47.45716489964018],[-0.05000202074894445,47.454916132651505],[-0.046686488428271375,47.45500298951952],[-0.04643052958324909,47.45050544100262],[-0.05306102748492278,47.45033164707464],[-0.05318927951218905,47.452580415452594],[-0.06313536252627973,47.45231900572198],[-0.0632640423158494,47.45456776092179],[-0.06657952072043698,47.4544804319272],[-0.06670835032277928,47.45672918107359],[-0.06339273291191219,47.45681651364435],[-0.06352143431582857,47.45906526388614],[-0.05688988904225588,47.45923965288351]]],[[[-0.029083610181591606,47.49600001809505],[-0.028956267004247103,47.49375126891128],[-0.025638294722948537,47.49383752481278],[-0.025383918877216433,47.48934001177795],[-0.022066214315160714,47.489426166127],[-0.02181215957970026,47.484928635923204],[-0.025129585779471112,47.484842488630505],[-0.02462104778486773,47.47584741211053],[-0.02793790672104924,47.47576118446407],[-0.027810659807382152,47.473512412588896],[-0.034444067369037004,47.47333968097797],[-0.034316552940574716,47.47109091367271],[-0.03763310155844018,47.47100440972059],[-0.0375054587528215,47.468755643457264],[-0.05408734534525516,47.468321724650075],[-0.05421568357228892,47.470570473143425],[-0.057532167678419496,47.47048340246782],[-0.057917664361963675,47.477229622227476],[-0.061234554981833424,47.47714244639022],[-0.061620566247961986,47.48388863282963],[-0.05830325821675457,47.48397581937766],[-0.05856037478877734,47.488473271536655],[-0.04860755092263297,47.4887342857035],[-0.04886387555532362,47.49323174912298],[-0.04554596765712239,47.493318571987764],[-0.04567400691729502,47.49556730345054],[-0.029083610181591606,47.49600001809505]]]]}},{"type":"Feature","properties":{"category":"observed_front","snapshot_index":10,"pass_time_utc":"2026-08-12T01:11:00+00:00","dt_local":"2026-08-12T03:11:00+02:00","area_km2":3.0,"label":"Activité observée","coherence_level":"indisponible","coherence_fraction":0.0,"projection_displayed":false,"model_version":"fire_progression_arrival_v1"},"geometry":{"type":"Polygon","coordinates":[[[-0.06352143431582857,47.45906526388614],[-0.06339273291191219,47.45681651364435],[-0.06670835032277928,47.45672918107359],[-0.06657952072043698,47.4544804319272],[-0.06989498830689538,47.45439300850863],[-0.06925030768985477,47.44314924358356],[-0.06593553495345063,47.443236649104406],[-0.06580677023946739,47.44098788514631],[-0.04923343931616525,47.44142347883408],[-0.049361509334190104,47.443672260629555],[-0.04604667190430467,47.443759099715614],[-0.046302566279807965,47.448256663038336],[-0.042987440184266944,47.4483434148216],[-0.04311526450819929,47.45059219633844],[-0.04643052958324909,47.45050544100262],[-0.046686488428271375,47.45500298951952],[-0.05000202074894445,47.454916132651505],[-0.050130155306300654,47.45716489964018],[-0.05676146567825646,47.456990895500624],[-0.05688988904225588,47.45923965288351],[-0.06352143431582857,47.45906526388614]]]}},{"type":"Feature","properties":{"category":"historical_support","snapshot_index":11,"pass_time_utc":"2026-08-12T01:32:00+00:00","dt_local":"2026-08-12T03:32:00+02:00","area_km2":9.25,"label":"Isoline temporelle","coherence_level":"indisponible","coherence_fraction":0.0,"projection_displayed":false,"model_version":"fire_progression_arrival_v1"},"geometry":{"type":"MultiPolygon","coordinates":[[[[-0.05688988904225588,47.45923965288351],[-0.05676146567825646,47.456990895500624],[-0.050130155306300654,47.45716489964018],[-0.05000202074894445,47.454916132651505],[-0.043370945359295414,47.45508975196087],[-0.04285962659294463,47.446094630839056],[-0.04617461372061053,47.44600788260815],[-0.04604667190430467,47.443759099715614],[-0.052676336010906016,47.44358532713655],[-0.05254812705097647,47.44133654890086],[-0.05917747021863153,47.441162405827],[-0.059305957058303715,47.44341117693162],[-0.06593553495345063,47.443236649104406],[-0.06670835032277928,47.45672918107359],[-0.06339273291191219,47.45681651364435],[-0.06352143431582857,47.45906526388614],[-0.05688988904225588,47.45923965288351]]],[[[-0.029083610181591606,47.49600001809505],[-0.028956267004247103,47.49375126891128],[-0.025638294722948537,47.49383752481278],[-0.025383918877216433,47.48934001177795],[-0.022066214315160714,47.489426166127],[-0.02181215957970026,47.484928635923204],[-0.025129585779471112,47.484842488630505],[-0.02462104778486773,47.47584741211053],[-0.02793790672104924,47.47576118446407],[-0.027810659807382152,47.473512412588896],[-0.034444067369037004,47.47333968097797],[-0.034316552940574716,47.47109091367271],[-0.03763310155844018,47.47100440972059],[-0.0375054587528215,47.468755643457264],[-0.05408734534525516,47.468321724650075],[-0.05421568357228892,47.470570473143425],[-0.057532167678419496,47.47048340246782],[-0.057917664361963675,47.477229622227476],[-0.061234554981833424,47.47714244639022],[-0.061620566247961986,47.48388863282963],[-0.05830325821675457,47.48397581937766],[-0.05856037478877734,47.488473271536655],[-0.04860755092263297,47.4887342857035],[-0.04886387555532362,47.49323174912298],[-0.04554596765712239,47.493318571987764],[-0.04567400691729502,47.49556730345054],[-0.029083610181591606,47.49600001809505]]]]}},{"type":"Feature","properties":{"category":"observed_front","snapshot_index":11,"pass_time_utc":"2026-08-12T01:32:00+00:00","dt_local":"2026-08-12T03:32:00+02:00","area_km2":2.625,"label":"Activité observée","coherence_level":"indisponible","coherence_fraction":0.0,"projection_displayed":false,"model_version":"fire_progression_arrival_v1"},"geometry":{"type":"Polygon","coordinates":[[[-0.06020566707782945,47.45915250560112],[-0.06007710469319111,47.456903751786854],[-0.06670835032277928,47.45672918107359],[-0.06593553495345063,47.443236649104406],[-0.059305957058303715,47.44341117693162],[-0.05917747021863153,47.441162405827],[-0.05254812705097647,47.44133654890086],[-0.052676336010906016,47.44358532713655],[-0.04604667190430467,47.443759099715614],[-0.04617461372061053,47.44600788260815],[-0.04285962659294463,47.446094630839056],[-0.043370945359295414,47.45508975196087],[-0.05000202074894445,47.454916132651505],[-0.050130155306300654,47.45716489964018],[-0.05676146567825646,47.456990895500624],[-0.05688988904225588,47.45923965288351],[-0.06020566707782945,47.45915250560112]]]}},{"type":"Feature","properties":{"category":"historical_support","snapshot_index":12,"pass_time_utc":"2026-08-12T02:15:00+00:00","dt_local":"2026-08-12T04:15:00+02:00","area_km2":9.5,"label":"Isoline temporelle","coherence_level":"indisponible","coherence_fraction":0.0,"projection_displayed":false,"model_version":"fire_progression_arrival_v1"},"geometry":{"type":"MultiPolygon","coordinates":[[[[-0.05688988904225588,47.45923965288351],[-0.05676146567825646,47.456990895500624],[-0.050130155306300654,47.45716489964018],[-0.05000202074894445,47.454916132651505],[-0.043370945359295414,47.45508975196087],[-0.04285962659294463,47.446094630839056],[-0.04617461372061053,47.44600788260815],[-0.04604667190430467,47.443759099715614],[-0.052676336010906016,47.44358532713655],[-0.05254812705097647,47.44133654890086],[-0.05917747021863153,47.441162405827],[-0.059305957058303715,47.44341117693162],[-0.06925030768985477,47.44314924358356],[-0.06976603052940523,47.4521442604647],[-0.06645070193622622,47.45223168030339],[-0.06670835032277928,47.45672918107359],[-0.06339273291191219,47.45681651364435],[-0.06352143431582857,47.45906526388614],[-0.05688988904225588,47.45923965288351]]],[[[-0.029083610181591606,47.49600001809505],[-0.028956267004247103,47.49375126891128],[-0.025638294722948537,47.49383752481278],[-0.025383918877216433,47.48934001177795],[-0.022066214315160714,47.489426166127],[-0.02181215957970026,47.484928635923204],[-0.025129585779471112,47.484842488630505],[-0.02462104778486773,47.47584741211053],[-0.02793790672104924,47.47576118446407],[-0.027810659807382152,47.473512412588896],[-0.034444067369037004,47.47333968097797],[-0.034316552940574716,47.47109091367271],[-0.03763310155844018,47.47100440972059],[-0.0375054587528215,47.468755643457264],[-0.05408734534525516,47.468321724650075],[-0.05421568357228892,47.470570473143425],[-0.057532167678419496,47.47048340246782],[-0.057917664361963675,47.477229622227476],[-0.061234554981833424,47.47714244639022],[-0.061620566247961986,47.48388863282963],[-0.05830325821675457,47.48397581937766],[-0.05856037478877734,47.488473271536655],[-0.04860755092263297,47.4887342857035],[-0.04886387555532362,47.49323174912298],[-0.04554596765712239,47.493318571987764],[-0.04567400691729502,47.49556730345054],[-0.029083610181591606,47.49600001809505]]]]}},{"type":"Feature","properties":{"category":"observed_front","snapshot_index":12,"pass_time_utc":"2026-08-12T02:15:00+00:00","dt_local":"2026-08-12T04:15:00+02:00","area_km2":4.75,"label":"Activité observée","coherence_level":"indisponible","coherence_fraction":0.0,"projection_displayed":false,"model_version":"fire_progression_arrival_v1"},"geometry":{"type":"MultiPolygon","coordinates":[[[[-0.05676146567825646,47.456990895500624],[-0.05663305309883136,47.4547421356373],[-0.05000202074894445,47.454916132651505],[-0.04987389695152996,47.45266736318625],[-0.046558503632285655,47.45275421649753],[-0.04604667190430467,47.443759099715614],[-0.052676336010906016,47.44358532713655],[-0.05254812705097647,47.44133654890086],[-0.05917747021863153,47.441162405827],[-0.059305957058303715,47.44341117693162],[-0.06925030768985477,47.44314924358356],[-0.06976603052940523,47.4521442604647],[-0.06645070193622622,47.45223168030339],[-0.06657952072043698,47.4544804319272],[-0.059948553104767516,47.454654995491985],[-0.06007710469319111,47.456903751786854],[-0.05676146567825646,47.456990895500624]]],[[[-0.042100159700943864,47.491156562809074],[-0.04197228114930203,47.48890782272588],[-0.035336968394753046,47.489080981806296],[-0.03520937895022142,47.48683223210284],[-0.0318918456670712,47.48691866637385],[-0.03138215169688747,47.47792362818634],[-0.03469912836490726,47.47783720807307],[-0.03457159251003127,47.47558844577928],[-0.041205235443488794,47.47541532924168],[-0.041077432080563164,47.47316657152971],[-0.04439409833840095,47.47307987511767],[-0.04452204081026327,47.47532862927919],[-0.051155619285645056,47.47515494596906],[-0.0512838507434631,47.47740369050975],[-0.05460076294528998,47.4773167036008],[-0.0551143531077658,47.48631164235953],[-0.051796884323300235,47.48639864351894],[-0.05192516966218826,47.488647375465206],[-0.04528992141445026,47.48882110145721],[-0.04541793915662591,47.49106983798881],[-0.042100159700943864,47.491156562809074]]]]}},{"type":"Feature","properties":{"category":"historical_support","snapshot_index":13,"pass_time_utc":"2026-08-12T02:51:00+00:00","dt_local":"2026-08-12T04:51:00+02:00","area_km2":9.5,"label":"Isoline temporelle","coherence_level":"indisponible","coherence_fraction":0.0,"projection_displayed":false,"model_version":"fire_progression_arrival_v1"},"geometry":{"type":"MultiPolygon","coordinates":[[[[-0.05688988904225588,47.45923965288351],[-0.05676146567825646,47.456990895500624],[-0.050130155306300654,47.45716489964018],[-0.05000202074894445,47.454916132651505],[-0.043370945359295414,47.45508975196087],[-0.04285962659294463,47.446094630839056],[-0.04617461372061053,47.44600788260815],[-0.04604667190430467,47.443759099715614],[-0.052676336010906016,47.44358532713655],[-0.05254812705097647,47.44133654890086],[-0.05917747021863153,47.441162405827],[-0.059305957058303715,47.44341117693162],[-0.06925030768985477,47.44314924358356],[-0.06976603052940523,47.4521442604647],[-0.06645070193622622,47.45223168030339],[-0.06670835032277928,47.45672918107359],[-0.06339273291191219,47.45681651364435],[-0.06352143431582857,47.45906526388614],[-0.05688988904225588,47.45923965288351]]],[[[-0.029083610181591606,47.49600001809505],[-0.028956267004247103,47.49375126891128],[-0.025638294722948537,47.49383752481278],[-0.025383918877216433,47.48934001177795],[-0.022066214315160714,47.489426166127],[-0.02181215957970026,47.484928635923204],[-0.025129585779471112,47.484842488630505],[-0.02462104778486773,47.47584741211053],[-0.02793790672104924,47.47576118446407],[-0.027810659807382152,47.473512412588896],[-0.034444067369037004,47.47333968097797],[-0.034316552940574716,47.47109091367271],[-0.03763310155844018,47.47100440972059],[-0.0375054587528215,47.468755643457264],[-0.05408734534525516,47.468321724650075],[-0.05421568357228892,47.470570473143425],[-0.057532167678419496,47.47048340246782],[-0.057917664361963675,47.477229622227476],[-0.061234554981833424,47.47714244639022],[-0.061620566247961986,47.48388863282963],[-0.05830325821675457,47.48397581937766],[-0.05856037478877734,47.488473271536655],[-0.04860755092263297,47.4887342857035],[-0.04886387555532362,47.49323174912298],[-0.04554596765712239,47.493318571987764],[-0.04567400691729502,47.49556730345054],[-0.029083610181591606,47.49600001809505]]]]}},{"type":"Feature","properties":{"category":"observed_front","snapshot_index":13,"pass_time_utc":"2026-08-12T02:51:00+00:00","dt_local":"2026-08-12T04:51:00+02:00","area_km2":2.5,"label":"Activité observée","coherence_level":"indisponible","coherence_fraction":0.0,"projection_displayed":false,"model_version":"fire_progression_arrival_v1"},"geometry":{"type":"Polygon","coordinates":[[[-0.06339273291191219,47.45681651364435],[-0.0632640423158494,47.45456776092179],[-0.06657952072043698,47.4544804319272],[-0.06645070193622622,47.45223168030339],[-0.06976603052940523,47.4521442604647],[-0.06937922216190628,47.44539800150261],[-0.06606431047875706,47.445485410602664],[-0.06593553495345063,47.443236649104406],[-0.059305957058303715,47.44341117693162],[-0.05917747021863153,47.441162405827],[-0.05254812705097647,47.44133654890086],[-0.052676336010906016,47.44358532713655],[-0.04604667190430467,47.443759099715614],[-0.04617461372061053,47.44600788260815],[-0.04285962659294463,47.446094630839056],[-0.04311526450819929,47.45059219633844],[-0.04643052958324909,47.45050544100262],[-0.046686488428271375,47.45500298951952],[-0.05331754230967779,47.45482918135728],[-0.0534458158787463,47.457077944785226],[-0.06339273291191219,47.45681651364435]]]}},{"type":"Feature","properties":{"category":"firms_extent_snapshot","snapshot_index":14,"pass_time_utc":"2026-08-12T03:13:00+00:00","dt_local":"2026-08-12T05:13:00+02:00","label":"Emprise FIRMS cumulée à ce passage","interpretation":"Enveloppe des détections FIRMS, pas une surface brûlée","cumulative":true,"point_count":58,"extent_method":"cumulative_detection_extent_smoothed_landmasked_web_v1","local_cluster_link_m":10000.0,"model_version":"fire_progression_arrival_v1"},"geometry":{"type":"MultiPolygon","coordinates":[[[[-0.0679590863947917,47.47936823415954],[-0.0676429396798679,47.48133743863959],[-0.06649713357421222,47.48315962625825],[-0.06231316714344629,47.48602441982492],[-0.059775647990332234,47.489980151357344],[-0.0560537822090556,47.49199153139173],[-0.05316747379784961,47.49255296929958],[-0.04750858527354747,47.492591850248076],[-0.043988496191604276,47.49519480787173],[-0.04141255844742998,47.49570432881274],[-0.03949821510999603,47.49528029201527],[-0.037075502990845846,47.49377841709463],[-0.03157632228485539,47.492300170904976],[-0.03004208827183645,47.491127876903306],[-0.030074771342326483,47.4875948843913],[-0.028311111463069746,47.4847935581324],[-0.029655702349906426,47.4814035565474],[-0.030987786517608914,47.4801884531296],[-0.034673187260196206,47.478768679271326],[-0.03696434825363911,47.473566561481675],[-0.03888246493681844,47.47200104688218],[-0.041328589638892625,47.47091804806991],[-0.04413297261393063,47.470363076197636],[-0.04713422544955724,47.4703939145524],[-0.049913046740743774,47.471004080970786],[-0.0542556936682695,47.47296405010751],[-0.058682582695022245,47.47289663429582],[-0.06235951867385548,47.473558292192045],[-0.06611382351113565,47.475710631201984],[-0.06741843669241832,47.477421605889326],[-0.0679590863947917,47.47936823415954]]],[[[-0.06759644819972331,47.45276523429966],[-0.06701214825346914,47.45428135409284],[-0.06467243901313302,47.45576635503436],[-0.06311485534096942,47.457671771539644],[-0.06029419890341979,47.45857715041963],[-0.056033233991784656,47.45743038684735],[-0.05282032670781385,47.457221785633216],[-0.04868865569605563,47.45579248904545],[-0.04710819712992277,47.45480026034251],[-0.046523472086456935,47.45349418169712],[-0.047098043270324304,47.4513514179336],[-0.0500024317361779,47.44942322366006],[-0.051438852146651684,47.4470695853795],[-0.05522306606780266,47.44454541519075],[-0.057405972868280725,47.44403283123842],[-0.059709069036678414,47.44445932306098],[-0.06428088756582918,47.44718065520778],[-0.06539104131697193,47.44997012016139],[-0.06709344779114228,47.45155448213058],[-0.06759644819972331,47.45276523429966]]]]}},{"type":"Feature","properties":{"category":"historical_support","snapshot_index":14,"pass_time_utc":"2026-08-12T03:13:00+00:00","dt_local":"2026-08-12T05:13:00+02:00","area_km2":9.5,"label":"Isoline temporelle","coherence_level":"indisponible","coherence_fraction":0.0,"projection_displayed":false,"model_version":"fire_progression_arrival_v1"},"geometry":{"type":"MultiPolygon","coordinates":[[[[-0.05688988904225588,47.45923965288351],[-0.05676146567825646,47.456990895500624],[-0.050130155306300654,47.45716489964018],[-0.05000202074894445,47.454916132651505],[-0.043370945359295414,47.45508975196087],[-0.04285962659294463,47.446094630839056],[-0.04617461372061053,47.44600788260815],[-0.04604667190430467,47.443759099715614],[-0.052676336010906016,47.44358532713655],[-0.05254812705097647,47.44133654890086],[-0.05917747021863153,47.441162405827],[-0.059305957058303715,47.44341117693162],[-0.06925030768985477,47.44314924358356],[-0.06976603052940523,47.4521442604647],[-0.06645070193622622,47.45223168030339],[-0.06670835032277928,47.45672918107359],[-0.06339273291191219,47.45681651364435],[-0.06352143431582857,47.45906526388614],[-0.05688988904225588,47.45923965288351]]],[[[-0.029083610181591606,47.49600001809505],[-0.028956267004247103,47.49375126891128],[-0.025638294722948537,47.49383752481278],[-0.025383918877216433,47.48934001177795],[-0.022066214315160714,47.489426166127],[-0.02181215957970026,47.484928635923204],[-0.025129585779471112,47.484842488630505],[-0.02462104778486773,47.47584741211053],[-0.02793790672104924,47.47576118446407],[-0.027810659807382152,47.473512412588896],[-0.034444067369037004,47.47333968097797],[-0.034316552940574716,47.47109091367271],[-0.03763310155844018,47.47100440972059],[-0.0375054587528215,47.468755643457264],[-0.05408734534525516,47.468321724650075],[-0.05421568357228892,47.470570473143425],[-0.057532167678419496,47.47048340246782],[-0.057917664361963675,47.477229622227476],[-0.061234554981833424,47.47714244639022],[-0.061620566247961986,47.48388863282963],[-0.05830325821675457,47.48397581937766],[-0.05856037478877734,47.488473271536655],[-0.04860755092263297,47.4887342857035],[-0.04886387555532362,47.49323174912298],[-0.04554596765712239,47.493318571987764],[-0.04567400691729502,47.49556730345054],[-0.029083610181591606,47.49600001809505]]]]}},{"type":"Feature","properties":{"category":"observed_front","snapshot_index":14,"pass_time_utc":"2026-08-12T03:13:00+00:00","dt_local":"2026-08-12T05:13:00+02:00","area_km2":2.125,"label":"Activité observée","coherence_level":"indisponible","coherence_fraction":0.0,"projection_displayed":false,"model_version":"fire_progression_arrival_v1"},"geometry":{"type":"Polygon","coordinates":[[[-0.06352143431582857,47.45906526388614],[-0.06339273291191219,47.45681651364435],[-0.06670835032277928,47.45672918107359],[-0.06645070193622622,47.45223168030339],[-0.06976603052940523,47.4521442604647],[-0.06950814745827316,47.44764675695817],[-0.06619309681674755,47.447734169637606],[-0.06606431047875706,47.445485410602664],[-0.059434454686038106,47.44565994557675],[-0.059305957058303715,47.44341117693162],[-0.052676336010906016,47.44358532713655],[-0.05280455573563678,47.44583410291312],[-0.04948959010538568,47.44592103996601],[-0.0496176816311045,47.448169816839965],[-0.046302566279807965,47.448256663038336],[-0.046686488428271375,47.45500298951952],[-0.05000202074894445,47.454916132651505],[-0.050130155306300654,47.45716489964018],[-0.05676146567825646,47.456990895500624],[-0.05688988904225588,47.45923965288351],[-0.06352143431582857,47.45906526388614]]]}},{"type":"Feature","properties":{"category":"historical_support","snapshot_index":15,"pass_time_utc":"2026-08-14T13:06:00+00:00","dt_local":"2026-08-14T15:06:00+02:00","area_km2":9.5,"label":"Isoline temporelle","coherence_level":"indisponible","coherence_fraction":0.0,"projection_displayed":false,"model_version":"fire_progression_arrival_v1"},"geometry":{"type":"MultiPolygon","coordinates":[[[[-0.05688988904225588,47.45923965288351],[-0.05676146567825646,47.456990895500624],[-0.050130155306300654,47.45716489964018],[-0.05000202074894445,47.454916132651505],[-0.043370945359295414,47.45508975196087],[-0.04285962659294463,47.446094630839056],[-0.04617461372061053,47.44600788260815],[-0.04604667190430467,47.443759099715614],[-0.052676336010906016,47.44358532713655],[-0.05254812705097647,47.44133654890086],[-0.05917747021863153,47.441162405827],[-0.059305957058303715,47.44341117693162],[-0.06925030768985477,47.44314924358356],[-0.06976603052940523,47.4521442604647],[-0.06645070193622622,47.45223168030339],[-0.06670835032277928,47.45672918107359],[-0.06339273291191219,47.45681651364435],[-0.06352143431582857,47.45906526388614],[-0.05688988904225588,47.45923965288351]]],[[[-0.029083610181591606,47.49600001809505],[-0.028956267004247103,47.49375126891128],[-0.025638294722948537,47.49383752481278],[-0.025383918877216433,47.48934001177795],[-0.022066214315160714,47.489426166127],[-0.02181215957970026,47.484928635923204],[-0.025129585779471112,47.484842488630505],[-0.02462104778486773,47.47584741211053],[-0.02793790672104924,47.47576118446407],[-0.027810659807382152,47.473512412588896],[-0.034444067369037004,47.47333968097797],[-0.034316552940574716,47.47109091367271],[-0.03763310155844018,47.47100440972059],[-0.0375054587528215,47.468755643457264],[-0.05408734534525516,47.468321724650075],[-0.05421568357228892,47.470570473143425],[-0.057532167678419496,47.47048340246782],[-0.057917664361963675,47.477229622227476],[-0.061234554981833424,47.47714244639022],[-0.061620566247961986,47.48388863282963],[-0.05830325821675457,47.48397581937766],[-0.05856037478877734,47.488473271536655],[-0.04860755092263297,47.4887342857035],[-0.04886387555532362,47.49323174912298],[-0.04554596765712239,47.493318571987764],[-0.04567400691729502,47.49556730345054],[-0.029083610181591606,47.49600001809505]]]]}},{"type":"Feature","properties":{"category":"historical_support","snapshot_index":16,"pass_time_utc":"2026-08-14T13:42:00+00:00","dt_local":"2026-08-14T15:42:00+02:00","area_km2":9.5,"label":"Isoline temporelle","coherence_level":"indisponible","coherence_fraction":0.0,"projection_displayed":false,"model_version":"fire_progression_arrival_v1"},"geometry":{"type":"MultiPolygon","coordinates":[[[[-0.05688988904225588,47.45923965288351],[-0.05676146567825646,47.456990895500624],[-0.050130155306300654,47.45716489964018],[-0.05000202074894445,47.454916132651505],[-0.043370945359295414,47.45508975196087],[-0.04285962659294463,47.446094630839056],[-0.04617461372061053,47.44600788260815],[-0.04604667190430467,47.443759099715614],[-0.052676336010906016,47.44358532713655],[-0.05254812705097647,47.44133654890086],[-0.05917747021863153,47.441162405827],[-0.059305957058303715,47.44341117693162],[-0.06925030768985477,47.44314924358356],[-0.06976603052940523,47.4521442604647],[-0.06645070193622622,47.45223168030339],[-0.06670835032277928,47.45672918107359],[-0.06339273291191219,47.45681651364435],[-0.06352143431582857,47.45906526388614],[-0.05688988904225588,47.45923965288351]]],[[[-0.029083610181591606,47.49600001809505],[-0.028956267004247103,47.49375126891128],[-0.025638294722948537,47.49383752481278],[-0.025383918877216433,47.48934001177795],[-0.022066214315160714,47.489426166127],[-0.02181215957970026,47.484928635923204],[-0.025129585779471112,47.484842488630505],[-0.02462104778486773,47.47584741211053],[-0.02793790672104924,47.47576118446407],[-0.027810659807382152,47.473512412588896],[-0.034444067369037004,47.47333968097797],[-0.034316552940574716,47.47109091367271],[-0.03763310155844018,47.47100440972059],[-0.0375054587528215,47.468755643457264],[-0.05408734534525516,47.468321724650075],[-0.05421568357228892,47.470570473143425],[-0.057532167678419496,47.47048340246782],[-0.057917664361963675,47.477229622227476],[-0.061234554981833424,47.47714244639022],[-0.061620566247961986,47.48388863282963],[-0.05830325821675457,47.48397581937766],[-0.05856037478877734,47.488473271536655],[-0.04860755092263297,47.4887342857035],[-0.04886387555532362,47.49323174912298],[-0.04554596765712239,47.493318571987764],[-0.04567400691729502,47.49556730345054],[-0.029083610181591606,47.49600001809505]]]]}},{"type":"Feature","properties":{"category":"observed_front","snapshot_index":16,"pass_time_utc":"2026-08-14T13:42:00+00:00","dt_local":"2026-08-14T15:42:00+02:00","area_km2":2.312,"label":"Activité observée","coherence_level":"indisponible","coherence_fraction":0.0,"projection_displayed":false,"model_version":"fire_progression_arrival_v1"},"geometry":{"type":"Polygon","coordinates":[[[-0.12234386047176059,47.55659651440243],[-0.1222124498336229,47.55434793460573],[-0.12553401958533306,47.554258931009535],[-0.12540248050472746,47.552010352219554],[-0.1287238996933153,47.55192125768198],[-0.12832893042023485,47.545175516461406],[-0.12500792965020713,47.545264600052505],[-0.1248764348231476,47.54301601074289],[-0.12155556244268441,47.54310499611429],[-0.12142421811469084,47.54085640053911],[-0.11146195305668669,47.5411227783113],[-0.11159287905882814,47.543371384796615],[-0.10827196255569513,47.54345999187858],[-0.10840276011454135,47.54570859937263],[-0.10508169315216372,47.54579711550637],[-0.10547373340757946,47.55254293310858],[-0.10879521881356526,47.552454406097986],[-0.10892606039202815,47.554703003075765],[-0.11224767429424037,47.55461437784636],[-0.11237866639598915,47.556862968556246],[-0.12234386047176059,47.55659651440243]]]}}]}