{"type":"FeatureCollection","name":"detection_envelopes","crs":{"type":"name","properties":{"name":"urn:ogc:def:crs:OGC:1.3:CRS84"}},"features":[{"type":"Feature","properties":{"cluster_id":1,"snapshot_index":1,"estimated_time_utc":"2026-09-01T01:37:00Z","observed_until_utc":"2026-09-01T01:37:00Z","target_time_utc":"2026-09-01T01:37:00Z","arrival_h":0.0,"hours_ago":49.38333333333333,"supported_detections_cumulative":2,"sources_cumulative":"VIIRS_SNPP_NRT","last_source":"VIIRS_SNPP_NRT","last_satellite":"N","last_instrument":"VIIRS","detected_area_km2":0.41786916685027997,"product_type":"cumulative_active_fire_detection_extent"},"geometry":{"type":"LineString","coordinates":[[4.55813884624322,48.768798530869304],[4.558796560909641,48.77085739492011],[4.561265118620176,48.77212191148585],[4.564363403045276,48.77186220174469],[4.566276276996391,48.77023041674382],[4.565451143445811,48.76641893382487],[4.562774764119449,48.76487807406214],[4.560406983364256,48.76492183930441],[4.558474970923835,48.76582782404272],[4.557629897663586,48.76729068766056],[4.55813884624322,48.768798530869304]]}},{"type":"Feature","properties":{"cluster_id":1,"snapshot_index":2,"estimated_time_utc":"2026-09-01T02:43:00Z","observed_until_utc":"2026-09-01T02:43:00Z","target_time_utc":"2026-09-01T07:37:00Z","arrival_h":1.1,"hours_ago":48.28333333333333,"supported_detections_cumulative":4,"sources_cumulative":"VIIRS_NOAA20_NRT, VIIRS_NOAA21_NRT, VIIRS_SNPP_NRT","last_source":"VIIRS_NOAA21_NRT","last_satellite":"N21","last_instrument":"VIIRS","detected_area_km2":0.5340265106609701,"product_type":"cumulative_active_fire_detection_extent"},"geometry":{"type":"LineString","coordinates":[[4.558227630438227,48.76894916181156],[4.559216020930347,48.771255119177894],[4.562053729054894,48.7722105287509],[4.567363522161489,48.77146215174577],[4.568794875918326,48.770555048885846],[4.569410272915792,48.76930904932341],[4.568143196986529,48.76716012521511],[4.565455296072976,48.76642615156492],[4.563871019582666,48.76519634604121],[4.561986263234555,48.76478946099025],[4.559735092109563,48.765116189237695],[4.558245522679612,48.76604474207901],[4.557620099568357,48.767511221344385],[4.558227630438227,48.76894916181156]]}},{"type":"Feature","properties":{"cluster_id":1,"snapshot_index":3,"estimated_time_utc":"2026-09-02T01:39:00Z","observed_until_utc":"2026-09-02T01:39:00Z","target_time_utc":"2026-09-02T07:37:00Z","arrival_h":24.033333333333335,"hours_ago":25.35,"supported_detections_cumulative":5,"sources_cumulative":"VIIRS_NOAA20_NRT, VIIRS_NOAA21_NRT, VIIRS_SNPP_NRT","last_source":"VIIRS_NOAA20_NRT","last_satellite":"N20","last_instrument":"VIIRS","detected_area_km2":0.551617007973727,"product_type":"cumulative_active_fire_detection_extent"},"geometry":{"type":"LineString","coordinates":[[4.564987365884449,48.771807084621564],[4.567006467919398,48.77158198043533],[4.568758915969204,48.77059219986131],[4.569410272915792,48.76930904932341],[4.568915767712533,48.767820884888664],[4.563217504185371,48.76497630892619],[4.559735092109563,48.765116189237695],[4.557677576619021,48.7670278818618],[4.558473930627712,48.77102890741416],[4.561300424842336,48.77238127515706],[4.564987365884449,48.771807084621564]]}},{"type":"Feature","properties":{"cluster_id":1,"snapshot_index":4,"estimated_time_utc":"2026-09-03T03:00:00Z","observed_until_utc":"2026-09-03T03:00:00Z","target_time_utc":"2026-09-03T03:00:00Z","arrival_h":49.38333333333333,"hours_ago":0.0,"supported_detections_cumulative":11,"sources_cumulative":"VIIRS_NOAA20_NRT, VIIRS_NOAA21_NRT, VIIRS_SNPP_NRT","last_source":"VIIRS_NOAA20_NRT","last_satellite":"N20","last_instrument":"VIIRS","detected_area_km2":4.684529034598757,"product_type":"cumulative_active_fire_detection_extent"},"geometry":{"type":"MultiLineString","coordinates":[[[4.588362984912087,48.71518547126615],[4.589046260213066,48.717241447752514],[4.592707467234337,48.71919024202086],[4.595826152947979,48.71913168989736],[4.597968717844634,48.71763106060046],[4.597880088411467,48.715567468820694],[4.596003475905138,48.71323844777742],[4.59413241205554,48.71227974884392],[4.592165694139307,48.71212425027292],[4.59032041620596,48.71260062039151],[4.589032306793793,48.713596374692344],[4.588362984912087,48.71518547126615]],[[4.558840502719848,48.76528818899579],[4.556651508072584,48.76638754796083],[4.556014325831522,48.768155368356275],[4.556703816642414,48.76938429620047],[4.559550537115363,48.77186193575446],[4.562563329599316,48.77240574611249],[4.564697073116029,48.77178249724338],[4.567783421010115,48.77176808526568],[4.569715491742691,48.77086195466751],[4.570555066134266,48.76944297944708],[4.570214417084054,48.76810838147153],[4.565769103545896,48.76539797836858],[4.561652666844147,48.76478299568618],[4.558840502719848,48.76528818899579]],[[4.373350903518499,48.81783617913819],[4.369457843160053,48.818134555159865],[4.366711987391895,48.81903093790676],[4.363988927498551,48.82089239890736],[4.362727230001379,48.82273558892557],[4.362348378164256,48.824698833340534],[4.362848951151088,48.82665015401009],[4.365082711548861,48.83032103396587],[4.367674082720787,48.83232034793336],[4.371227273463933,48.83351267600513],[4.375201213468896,48.83371644128653],[4.378932333699203,48.832922077238216],[4.382425890359313,48.83119541904582],[4.386710810473643,48.83187387054955],[4.390668371379244,48.83156139309133],[4.393350903512162,48.830678015089234],[4.395529404066441,48.829318530543134],[4.39733409156404,48.826972370100854],[4.39764147875767,48.82434881258247],[4.396404985330387,48.821847281456925],[4.393813033165246,48.81984857145975],[4.390324497572447,48.81866895714805],[4.387287171613568,48.81840739470956],[4.383457240086679,48.818956772157435],[4.380447540179978,48.82028124725732],[4.377246601538969,48.81856789609551],[4.373350903518499,48.81783617913819]]]}}],"metadata":{"generated_at_utc":"2026-09-03T15:11:21.212149Z","product_type":"cumulative_active_fire_detection_extent","product_label":"Emprises cumulées des détections actives FIRMS","not_a_burn_perimeter":true,"not_a_continuous_fire_front":true,"not_an_arrival_time_interpolation":true,"snapshot_step_hours":6,"confidence_filter":{"VIIRS":["nominal","high"],"MODIS_minimum":30},"footprint_radius_m":{"VIIRS":300.0,"MODIS":750.0},"same_pass_neighbour_m":2000.0,"continuity_distance_m":3000.0,"clusters":[{"cluster_id":1,"first_supported_detection_utc":"2026-09-01T01:37:00Z","last_supported_detection_utc":"2026-09-03T03:00:00Z","pass_states":7,"published_snapshots":4,"final_detected_area_km2":1.1153854282815892}]},"bbox":[4.362348378164256,48.71212425027292,4.597968717844634,48.83371644128653]}