{"type":"FeatureCollection","name":"fire_progression_arrival_v1","features":[{"type":"Feature","properties":{"category":"arrival_step","arrival_snapshot_index":7,"first_detected_utc":"2026-08-06T03:49:00+00:00","first_detected_local":"2026-08-06T05:49:00+02:00","area_km2":5.188,"label":"Première détection FIRMS","model_version":"fire_progression_arrival_v1"},"geometry":{"type":"Polygon","coordinates":[[[4.3556241067749495,48.83686498826529],[4.355565639428209,48.834616975243314],[4.348755080014737,48.83469397325421],[4.348638747640329,48.83019792724906],[4.345233753999186,48.830236277678935],[4.3451177352360935,48.825740210371826],[4.348522435329963,48.82570186309542],[4.3484061430784475,48.821205780822034],[4.355214941219933,48.82112880180375],[4.355156509157828,48.81888075704603],[4.361964993690299,48.81880339351417],[4.362023719206594,48.821051435091036],[4.368832476937268,48.82097368068555],[4.368773457969404,48.818725642305445],[4.375581901893998,48.81864750342156],[4.375522594591112,48.816399463734406],[4.392542881140333,48.81620242855775],[4.392602921990746,48.81845046014381],[4.396007110529286,48.81841076073542],[4.396187704344334,48.825154823461304],[4.392783075607425,48.82519452776668],[4.392843137170363,48.82744254125056],[4.386033570653611,48.827521662326234],[4.386093343852884,48.82976967452878],[4.369068603708166,48.82996578893793],[4.3691866976424985,48.83446181585307],[4.3623761786712105,48.83453958944239],[4.362434939649238,48.83678759928246],[4.3556241067749495,48.83686498826529]]]}},{"type":"Feature","properties":{"category":"firms_extent_snapshot","snapshot_index":2,"pass_time_utc":"2026-08-05T20:51:00+00:00","dt_local":"2026-08-05T22:51:00+02:00","label":"Emprise FIRMS cumulée à ce passage","interpretation":"Enveloppe des détections FIRMS, pas une surface brûlée","cumulative":true,"point_count":2,"extent_method":"cumulative_detection_extent_smoothed_landmasked_web_v1","local_cluster_link_m":10000.0,"model_version":"fire_progression_arrival_v1"},"geometry":{"type":"Polygon","coordinates":[[[4.345667045914958,48.83044535583372],[4.346546259337296,48.83306695383341],[4.3494717470406234,48.83558017086564],[4.353082827925431,48.83681593863428],[4.357055734372027,48.83702887319694],[4.363833430538105,48.83608858299445],[4.367377924543923,48.83477154173149],[4.370203194562637,48.832142586411706],[4.370846211195726,48.82889302386048],[4.369623347338316,48.82638868676914],[4.367042228232142,48.8243839125899],[4.363495841137489,48.82318384192612],[4.3595239633540395,48.82297111865228],[4.352747894685469,48.82391117571775],[4.349266062018849,48.825191072495116],[4.346410351704465,48.827805489070734],[4.345667045914958,48.83044535583372]]]}},{"type":"Feature","properties":{"category":"observed_front","snapshot_index":2,"pass_time_utc":"2026-08-05T20:51:00+00:00","dt_local":"2026-08-05T22:51:00+02:00","area_km2":2.75,"label":"Activité observée","coherence_level":"indisponible","coherence_fraction":0.0,"projection_displayed":false,"model_version":"fire_progression_arrival_v1"},"geometry":{"type":"Polygon","coordinates":[[[4.3556241067749495,48.83686498826529],[4.355565639428209,48.834616975243314],[4.348755080014737,48.83469397325421],[4.348638747640329,48.83019792724906],[4.345233753999186,48.830236277678935],[4.3451177352360935,48.825740210371826],[4.348522435329963,48.82570186309542],[4.3484061430784475,48.821205780822034],[4.355214941219933,48.82112880180375],[4.355156509157828,48.81888075704603],[4.361964993690299,48.81880339351417],[4.362023719206594,48.821051435091036],[4.368832476937268,48.82097368068555],[4.368950530141512,48.82546974387251],[4.372355194866775,48.825430718076554],[4.372473561971553,48.829926759932704],[4.369068603708166,48.82996578893793],[4.3691866976424985,48.83446181585307],[4.3623761786712105,48.83453958944239],[4.362434939649238,48.83678759928246],[4.3556241067749495,48.83686498826529]]]}},{"type":"Feature","properties":{"category":"firms_extent_snapshot","snapshot_index":5,"pass_time_utc":"2026-08-06T01:43:00+00:00","dt_local":"2026-08-06T03:43:00+02:00","label":"Emprise FIRMS cumulée à ce passage","interpretation":"Enveloppe des détections FIRMS, pas une surface brûlée","cumulative":true,"point_count":8,"extent_method":"cumulative_detection_extent_smoothed_landmasked_web_v1","local_cluster_link_m":10000.0,"model_version":"fire_progression_arrival_v1"},"geometry":{"type":"Polygon","coordinates":[[[4.345667045914958,48.83044535583372],[4.346157360006813,48.83239771616945],[4.347439195740487,48.834125954683074],[4.351219797177712,48.83633102223105],[4.3560554081721055,48.83707269619685],[4.362946484381948,48.836247437259516],[4.365670062265543,48.83556164570739],[4.368046649880018,48.834355414717564],[4.37219125838893,48.82997161774893],[4.375546451371262,48.82899266753937],[4.379584634096514,48.828885644329965],[4.3815081121087704,48.828257602695565],[4.382749379624851,48.826924171702814],[4.382881365316335,48.82441415203299],[4.381509493077909,48.82296113043348],[4.37915589044069,48.822348995815155],[4.3758130774555895,48.82280449177449],[4.372023746215196,48.82256467237112],[4.367698593642793,48.823968295487205],[4.360607519153396,48.822927669335684],[4.353634662052053,48.82375239532957],[4.350130568314396,48.82475751965327],[4.347874676983889,48.826141698442314],[4.346081111544658,48.828430450124515],[4.345667045914958,48.83044535583372]]]}},{"type":"Feature","properties":{"category":"firms_extent_snapshot","snapshot_index":7,"pass_time_utc":"2026-08-06T03:49:00+00:00","dt_local":"2026-08-06T05:49:00+02:00","label":"Emprise FIRMS cumulée à ce passage","interpretation":"Enveloppe des détections FIRMS, pas une surface brûlée","cumulative":true,"point_count":11,"extent_method":"cumulative_detection_extent_smoothed_landmasked_web_v1","local_cluster_link_m":10000.0,"model_version":"fire_progression_arrival_v1"},"geometry":{"type":"Polygon","coordinates":[[[4.345667045914958,48.83044535583372],[4.346546259337296,48.83306695383341],[4.349535916475003,48.835615467321176],[4.353163699706543,48.83682973210488],[4.3580447332548395,48.83692052835764],[4.364771358060537,48.835854899474455],[4.370064519985986,48.83361142954488],[4.376074853914562,48.83362059185305],[4.38249989153527,48.831532803926585],[4.388596508319404,48.83185361544892],[4.392398732974529,48.83106621123151],[4.39484842102578,48.8298337871176],[4.396627399001275,48.8281739538844],[4.397671614849066,48.82574738049207],[4.397480343482564,48.82371793123568],[4.395890519513597,48.82130513225532],[4.393023583251744,48.819477676337144],[4.389315992006949,48.818513708130006],[4.385332032635372,48.81855993601962],[4.378990717415063,48.82063752622098],[4.373812306454073,48.82027726983403],[4.370855864189474,48.82060163123148],[4.364626367112088,48.823078854681434],[4.3595239633540395,48.82297111865228],[4.351810128143679,48.824144767446],[4.349266062018849,48.825191072495116],[4.347291420207154,48.8266799104551],[4.346056270227035,48.82848309362716],[4.345667045914958,48.83044535583372]]]}},{"type":"Feature","properties":{"category":"historical_support","snapshot_index":7,"pass_time_utc":"2026-08-06T03:49:00+00:00","dt_local":"2026-08-06T05:49:00+02:00","area_km2":5.188,"label":"Isoline temporelle","coherence_level":"indisponible","coherence_fraction":0.0,"projection_displayed":false,"model_version":"fire_progression_arrival_v1"},"geometry":{"type":"Polygon","coordinates":[[[4.3556241067749495,48.83686498826529],[4.355565639428209,48.834616975243314],[4.348755080014737,48.83469397325421],[4.348638747640329,48.83019792724906],[4.345233753999186,48.830236277678935],[4.3451177352360935,48.825740210371826],[4.348522435329963,48.82570186309542],[4.3484061430784475,48.821205780822034],[4.355214941219933,48.82112880180375],[4.355156509157828,48.81888075704603],[4.361964993690299,48.81880339351417],[4.362023719206594,48.821051435091036],[4.368832476937268,48.82097368068555],[4.368773457969404,48.818725642305445],[4.375581901893998,48.81864750342156],[4.375522594591112,48.816399463734406],[4.392542881140333,48.81620242855775],[4.392602921990746,48.81845046014381],[4.396007110529286,48.81841076073542],[4.396187704344334,48.825154823461304],[4.392783075607425,48.82519452776668],[4.392843137170363,48.82744254125056],[4.386033570653611,48.827521662326234],[4.386093343852884,48.82976967452878],[4.369068603708166,48.82996578893793],[4.3691866976424985,48.83446181585307],[4.3623761786712105,48.83453958944239],[4.362434939649238,48.83678759928246],[4.3556241067749495,48.83686498826529]]]}},{"type":"Feature","properties":{"category":"observed_front","snapshot_index":7,"pass_time_utc":"2026-08-06T03:49:00+00:00","dt_local":"2026-08-06T05:49:00+02:00","area_km2":5.188,"label":"Activité observée","coherence_level":"indisponible","coherence_fraction":0.0,"projection_displayed":false,"model_version":"fire_progression_arrival_v1"},"geometry":{"type":"Polygon","coordinates":[[[4.3556241067749495,48.83686498826529],[4.355565639428209,48.834616975243314],[4.348755080014737,48.83469397325421],[4.348638747640329,48.83019792724906],[4.345233753999186,48.830236277678935],[4.3451177352360935,48.825740210371826],[4.348522435329963,48.82570186309542],[4.3484061430784475,48.821205780822034],[4.355214941219933,48.82112880180375],[4.355156509157828,48.81888075704603],[4.361964993690299,48.81880339351417],[4.362023719206594,48.821051435091036],[4.368832476937268,48.82097368068555],[4.368773457969404,48.818725642305445],[4.375581901893998,48.81864750342156],[4.375522594591112,48.816399463734406],[4.392542881140333,48.81620242855775],[4.392602921990746,48.81845046014381],[4.396007110529286,48.81841076073542],[4.396187704344334,48.825154823461304],[4.392783075607425,48.82519452776668],[4.392843137170363,48.82744254125056],[4.386033570653611,48.827521662326234],[4.386093343852884,48.82976967452878],[4.369068603708166,48.82996578893793],[4.3691866976424985,48.83446181585307],[4.3623761786712105,48.83453958944239],[4.362434939649238,48.83678759928246],[4.3556241067749495,48.83686498826529]]]}},{"type":"Feature","properties":{"category":"historical_support","snapshot_index":8,"pass_time_utc":"2026-08-06T11:11:30+00:00","dt_local":"2026-08-06T13:11:30+02:00","area_km2":5.188,"label":"Isoline temporelle","coherence_level":"indisponible","coherence_fraction":0.0,"projection_displayed":false,"model_version":"fire_progression_arrival_v1"},"geometry":{"type":"Polygon","coordinates":[[[4.3556241067749495,48.83686498826529],[4.355565639428209,48.834616975243314],[4.348755080014737,48.83469397325421],[4.348638747640329,48.83019792724906],[4.345233753999186,48.830236277678935],[4.3451177352360935,48.825740210371826],[4.348522435329963,48.82570186309542],[4.3484061430784475,48.821205780822034],[4.355214941219933,48.82112880180375],[4.355156509157828,48.81888075704603],[4.361964993690299,48.81880339351417],[4.362023719206594,48.821051435091036],[4.368832476937268,48.82097368068555],[4.368773457969404,48.818725642305445],[4.375581901893998,48.81864750342156],[4.375522594591112,48.816399463734406],[4.392542881140333,48.81620242855775],[4.392602921990746,48.81845046014381],[4.396007110529286,48.81841076073542],[4.396187704344334,48.825154823461304],[4.392783075607425,48.82519452776668],[4.392843137170363,48.82744254125056],[4.386033570653611,48.827521662326234],[4.386093343852884,48.82976967452878],[4.369068603708166,48.82996578893793],[4.3691866976424985,48.83446181585307],[4.3623761786712105,48.83453958944239],[4.362434939649238,48.83678759928246],[4.3556241067749495,48.83686498826529]]]}},{"type":"Feature","properties":{"category":"observed_front","snapshot_index":8,"pass_time_utc":"2026-08-06T11:11:30+00:00","dt_local":"2026-08-06T13:11:30+02:00","area_km2":1.0,"label":"Activité observée","coherence_level":"indisponible","coherence_fraction":0.0,"projection_displayed":false,"model_version":"fire_progression_arrival_v1"},"geometry":{"type":"Polygon","coordinates":[[[4.3724143758672085,48.82767874127166],[4.372355194866775,48.825430718076554],[4.368950530141512,48.82546974387251],[4.368773457969404,48.818725642305445],[4.3823903253629375,48.81856897686415],[4.382509542228986,48.823065036218104],[4.385914039717922,48.82302562432167],[4.385973802608845,48.82527364558934],[4.38256915837247,48.82531305910623],[4.382628779657148,48.827561077463656],[4.3724143758672085,48.82767874127166]]]}},{"type":"Feature","properties":{"category":"firms_extent_snapshot","snapshot_index":9,"pass_time_utc":"2026-08-06T19:51:00+00:00","dt_local":"2026-08-06T21:51:00+02:00","label":"Emprise FIRMS cumulée à ce passage","interpretation":"Enveloppe des détections FIRMS, pas une surface brûlée","cumulative":true,"point_count":15,"extent_method":"cumulative_detection_extent_smoothed_landmasked_web_v1","local_cluster_link_m":10000.0,"model_version":"fire_progression_arrival_v1"},"geometry":{"type":"Polygon","coordinates":[[[4.345667045914958,48.83044535583372],[4.346546259337296,48.83306695383341],[4.349535916475003,48.835615467321176],[4.353163699706543,48.83682973210488],[4.3580447332548395,48.83692052835764],[4.364771358060537,48.835854899474455],[4.370064519985986,48.83361142954488],[4.376074853914562,48.83362059185305],[4.38249989153527,48.831532803926585],[4.388596508319404,48.83185361544892],[4.392398732974529,48.83106621123151],[4.39484842102578,48.8298337871176],[4.396627399001275,48.8281739538844],[4.397671614849066,48.82574738049207],[4.397480343482564,48.82371793123568],[4.395223715245965,48.820739509031455],[4.393023583251744,48.819477676337144],[4.390371997991352,48.81867956152506],[4.386320622405789,48.81845135561227],[4.380550648169549,48.8195232270031],[4.37445964735135,48.817935074604385],[4.370393945326131,48.81796966183804],[4.3659451501008135,48.819421968635204],[4.361623557830076,48.82267815818209],[4.352827983234606,48.823895561085266],[4.349993347152869,48.82482032709029],[4.346790858831608,48.827253275107374],[4.345667045914958,48.83044535583372]]]}},{"type":"Feature","properties":{"category":"historical_support","snapshot_index":9,"pass_time_utc":"2026-08-06T19:51:00+00:00","dt_local":"2026-08-06T21:51:00+02:00","area_km2":5.188,"label":"Isoline temporelle","coherence_level":"indisponible","coherence_fraction":0.0,"projection_displayed":false,"model_version":"fire_progression_arrival_v1"},"geometry":{"type":"Polygon","coordinates":[[[4.3556241067749495,48.83686498826529],[4.355565639428209,48.834616975243314],[4.348755080014737,48.83469397325421],[4.348638747640329,48.83019792724906],[4.345233753999186,48.830236277678935],[4.3451177352360935,48.825740210371826],[4.348522435329963,48.82570186309542],[4.3484061430784475,48.821205780822034],[4.355214941219933,48.82112880180375],[4.355156509157828,48.81888075704603],[4.361964993690299,48.81880339351417],[4.362023719206594,48.821051435091036],[4.368832476937268,48.82097368068555],[4.368773457969404,48.818725642305445],[4.375581901893998,48.81864750342156],[4.375522594591112,48.816399463734406],[4.392542881140333,48.81620242855775],[4.392602921990746,48.81845046014381],[4.396007110529286,48.81841076073542],[4.396187704344334,48.825154823461304],[4.392783075607425,48.82519452776668],[4.392843137170363,48.82744254125056],[4.386033570653611,48.827521662326234],[4.386093343852884,48.82976967452878],[4.369068603708166,48.82996578893793],[4.3691866976424985,48.83446181585307],[4.3623761786712105,48.83453958944239],[4.362434939649238,48.83678759928246],[4.3556241067749495,48.83686498826529]]]}},{"type":"Feature","properties":{"category":"observed_front","snapshot_index":9,"pass_time_utc":"2026-08-06T19:51:00+00:00","dt_local":"2026-08-06T21:51:00+02:00","area_km2":0.312,"label":"Activité observée","coherence_level":"indisponible","coherence_fraction":0.0,"projection_displayed":false,"model_version":"fire_progression_arrival_v1"},"geometry":{"type":"Polygon","coordinates":[[[4.372355194866775,48.825430718076554],[4.372296018969592,48.82318269035098],[4.368891500994418,48.823221714542434],[4.368832476937268,48.82097368068555],[4.372236848175,48.82093465809854],[4.372177682482337,48.81868662132279],[4.375581901893998,48.81864750342156],[4.375641214310799,48.82089553858895],[4.379045575332024,48.82085632215699],[4.379105039599522,48.823104351188604],[4.375700531842175,48.82314356923297],[4.375759854488788,48.82539159535005],[4.372355194866775,48.825430718076554]]]}},{"type":"Feature","properties":{"category":"historical_support","snapshot_index":10,"pass_time_utc":"2026-08-07T00:30:00+00:00","dt_local":"2026-08-07T02:30:00+02:00","area_km2":5.188,"label":"Isoline temporelle","coherence_level":"indisponible","coherence_fraction":0.0,"projection_displayed":false,"model_version":"fire_progression_arrival_v1"},"geometry":{"type":"Polygon","coordinates":[[[4.3556241067749495,48.83686498826529],[4.355565639428209,48.834616975243314],[4.348755080014737,48.83469397325421],[4.348638747640329,48.83019792724906],[4.345233753999186,48.830236277678935],[4.3451177352360935,48.825740210371826],[4.348522435329963,48.82570186309542],[4.3484061430784475,48.821205780822034],[4.355214941219933,48.82112880180375],[4.355156509157828,48.81888075704603],[4.361964993690299,48.81880339351417],[4.362023719206594,48.821051435091036],[4.368832476937268,48.82097368068555],[4.368773457969404,48.818725642305445],[4.375581901893998,48.81864750342156],[4.375522594591112,48.816399463734406],[4.392542881140333,48.81620242855775],[4.392602921990746,48.81845046014381],[4.396007110529286,48.81841076073542],[4.396187704344334,48.825154823461304],[4.392783075607425,48.82519452776668],[4.392843137170363,48.82744254125056],[4.386033570653611,48.827521662326234],[4.386093343852884,48.82976967452878],[4.369068603708166,48.82996578893793],[4.3691866976424985,48.83446181585307],[4.3623761786712105,48.83453958944239],[4.362434939649238,48.83678759928246],[4.3556241067749495,48.83686498826529]]]}},{"type":"Feature","properties":{"category":"observed_front","snapshot_index":10,"pass_time_utc":"2026-08-07T00:30:00+00:00","dt_local":"2026-08-07T02:30:00+02:00","area_km2":1.562,"label":"Activité observée","coherence_level":"indisponible","coherence_fraction":0.0,"projection_displayed":false,"model_version":"fire_progression_arrival_v1"},"geometry":{"type":"Polygon","coordinates":[[[4.369009564379208,48.82771776867222],[4.368950530141512,48.82546974387251],[4.365545860325646,48.82550867273775],[4.365428100610251,48.82101260634978],[4.368832476937268,48.82097368068555],[4.368773457969404,48.818725642305445],[4.375581901893998,48.81864750342156],[4.375522594591112,48.816399463734406],[4.3857347819615295,48.816281533369946],[4.386033570653611,48.827521662326234],[4.369009564379208,48.82771776867222]]]}},{"type":"Feature","properties":{"category":"historical_support","snapshot_index":11,"pass_time_utc":"2026-08-07T01:07:00+00:00","dt_local":"2026-08-07T03:07:00+02:00","area_km2":5.188,"label":"Isoline temporelle","coherence_level":"indisponible","coherence_fraction":0.0,"projection_displayed":false,"model_version":"fire_progression_arrival_v1"},"geometry":{"type":"Polygon","coordinates":[[[4.3556241067749495,48.83686498826529],[4.355565639428209,48.834616975243314],[4.348755080014737,48.83469397325421],[4.348638747640329,48.83019792724906],[4.345233753999186,48.830236277678935],[4.3451177352360935,48.825740210371826],[4.348522435329963,48.82570186309542],[4.3484061430784475,48.821205780822034],[4.355214941219933,48.82112880180375],[4.355156509157828,48.81888075704603],[4.361964993690299,48.81880339351417],[4.362023719206594,48.821051435091036],[4.368832476937268,48.82097368068555],[4.368773457969404,48.818725642305445],[4.375581901893998,48.81864750342156],[4.375522594591112,48.816399463734406],[4.392542881140333,48.81620242855775],[4.392602921990746,48.81845046014381],[4.396007110529286,48.81841076073542],[4.396187704344334,48.825154823461304],[4.392783075607425,48.82519452776668],[4.392843137170363,48.82744254125056],[4.386033570653611,48.827521662326234],[4.386093343852884,48.82976967452878],[4.369068603708166,48.82996578893793],[4.3691866976424985,48.83446181585307],[4.3623761786712105,48.83453958944239],[4.362434939649238,48.83678759928246],[4.3556241067749495,48.83686498826529]]]}},{"type":"Feature","properties":{"category":"historical_support","snapshot_index":12,"pass_time_utc":"2026-08-07T01:24:00+00:00","dt_local":"2026-08-07T03:24:00+02:00","area_km2":5.188,"label":"Isoline temporelle","coherence_level":"indisponible","coherence_fraction":0.0,"projection_displayed":false,"model_version":"fire_progression_arrival_v1"},"geometry":{"type":"Polygon","coordinates":[[[4.3556241067749495,48.83686498826529],[4.355565639428209,48.834616975243314],[4.348755080014737,48.83469397325421],[4.348638747640329,48.83019792724906],[4.345233753999186,48.830236277678935],[4.3451177352360935,48.825740210371826],[4.348522435329963,48.82570186309542],[4.3484061430784475,48.821205780822034],[4.355214941219933,48.82112880180375],[4.355156509157828,48.81888075704603],[4.361964993690299,48.81880339351417],[4.362023719206594,48.821051435091036],[4.368832476937268,48.82097368068555],[4.368773457969404,48.818725642305445],[4.375581901893998,48.81864750342156],[4.375522594591112,48.816399463734406],[4.392542881140333,48.81620242855775],[4.392602921990746,48.81845046014381],[4.396007110529286,48.81841076073542],[4.396187704344334,48.825154823461304],[4.392783075607425,48.82519452776668],[4.392843137170363,48.82744254125056],[4.386033570653611,48.827521662326234],[4.386093343852884,48.82976967452878],[4.369068603708166,48.82996578893793],[4.3691866976424985,48.83446181585307],[4.3623761786712105,48.83453958944239],[4.362434939649238,48.83678759928246],[4.3556241067749495,48.83686498826529]]]}},{"type":"Feature","properties":{"category":"historical_support","snapshot_index":13,"pass_time_utc":"2026-08-07T02:11:00+00:00","dt_local":"2026-08-07T04:11:00+02:00","area_km2":5.188,"label":"Isoline temporelle","coherence_level":"indisponible","coherence_fraction":0.0,"projection_displayed":false,"model_version":"fire_progression_arrival_v1"},"geometry":{"type":"Polygon","coordinates":[[[4.3556241067749495,48.83686498826529],[4.355565639428209,48.834616975243314],[4.348755080014737,48.83469397325421],[4.348638747640329,48.83019792724906],[4.345233753999186,48.830236277678935],[4.3451177352360935,48.825740210371826],[4.348522435329963,48.82570186309542],[4.3484061430784475,48.821205780822034],[4.355214941219933,48.82112880180375],[4.355156509157828,48.81888075704603],[4.361964993690299,48.81880339351417],[4.362023719206594,48.821051435091036],[4.368832476937268,48.82097368068555],[4.368773457969404,48.818725642305445],[4.375581901893998,48.81864750342156],[4.375522594591112,48.816399463734406],[4.392542881140333,48.81620242855775],[4.392602921990746,48.81845046014381],[4.396007110529286,48.81841076073542],[4.396187704344334,48.825154823461304],[4.392783075607425,48.82519452776668],[4.392843137170363,48.82744254125056],[4.386033570653611,48.827521662326234],[4.386093343852884,48.82976967452878],[4.369068603708166,48.82996578893793],[4.3691866976424985,48.83446181585307],[4.3623761786712105,48.83453958944239],[4.362434939649238,48.83678759928246],[4.3556241067749495,48.83686498826529]]]}},{"type":"Feature","properties":{"category":"firms_extent_snapshot","snapshot_index":14,"pass_time_utc":"2026-08-07T02:45:00+00:00","dt_local":"2026-08-07T04:45:00+02:00","label":"Emprise FIRMS cumulée à ce passage","interpretation":"Enveloppe des détections FIRMS, pas une surface brûlée","cumulative":true,"point_count":26,"extent_method":"cumulative_detection_extent_smoothed_landmasked_web_v1","local_cluster_link_m":10000.0,"model_version":"fire_progression_arrival_v1"},"geometry":{"type":"Polygon","coordinates":[[[4.345667045914958,48.83044535583372],[4.346546259337296,48.83306695383341],[4.349535916475003,48.835615467321176],[4.353163699706543,48.83682973210488],[4.3580447332548395,48.83692052835764],[4.364771358060537,48.835854899474455],[4.370064519985986,48.83361142954488],[4.376074853914562,48.83362059185305],[4.38249989153527,48.831532803926585],[4.388596508319404,48.83185361544892],[4.392398732974529,48.83106621123151],[4.39484842102578,48.8298337871176],[4.396627399001275,48.8281739538844],[4.397671614849066,48.82574738049207],[4.397480343482564,48.82371793123568],[4.395223715245965,48.820739509031455],[4.393023583251744,48.819477676337144],[4.390371997991352,48.81867956152506],[4.386320622405789,48.81845135561227],[4.380550648169549,48.8195232270031],[4.37445964735135,48.817935074604385],[4.370393945326131,48.81796966183804],[4.3659451501008135,48.819421968635204],[4.361623557830076,48.82267815818209],[4.352827983234606,48.823895561085266],[4.349993347152869,48.82482032709029],[4.346790858831608,48.827253275107374],[4.345667045914958,48.83044535583372]]]}},{"type":"Feature","properties":{"category":"historical_support","snapshot_index":14,"pass_time_utc":"2026-08-07T02:45:00+00:00","dt_local":"2026-08-07T04:45:00+02:00","area_km2":5.188,"label":"Isoline temporelle","coherence_level":"indisponible","coherence_fraction":0.0,"projection_displayed":false,"model_version":"fire_progression_arrival_v1"},"geometry":{"type":"Polygon","coordinates":[[[4.3556241067749495,48.83686498826529],[4.355565639428209,48.834616975243314],[4.348755080014737,48.83469397325421],[4.348638747640329,48.83019792724906],[4.345233753999186,48.830236277678935],[4.3451177352360935,48.825740210371826],[4.348522435329963,48.82570186309542],[4.3484061430784475,48.821205780822034],[4.355214941219933,48.82112880180375],[4.355156509157828,48.81888075704603],[4.361964993690299,48.81880339351417],[4.362023719206594,48.821051435091036],[4.368832476937268,48.82097368068555],[4.368773457969404,48.818725642305445],[4.375581901893998,48.81864750342156],[4.375522594591112,48.816399463734406],[4.392542881140333,48.81620242855775],[4.392602921990746,48.81845046014381],[4.396007110529286,48.81841076073542],[4.396187704344334,48.825154823461304],[4.392783075607425,48.82519452776668],[4.392843137170363,48.82744254125056],[4.386033570653611,48.827521662326234],[4.386093343852884,48.82976967452878],[4.369068603708166,48.82996578893793],[4.3691866976424985,48.83446181585307],[4.3623761786712105,48.83453958944239],[4.362434939649238,48.83678759928246],[4.3556241067749495,48.83686498826529]]]}},{"type":"Feature","properties":{"category":"firms_extent_snapshot","snapshot_index":15,"pass_time_utc":"2026-08-07T03:04:00+00:00","dt_local":"2026-08-07T05:04:00+02:00","label":"Emprise FIRMS cumulée à ce passage","interpretation":"Enveloppe des détections FIRMS, pas une surface brûlée","cumulative":true,"point_count":27,"extent_method":"cumulative_detection_extent_smoothed_landmasked_web_v1","local_cluster_link_m":10000.0,"model_version":"fire_progression_arrival_v1"},"geometry":{"type":"Polygon","coordinates":[[[4.345667045914958,48.83044535583372],[4.346546259337296,48.83306695383341],[4.349535916475003,48.835615467321176],[4.353163699706543,48.83682973210488],[4.3580447332548395,48.83692052835764],[4.364771358060537,48.835854899474455],[4.370064519985986,48.83361142954488],[4.376074853914562,48.83362059185305],[4.38249989153527,48.831532803926585],[4.388596508319404,48.83185361544892],[4.392398732974529,48.83106621123151],[4.39484842102578,48.8298337871176],[4.396627399001275,48.8281739538844],[4.397671614849066,48.82574738049207],[4.397480343482564,48.82371793123568],[4.395223715245965,48.820739509031455],[4.393023583251744,48.819477676337144],[4.390371997991352,48.81867956152506],[4.386320622405789,48.81845135561227],[4.380550648169549,48.8195232270031],[4.37445964735135,48.817935074604385],[4.370393945326131,48.81796966183804],[4.3659451501008135,48.819421968635204],[4.361623557830076,48.82267815818209],[4.352827983234606,48.823895561085266],[4.349993347152869,48.82482032709029],[4.346790858831608,48.827253275107374],[4.345667045914958,48.83044535583372]]]}},{"type":"Feature","properties":{"category":"historical_support","snapshot_index":15,"pass_time_utc":"2026-08-07T03:04:00+00:00","dt_local":"2026-08-07T05:04:00+02:00","area_km2":5.188,"label":"Isoline temporelle","coherence_level":"indisponible","coherence_fraction":0.0,"projection_displayed":false,"model_version":"fire_progression_arrival_v1"},"geometry":{"type":"Polygon","coordinates":[[[4.3556241067749495,48.83686498826529],[4.355565639428209,48.834616975243314],[4.348755080014737,48.83469397325421],[4.348638747640329,48.83019792724906],[4.345233753999186,48.830236277678935],[4.3451177352360935,48.825740210371826],[4.348522435329963,48.82570186309542],[4.3484061430784475,48.821205780822034],[4.355214941219933,48.82112880180375],[4.355156509157828,48.81888075704603],[4.361964993690299,48.81880339351417],[4.362023719206594,48.821051435091036],[4.368832476937268,48.82097368068555],[4.368773457969404,48.818725642305445],[4.375581901893998,48.81864750342156],[4.375522594591112,48.816399463734406],[4.392542881140333,48.81620242855775],[4.392602921990746,48.81845046014381],[4.396007110529286,48.81841076073542],[4.396187704344334,48.825154823461304],[4.392783075607425,48.82519452776668],[4.392843137170363,48.82744254125056],[4.386033570653611,48.827521662326234],[4.386093343852884,48.82976967452878],[4.369068603708166,48.82996578893793],[4.3691866976424985,48.83446181585307],[4.3623761786712105,48.83453958944239],[4.362434939649238,48.83678759928246],[4.3556241067749495,48.83686498826529]]]}},{"type":"Feature","properties":{"category":"historical_support","snapshot_index":16,"pass_time_utc":"2026-08-07T11:57:00+00:00","dt_local":"2026-08-07T13:57:00+02:00","area_km2":5.188,"label":"Isoline temporelle","coherence_level":"indisponible","coherence_fraction":0.0,"projection_displayed":false,"model_version":"fire_progression_arrival_v1"},"geometry":{"type":"Polygon","coordinates":[[[4.3556241067749495,48.83686498826529],[4.355565639428209,48.834616975243314],[4.348755080014737,48.83469397325421],[4.348638747640329,48.83019792724906],[4.345233753999186,48.830236277678935],[4.3451177352360935,48.825740210371826],[4.348522435329963,48.82570186309542],[4.3484061430784475,48.821205780822034],[4.355214941219933,48.82112880180375],[4.355156509157828,48.81888075704603],[4.361964993690299,48.81880339351417],[4.362023719206594,48.821051435091036],[4.368832476937268,48.82097368068555],[4.368773457969404,48.818725642305445],[4.375581901893998,48.81864750342156],[4.375522594591112,48.816399463734406],[4.392542881140333,48.81620242855775],[4.392602921990746,48.81845046014381],[4.396007110529286,48.81841076073542],[4.396187704344334,48.825154823461304],[4.392783075607425,48.82519452776668],[4.392843137170363,48.82744254125056],[4.386033570653611,48.827521662326234],[4.386093343852884,48.82976967452878],[4.369068603708166,48.82996578893793],[4.3691866976424985,48.83446181585307],[4.3623761786712105,48.83453958944239],[4.362434939649238,48.83678759928246],[4.3556241067749495,48.83686498826529]]]}},{"type":"Feature","properties":{"category":"historical_support","snapshot_index":17,"pass_time_utc":"2026-08-07T12:32:00+00:00","dt_local":"2026-08-07T14:32:00+02:00","area_km2":5.188,"label":"Isoline temporelle","coherence_level":"indisponible","coherence_fraction":0.0,"projection_displayed":false,"model_version":"fire_progression_arrival_v1"},"geometry":{"type":"Polygon","coordinates":[[[4.3556241067749495,48.83686498826529],[4.355565639428209,48.834616975243314],[4.348755080014737,48.83469397325421],[4.348638747640329,48.83019792724906],[4.345233753999186,48.830236277678935],[4.3451177352360935,48.825740210371826],[4.348522435329963,48.82570186309542],[4.3484061430784475,48.821205780822034],[4.355214941219933,48.82112880180375],[4.355156509157828,48.81888075704603],[4.361964993690299,48.81880339351417],[4.362023719206594,48.821051435091036],[4.368832476937268,48.82097368068555],[4.368773457969404,48.818725642305445],[4.375581901893998,48.81864750342156],[4.375522594591112,48.816399463734406],[4.392542881140333,48.81620242855775],[4.392602921990746,48.81845046014381],[4.396007110529286,48.81841076073542],[4.396187704344334,48.825154823461304],[4.392783075607425,48.82519452776668],[4.392843137170363,48.82744254125056],[4.386033570653611,48.827521662326234],[4.386093343852884,48.82976967452878],[4.369068603708166,48.82996578893793],[4.3691866976424985,48.83446181585307],[4.3623761786712105,48.83453958944239],[4.362434939649238,48.83678759928246],[4.3556241067749495,48.83686498826529]]]}},{"type":"Feature","properties":{"category":"firms_extent_snapshot","snapshot_index":18,"pass_time_utc":"2026-08-07T12:51:00+00:00","dt_local":"2026-08-07T14:51:00+02:00","label":"Emprise FIRMS cumulée à ce passage","interpretation":"Enveloppe des détections FIRMS, pas une surface brûlée","cumulative":true,"point_count":30,"extent_method":"cumulative_detection_extent_smoothed_landmasked_web_v1","local_cluster_link_m":10000.0,"model_version":"fire_progression_arrival_v1"},"geometry":{"type":"Polygon","coordinates":[[[4.345667045914958,48.83044535583372],[4.346546259337296,48.83306695383341],[4.349535916475003,48.835615467321176],[4.353163699706543,48.83682973210488],[4.3580447332548395,48.83692052835764],[4.364771358060537,48.835854899474455],[4.370064519985986,48.83361142954488],[4.376074853914562,48.83362059185305],[4.38249989153527,48.831532803926585],[4.388596508319404,48.83185361544892],[4.392398732974529,48.83106621123151],[4.39484842102578,48.8298337871176],[4.396627399001275,48.8281739538844],[4.397671614849066,48.82574738049207],[4.397480343482564,48.82371793123568],[4.395223715245965,48.820739509031455],[4.393023583251744,48.819477676337144],[4.390371997991352,48.81867956152506],[4.386320622405789,48.81845135561227],[4.380550648169549,48.8195232270031],[4.37445964735135,48.817935074604385],[4.370393945326131,48.81796966183804],[4.3659451501008135,48.819421968635204],[4.361623557830076,48.82267815818209],[4.352827983234606,48.823895561085266],[4.349993347152869,48.82482032709029],[4.346790858831608,48.827253275107374],[4.345667045914958,48.83044535583372]]]}},{"type":"Feature","properties":{"category":"historical_support","snapshot_index":18,"pass_time_utc":"2026-08-07T12:51:00+00:00","dt_local":"2026-08-07T14:51:00+02:00","area_km2":5.188,"label":"Isoline temporelle","coherence_level":"indisponible","coherence_fraction":0.0,"projection_displayed":false,"model_version":"fire_progression_arrival_v1"},"geometry":{"type":"Polygon","coordinates":[[[4.3556241067749495,48.83686498826529],[4.355565639428209,48.834616975243314],[4.348755080014737,48.83469397325421],[4.348638747640329,48.83019792724906],[4.345233753999186,48.830236277678935],[4.3451177352360935,48.825740210371826],[4.348522435329963,48.82570186309542],[4.3484061430784475,48.821205780822034],[4.355214941219933,48.82112880180375],[4.355156509157828,48.81888075704603],[4.361964993690299,48.81880339351417],[4.362023719206594,48.821051435091036],[4.368832476937268,48.82097368068555],[4.368773457969404,48.818725642305445],[4.375581901893998,48.81864750342156],[4.375522594591112,48.816399463734406],[4.392542881140333,48.81620242855775],[4.392602921990746,48.81845046014381],[4.396007110529286,48.81841076073542],[4.396187704344334,48.825154823461304],[4.392783075607425,48.82519452776668],[4.392843137170363,48.82744254125056],[4.386033570653611,48.827521662326234],[4.386093343852884,48.82976967452878],[4.369068603708166,48.82996578893793],[4.3691866976424985,48.83446181585307],[4.3623761786712105,48.83453958944239],[4.362434939649238,48.83678759928246],[4.3556241067749495,48.83686498826529]]]}},{"type":"Feature","properties":{"category":"historical_support","snapshot_index":19,"pass_time_utc":"2026-08-08T01:05:00+00:00","dt_local":"2026-08-08T03:05:00+02:00","area_km2":5.188,"label":"Isoline temporelle","coherence_level":"indisponible","coherence_fraction":0.0,"projection_displayed":false,"model_version":"fire_progression_arrival_v1"},"geometry":{"type":"Polygon","coordinates":[[[4.3556241067749495,48.83686498826529],[4.355565639428209,48.834616975243314],[4.348755080014737,48.83469397325421],[4.348638747640329,48.83019792724906],[4.345233753999186,48.830236277678935],[4.3451177352360935,48.825740210371826],[4.348522435329963,48.82570186309542],[4.3484061430784475,48.821205780822034],[4.355214941219933,48.82112880180375],[4.355156509157828,48.81888075704603],[4.361964993690299,48.81880339351417],[4.362023719206594,48.821051435091036],[4.368832476937268,48.82097368068555],[4.368773457969404,48.818725642305445],[4.375581901893998,48.81864750342156],[4.375522594591112,48.816399463734406],[4.392542881140333,48.81620242855775],[4.392602921990746,48.81845046014381],[4.396007110529286,48.81841076073542],[4.396187704344334,48.825154823461304],[4.392783075607425,48.82519452776668],[4.392843137170363,48.82744254125056],[4.386033570653611,48.827521662326234],[4.386093343852884,48.82976967452878],[4.369068603708166,48.82996578893793],[4.3691866976424985,48.83446181585307],[4.3623761786712105,48.83453958944239],[4.362434939649238,48.83678759928246],[4.3556241067749495,48.83686498826529]]]}},{"type":"Feature","properties":{"category":"historical_support","snapshot_index":20,"pass_time_utc":"2026-08-08T01:52:00+00:00","dt_local":"2026-08-08T03:52:00+02:00","area_km2":5.188,"label":"Isoline temporelle","coherence_level":"indisponible","coherence_fraction":0.0,"projection_displayed":false,"model_version":"fire_progression_arrival_v1"},"geometry":{"type":"Polygon","coordinates":[[[4.3556241067749495,48.83686498826529],[4.355565639428209,48.834616975243314],[4.348755080014737,48.83469397325421],[4.348638747640329,48.83019792724906],[4.345233753999186,48.830236277678935],[4.3451177352360935,48.825740210371826],[4.348522435329963,48.82570186309542],[4.3484061430784475,48.821205780822034],[4.355214941219933,48.82112880180375],[4.355156509157828,48.81888075704603],[4.361964993690299,48.81880339351417],[4.362023719206594,48.821051435091036],[4.368832476937268,48.82097368068555],[4.368773457969404,48.818725642305445],[4.375581901893998,48.81864750342156],[4.375522594591112,48.816399463734406],[4.392542881140333,48.81620242855775],[4.392602921990746,48.81845046014381],[4.396007110529286,48.81841076073542],[4.396187704344334,48.825154823461304],[4.392783075607425,48.82519452776668],[4.392843137170363,48.82744254125056],[4.386033570653611,48.827521662326234],[4.386093343852884,48.82976967452878],[4.369068603708166,48.82996578893793],[4.3691866976424985,48.83446181585307],[4.3623761786712105,48.83453958944239],[4.362434939649238,48.83678759928246],[4.3556241067749495,48.83686498826529]]]}},{"type":"Feature","properties":{"category":"firms_extent_snapshot","snapshot_index":21,"pass_time_utc":"2026-08-08T02:28:00+00:00","dt_local":"2026-08-08T04:28:00+02:00","label":"Emprise FIRMS cumulée à ce passage","interpretation":"Enveloppe des détections FIRMS, pas une surface brûlée","cumulative":true,"point_count":33,"extent_method":"cumulative_detection_extent_smoothed_landmasked_web_v1","local_cluster_link_m":10000.0,"model_version":"fire_progression_arrival_v1"},"geometry":{"type":"Polygon","coordinates":[[[4.345667045914958,48.83044535583372],[4.346546259337296,48.83306695383341],[4.349535916475003,48.835615467321176],[4.353163699706543,48.83682973210488],[4.3580447332548395,48.83692052835764],[4.364771358060537,48.835854899474455],[4.370064519985986,48.83361142954488],[4.376074853914562,48.83362059185305],[4.38249989153527,48.831532803926585],[4.388596508319404,48.83185361544892],[4.392398732974529,48.83106621123151],[4.39484842102578,48.8298337871176],[4.396627399001275,48.8281739538844],[4.397671614849066,48.82574738049207],[4.397480343482564,48.82371793123568],[4.395223715245965,48.820739509031455],[4.393023583251744,48.819477676337144],[4.390371997991352,48.81867956152506],[4.386320622405789,48.81845135561227],[4.380550648169549,48.8195232270031],[4.37445964735135,48.817935074604385],[4.370393945326131,48.81796966183804],[4.3659451501008135,48.819421968635204],[4.361623557830076,48.82267815818209],[4.352827983234606,48.823895561085266],[4.349993347152869,48.82482032709029],[4.346790858831608,48.827253275107374],[4.345667045914958,48.83044535583372]]]}},{"type":"Feature","properties":{"category":"historical_support","snapshot_index":21,"pass_time_utc":"2026-08-08T02:28:00+00:00","dt_local":"2026-08-08T04:28:00+02:00","area_km2":5.188,"label":"Isoline temporelle","coherence_level":"indisponible","coherence_fraction":0.0,"projection_displayed":false,"model_version":"fire_progression_arrival_v1"},"geometry":{"type":"Polygon","coordinates":[[[4.3556241067749495,48.83686498826529],[4.355565639428209,48.834616975243314],[4.348755080014737,48.83469397325421],[4.348638747640329,48.83019792724906],[4.345233753999186,48.830236277678935],[4.3451177352360935,48.825740210371826],[4.348522435329963,48.82570186309542],[4.3484061430784475,48.821205780822034],[4.355214941219933,48.82112880180375],[4.355156509157828,48.81888075704603],[4.361964993690299,48.81880339351417],[4.362023719206594,48.821051435091036],[4.368832476937268,48.82097368068555],[4.368773457969404,48.818725642305445],[4.375581901893998,48.81864750342156],[4.375522594591112,48.816399463734406],[4.392542881140333,48.81620242855775],[4.392602921990746,48.81845046014381],[4.396007110529286,48.81841076073542],[4.396187704344334,48.825154823461304],[4.392783075607425,48.82519452776668],[4.392843137170363,48.82744254125056],[4.386033570653611,48.827521662326234],[4.386093343852884,48.82976967452878],[4.369068603708166,48.82996578893793],[4.3691866976424985,48.83446181585307],[4.3623761786712105,48.83453958944239],[4.362434939649238,48.83678759928246],[4.3556241067749495,48.83686498826529]]]}}]}