{"type":"FeatureCollection","name":"detection_envelopes","crs":{"type":"name","properties":{"name":"urn:ogc:def:crs:OGC:1.3:CRS84"}},"features":[{"type":"Feature","properties":{"cluster_id":1,"snapshot_index":1,"estimated_time_utc":"2026-09-07T02:28:00Z","observed_until_utc":"2026-09-07T02:28:00Z","target_time_utc":"2026-09-07T02:28:00Z","arrival_h":0.0,"hours_ago":0.6,"supported_detections_cumulative":3,"sources_cumulative":"VIIRS_NOAA21_NRT","last_source":"VIIRS_NOAA21_NRT","last_satellite":"N21","last_instrument":"VIIRS","detected_area_km2":0.6430282615247468,"product_type":"cumulative_active_fire_detection_extent"},"geometry":{"type":"LineString","coordinates":[[6.098048835011257,49.3219936188512],[6.093930397068823,49.32192363335659],[6.091592447782534,49.32290524405454],[6.090770144035958,49.32489723257097],[6.092343661354735,49.326685840739756],[6.09498791033459,49.327244438637855],[6.098111807875584,49.32649148943991],[6.101943067795786,49.326669637592836],[6.103827915504554,49.32577451125444],[6.106477900970919,49.322973341282875],[6.105765974494031,49.32096327369353],[6.103088307732548,49.3198709666666],[6.100295654804699,49.32021551683092],[6.098048835011257,49.3219936188512]]}},{"type":"Feature","properties":{"cluster_id":1,"snapshot_index":2,"estimated_time_utc":"2026-09-07T03:04:00Z","observed_until_utc":"2026-09-07T03:04:00Z","target_time_utc":"2026-09-07T03:04:00Z","arrival_h":0.6,"hours_ago":0.0,"supported_detections_cumulative":5,"sources_cumulative":"VIIRS_NOAA21_NRT, VIIRS_SNPP_NRT","last_source":"VIIRS_SNPP_NRT","last_satellite":"N","last_instrument":"VIIRS","detected_area_km2":0.7395230187322307,"product_type":"cumulative_active_fire_detection_extent"},"geometry":{"type":"LineString","coordinates":[[6.097939652912213,49.32204546783086],[6.093477337516153,49.32201027567657],[6.091854819919634,49.32270381842223],[6.090878212096555,49.323847781715926],[6.091318826351717,49.32593186144579],[6.093595004469075,49.327674297686606],[6.095295778835306,49.32828269136873],[6.097752903147185,49.328219681424876],[6.10011427201519,49.3268076784249],[6.105076416684399,49.32574671956272],[6.107001919260806,49.32411181839225],[6.107037822659037,49.32280200471849],[6.106140856810923,49.32138131541845],[6.103805572436676,49.319993301933856],[6.100353832179387,49.32019322716299],[6.097939652912213,49.32204546783086]]}}],"metadata":{"generated_at_utc":"2026-09-10T23:09:05.025808Z","product_type":"cumulative_active_fire_detection_extent","product_label":"Emprises cumulées des détections actives FIRMS","not_a_burn_perimeter":true,"not_a_continuous_fire_front":true,"not_an_arrival_time_interpolation":true,"snapshot_step_hours":6,"confidence_filter":{"VIIRS":["nominal","high"],"MODIS_minimum":30},"footprint_radius_m":{"VIIRS":300.0,"MODIS":750.0},"same_pass_neighbour_m":2000.0,"continuity_distance_m":3000.0,"clusters":[{"cluster_id":1,"first_supported_detection_utc":"2026-09-07T02:28:00Z","last_supported_detection_utc":"2026-09-07T03:04:00Z","pass_states":2,"published_snapshots":2,"final_detected_area_km2":0.7395230187322307}]},"bbox":[6.090770144035958,49.3198709666666,6.107037822659037,49.32828269136873]}