{"type":"FeatureCollection","name":"fire_progression_arrival_v1","features":[{"type":"Feature","properties":{"category":"arrival_step","arrival_snapshot_index":4,"first_detected_utc":"2026-09-06T02:04:00+00:00","first_detected_local":"2026-09-06T04:04:00+02:00","area_km2":5.062,"label":"Première détection FIRMS","model_version":"fire_progression_arrival_v1"},"geometry":{"type":"MultiPolygon","coordinates":[[[[6.153593648178408,49.32487312306417],[6.153456379451259,49.32262763652925],[6.156891601932513,49.32253786379562],[6.1567541959461884,49.32029237550785],[6.160189257270654,49.32020250877512],[6.159776663507856,49.313466022359336],[6.156342049707958,49.31355587799937],[6.156204691530267,49.31131036796021],[6.152770214931091,49.31140012222606],[6.152633017839272,49.3091546030651],[6.138895588784606,49.30951262861731],[6.139032189310432,49.31175816251027],[6.135597653163943,49.31184742838412],[6.135734116415054,49.314092960522316],[6.132299419238043,49.314182132385454],[6.1327084326736365,49.320918707205884],[6.136143577407845,49.32082952433429],[6.136280088157091,49.32307503472533],[6.139715370224506,49.32298575048399],[6.139852042075163,49.325231251755156],[6.153593648178408,49.32487312306417]]],[[[6.105767590520327,49.330610793489384],[6.1056323874408225,49.328365266557995],[6.109068074434671,49.328276854357036],[6.108932733870312,49.326031325612185],[6.112368259837927,49.325942819341556],[6.11196186112984,49.31920621135832],[6.108526782829459,49.31929470670372],[6.108391489361464,49.31704915618835],[6.104956548487359,49.317137550200655],[6.104821415974738,49.31489199061448],[6.094516970424874,49.31515657560906],[6.094651655372933,49.31740214608277],[6.091216667547221,49.317490149323625],[6.091351215009584,49.3197357179858],[6.087916066272608,49.319823627149916],[6.088319331213466,49.32656031135696],[6.091754927645248,49.32647239133984],[6.0918895219450855,49.328717938234945],[6.095325255921175,49.32862991688571],[6.095460011203117,49.33087545470778],[6.105767590520327,49.330610793489384]]]]}},{"type":"Feature","properties":{"category":"arrival_step","arrival_snapshot_index":7,"first_detected_utc":"2026-09-07T00:48:00+00:00","first_detected_local":"2026-09-07T02:48:00+02:00","area_km2":0.875,"label":"Première détection FIRMS","model_version":"fire_progression_arrival_v1"},"geometry":{"type":"Polygon","coordinates":[[[6.105767590520327,49.330610793489384],[6.1056323874408225,49.328365266557995],[6.109068074434671,49.328276854357036],[6.108932733870312,49.326031325612185],[6.112368259837927,49.325942819341556],[6.11196186112984,49.31920621135832],[6.108526782829459,49.31929470670372],[6.108391489361464,49.31704915618835],[6.104956548487359,49.317137550200655],[6.104821415974738,49.31489199061448],[6.1116909875839855,49.31471511217659],[6.111826418465317,49.31696066448433],[6.115261335785981,49.316872075089115],[6.115396927645493,49.3191176183177],[6.118831982363478,49.31902892758233],[6.119239276392189,49.325765513678974],[6.115803774016202,49.325854215363655],[6.115939413075624,49.328099736820285],[6.112503749650587,49.328188344444285],[6.1126392512541265,49.330433864095156],[6.105767590520327,49.330610793489384]]]}},{"type":"Feature","properties":{"category":"observed_front","snapshot_index":3,"pass_time_utc":"2026-09-06T01:43:00+00:00","dt_local":"2026-09-06T03:43:00+02:00","area_km2":4.625,"label":"Activité observée","coherence_level":"indisponible","coherence_fraction":0.0,"projection_displayed":false,"model_version":"fire_progression_arrival_v1"},"geometry":{"type":"MultiPolygon","coordinates":[[[[6.150158264537249,49.324962801790385],[6.15002114502689,49.322717311565384],[6.153456379451259,49.32262763652925],[6.1533191226672255,49.32038214454757],[6.1567541959461884,49.32029237550785],[6.156342049707958,49.31355587799937],[6.152907423958239,49.313645635958416],[6.152770214931091,49.31140012222606],[6.149335726396587,49.31148977881448],[6.149198678443936,49.3092442559645],[6.138895588784606,49.30951262861731],[6.139032189310432,49.31175816251027],[6.135597653163943,49.31184742838412],[6.135734116415054,49.314092960522316],[6.132299419238043,49.314182132385454],[6.1327084326736365,49.320918707205884],[6.136143577407845,49.32082952433429],[6.136280088157091,49.32307503472533],[6.139715370224506,49.32298575048399],[6.139852042075163,49.325231251755156],[6.150158264537249,49.324962801790385]]],[[[6.105767590520327,49.330610793489384],[6.1056323874408225,49.328365266557995],[6.109068074434671,49.328276854357036],[6.108932733870312,49.326031325612185],[6.112368259837927,49.325942819341556],[6.11196186112984,49.31920621135832],[6.108526782829459,49.31929470670372],[6.108391489361464,49.31704915618835],[6.104956548487359,49.317137550200655],[6.104821415974738,49.31489199061448],[6.094516970424874,49.31515657560906],[6.094651655372933,49.31740214608277],[6.091216667547221,49.317490149323625],[6.091351215009584,49.3197357179858],[6.087916066272608,49.319823627149916],[6.088319331213466,49.32656031135696],[6.091754927645248,49.32647239133984],[6.0918895219450855,49.328717938234945],[6.095325255921175,49.32862991688571],[6.095460011203117,49.33087545470778],[6.105767590520327,49.330610793489384]]]]}},{"type":"Feature","properties":{"category":"historical_support","snapshot_index":4,"pass_time_utc":"2026-09-06T02:04:00+00:00","dt_local":"2026-09-06T04:04:00+02:00","area_km2":5.062,"label":"Isoline temporelle","coherence_level":"indisponible","coherence_fraction":0.0,"projection_displayed":false,"model_version":"fire_progression_arrival_v1"},"geometry":{"type":"MultiPolygon","coordinates":[[[[6.153593648178408,49.32487312306417],[6.153456379451259,49.32262763652925],[6.156891601932513,49.32253786379562],[6.1567541959461884,49.32029237550785],[6.160189257270654,49.32020250877512],[6.159776663507856,49.313466022359336],[6.156342049707958,49.31355587799937],[6.156204691530267,49.31131036796021],[6.152770214931091,49.31140012222606],[6.152633017839272,49.3091546030651],[6.138895588784606,49.30951262861731],[6.139032189310432,49.31175816251027],[6.135597653163943,49.31184742838412],[6.135734116415054,49.314092960522316],[6.132299419238043,49.314182132385454],[6.1327084326736365,49.320918707205884],[6.136143577407845,49.32082952433429],[6.136280088157091,49.32307503472533],[6.139715370224506,49.32298575048399],[6.139852042075163,49.325231251755156],[6.153593648178408,49.32487312306417]]],[[[6.105767590520327,49.330610793489384],[6.1056323874408225,49.328365266557995],[6.109068074434671,49.328276854357036],[6.108932733870312,49.326031325612185],[6.112368259837927,49.325942819341556],[6.11196186112984,49.31920621135832],[6.108526782829459,49.31929470670372],[6.108391489361464,49.31704915618835],[6.104956548487359,49.317137550200655],[6.104821415974738,49.31489199061448],[6.094516970424874,49.31515657560906],[6.094651655372933,49.31740214608277],[6.091216667547221,49.317490149323625],[6.091351215009584,49.3197357179858],[6.087916066272608,49.319823627149916],[6.088319331213466,49.32656031135696],[6.091754927645248,49.32647239133984],[6.0918895219450855,49.328717938234945],[6.095325255921175,49.32862991688571],[6.095460011203117,49.33087545470778],[6.105767590520327,49.330610793489384]]]]}},{"type":"Feature","properties":{"category":"observed_front","snapshot_index":4,"pass_time_utc":"2026-09-06T02:04:00+00:00","dt_local":"2026-09-06T04:04:00+02:00","area_km2":5.062,"label":"Activité observée","coherence_level":"indisponible","coherence_fraction":0.0,"projection_displayed":false,"model_version":"fire_progression_arrival_v1"},"geometry":{"type":"MultiPolygon","coordinates":[[[[6.153593648178408,49.32487312306417],[6.153456379451259,49.32262763652925],[6.156891601932513,49.32253786379562],[6.1567541959461884,49.32029237550785],[6.160189257270654,49.32020250877512],[6.159776663507856,49.313466022359336],[6.156342049707958,49.31355587799937],[6.156204691530267,49.31131036796021],[6.152770214931091,49.31140012222606],[6.152633017839272,49.3091546030651],[6.138895588784606,49.30951262861731],[6.139032189310432,49.31175816251027],[6.135597653163943,49.31184742838412],[6.135734116415054,49.314092960522316],[6.132299419238043,49.314182132385454],[6.1327084326736365,49.320918707205884],[6.136143577407845,49.32082952433429],[6.136280088157091,49.32307503472533],[6.139715370224506,49.32298575048399],[6.139852042075163,49.325231251755156],[6.153593648178408,49.32487312306417]]],[[[6.105767590520327,49.330610793489384],[6.1056323874408225,49.328365266557995],[6.109068074434671,49.328276854357036],[6.108932733870312,49.326031325612185],[6.112368259837927,49.325942819341556],[6.11196186112984,49.31920621135832],[6.108526782829459,49.31929470670372],[6.108391489361464,49.31704915618835],[6.104956548487359,49.317137550200655],[6.104821415974738,49.31489199061448],[6.094516970424874,49.31515657560906],[6.094651655372933,49.31740214608277],[6.091216667547221,49.317490149323625],[6.091351215009584,49.3197357179858],[6.087916066272608,49.319823627149916],[6.088319331213466,49.32656031135696],[6.091754927645248,49.32647239133984],[6.0918895219450855,49.328717938234945],[6.095325255921175,49.32862991688571],[6.095460011203117,49.33087545470778],[6.105767590520327,49.330610793489384]]]]}},{"type":"Feature","properties":{"category":"historical_support","snapshot_index":5,"pass_time_utc":"2026-09-06T02:47:00+00:00","dt_local":"2026-09-06T04:47:00+02:00","area_km2":5.062,"label":"Isoline temporelle","coherence_level":"indisponible","coherence_fraction":0.0,"projection_displayed":false,"model_version":"fire_progression_arrival_v1"},"geometry":{"type":"MultiPolygon","coordinates":[[[[6.153593648178408,49.32487312306417],[6.153456379451259,49.32262763652925],[6.156891601932513,49.32253786379562],[6.1567541959461884,49.32029237550785],[6.160189257270654,49.32020250877512],[6.159776663507856,49.313466022359336],[6.156342049707958,49.31355587799937],[6.156204691530267,49.31131036796021],[6.152770214931091,49.31140012222606],[6.152633017839272,49.3091546030651],[6.138895588784606,49.30951262861731],[6.139032189310432,49.31175816251027],[6.135597653163943,49.31184742838412],[6.135734116415054,49.314092960522316],[6.132299419238043,49.314182132385454],[6.1327084326736365,49.320918707205884],[6.136143577407845,49.32082952433429],[6.136280088157091,49.32307503472533],[6.139715370224506,49.32298575048399],[6.139852042075163,49.325231251755156],[6.153593648178408,49.32487312306417]]],[[[6.105767590520327,49.330610793489384],[6.1056323874408225,49.328365266557995],[6.109068074434671,49.328276854357036],[6.108932733870312,49.326031325612185],[6.112368259837927,49.325942819341556],[6.11196186112984,49.31920621135832],[6.108526782829459,49.31929470670372],[6.108391489361464,49.31704915618835],[6.104956548487359,49.317137550200655],[6.104821415974738,49.31489199061448],[6.094516970424874,49.31515657560906],[6.094651655372933,49.31740214608277],[6.091216667547221,49.317490149323625],[6.091351215009584,49.3197357179858],[6.087916066272608,49.319823627149916],[6.088319331213466,49.32656031135696],[6.091754927645248,49.32647239133984],[6.0918895219450855,49.328717938234945],[6.095325255921175,49.32862991688571],[6.095460011203117,49.33087545470778],[6.105767590520327,49.330610793489384]]]]}},{"type":"Feature","properties":{"category":"observed_front","snapshot_index":5,"pass_time_utc":"2026-09-06T02:47:00+00:00","dt_local":"2026-09-06T04:47:00+02:00","area_km2":1.875,"label":"Activité observée","coherence_level":"indisponible","coherence_fraction":0.0,"projection_displayed":false,"model_version":"fire_progression_arrival_v1"},"geometry":{"type":"Polygon","coordinates":[[[6.095460011203117,49.33087545470778],[6.095325255921175,49.32862991688571],[6.0918895219450855,49.328717938234945],[6.091754927645248,49.32647239133984],[6.088319331213466,49.32656031135696],[6.0880504762233905,49.322069193993244],[6.091485774179025,49.32198128121164],[6.091351215009584,49.3197357179858],[6.094786352039483,49.31964771112362],[6.094651655372933,49.31740214608277],[6.104956548487359,49.317137550200655],[6.105091692757292,49.31938310435343],[6.108526782829459,49.31929470670372],[6.108662088069243,49.321540251781926],[6.112097315579091,49.32145175279494],[6.112368259837927,49.325942819341556],[6.108932733870312,49.326031325612185],[6.109068074434671,49.328276854357036],[6.1056323874408225,49.328365266557995],[6.105767590520327,49.330610793489384],[6.095460011203117,49.33087545470778]]]}},{"type":"Feature","properties":{"category":"historical_support","snapshot_index":6,"pass_time_utc":"2026-09-06T03:23:00+00:00","dt_local":"2026-09-06T05:23:00+02:00","area_km2":5.062,"label":"Isoline temporelle","coherence_level":"indisponible","coherence_fraction":0.0,"projection_displayed":false,"model_version":"fire_progression_arrival_v1"},"geometry":{"type":"MultiPolygon","coordinates":[[[[6.153593648178408,49.32487312306417],[6.153456379451259,49.32262763652925],[6.156891601932513,49.32253786379562],[6.1567541959461884,49.32029237550785],[6.160189257270654,49.32020250877512],[6.159776663507856,49.313466022359336],[6.156342049707958,49.31355587799937],[6.156204691530267,49.31131036796021],[6.152770214931091,49.31140012222606],[6.152633017839272,49.3091546030651],[6.138895588784606,49.30951262861731],[6.139032189310432,49.31175816251027],[6.135597653163943,49.31184742838412],[6.135734116415054,49.314092960522316],[6.132299419238043,49.314182132385454],[6.1327084326736365,49.320918707205884],[6.136143577407845,49.32082952433429],[6.136280088157091,49.32307503472533],[6.139715370224506,49.32298575048399],[6.139852042075163,49.325231251755156],[6.153593648178408,49.32487312306417]]],[[[6.105767590520327,49.330610793489384],[6.1056323874408225,49.328365266557995],[6.109068074434671,49.328276854357036],[6.108932733870312,49.326031325612185],[6.112368259837927,49.325942819341556],[6.11196186112984,49.31920621135832],[6.108526782829459,49.31929470670372],[6.108391489361464,49.31704915618835],[6.104956548487359,49.317137550200655],[6.104821415974738,49.31489199061448],[6.094516970424874,49.31515657560906],[6.094651655372933,49.31740214608277],[6.091216667547221,49.317490149323625],[6.091351215009584,49.3197357179858],[6.087916066272608,49.319823627149916],[6.088319331213466,49.32656031135696],[6.091754927645248,49.32647239133984],[6.0918895219450855,49.328717938234945],[6.095325255921175,49.32862991688571],[6.095460011203117,49.33087545470778],[6.105767590520327,49.330610793489384]]]]}},{"type":"Feature","properties":{"category":"observed_front","snapshot_index":6,"pass_time_utc":"2026-09-06T03:23:00+00:00","dt_local":"2026-09-06T05:23:00+02:00","area_km2":2.312,"label":"Activité observée","coherence_level":"indisponible","coherence_fraction":0.0,"projection_displayed":false,"model_version":"fire_progression_arrival_v1"},"geometry":{"type":"Polygon","coordinates":[[[6.095460011203117,49.33087545470778],[6.095325255921175,49.32862991688571],[6.0918895219450855,49.328717938234945],[6.091754927645248,49.32647239133984],[6.088319331213466,49.32656031135696],[6.087916066272608,49.319823627149916],[6.091351215009584,49.3197357179858],[6.091216667547221,49.317490149323625],[6.094651655372933,49.31740214608277],[6.094516970424874,49.31515657560906],[6.104821415974738,49.31489199061448],[6.104956548487359,49.317137550200655],[6.108391489361464,49.31704915618835],[6.108526782829459,49.31929470670372],[6.11196186112984,49.31920621135832],[6.112368259837927,49.325942819341556],[6.108932733870312,49.326031325612185],[6.109068074434671,49.328276854357036],[6.1056323874408225,49.328365266557995],[6.105767590520327,49.330610793489384],[6.095460011203117,49.33087545470778]]]}},{"type":"Feature","properties":{"category":"historical_support","snapshot_index":7,"pass_time_utc":"2026-09-07T00:48:00+00:00","dt_local":"2026-09-07T02:48:00+02:00","area_km2":5.938,"label":"Isoline temporelle","coherence_level":"indisponible","coherence_fraction":0.0,"projection_displayed":false,"model_version":"fire_progression_arrival_v1"},"geometry":{"type":"MultiPolygon","coordinates":[[[[6.153593648178408,49.32487312306417],[6.153456379451259,49.32262763652925],[6.156891601932513,49.32253786379562],[6.1567541959461884,49.32029237550785],[6.160189257270654,49.32020250877512],[6.159776663507856,49.313466022359336],[6.156342049707958,49.31355587799937],[6.156204691530267,49.31131036796021],[6.152770214931091,49.31140012222606],[6.152633017839272,49.3091546030651],[6.138895588784606,49.30951262861731],[6.139032189310432,49.31175816251027],[6.135597653163943,49.31184742838412],[6.135734116415054,49.314092960522316],[6.132299419238043,49.314182132385454],[6.1327084326736365,49.320918707205884],[6.136143577407845,49.32082952433429],[6.136280088157091,49.32307503472533],[6.139715370224506,49.32298575048399],[6.139852042075163,49.325231251755156],[6.153593648178408,49.32487312306417]]],[[[6.1126392512541265,49.330433864095156],[6.112503749650587,49.328188344444285],[6.115939413075624,49.328099736820285],[6.115803774016202,49.325854215363655],[6.119239276392189,49.325765513678974],[6.118831982363478,49.31902892758233],[6.115396927645493,49.3191176183177],[6.115261335785981,49.316872075089115],[6.111826418465317,49.31696066448433],[6.1116909875839855,49.31471511217659],[6.094516970424874,49.31515657560906],[6.094651655372933,49.31740214608277],[6.091216667547221,49.317490149323625],[6.091351215009584,49.3197357179858],[6.087916066272608,49.319823627149916],[6.088319331213466,49.32656031135696],[6.091754927645248,49.32647239133984],[6.0918895219450855,49.328717938234945],[6.095325255921175,49.32862991688571],[6.095460011203117,49.33087545470778],[6.1126392512541265,49.330433864095156]]]]}},{"type":"Feature","properties":{"category":"observed_front","snapshot_index":7,"pass_time_utc":"2026-09-07T00:48:00+00:00","dt_local":"2026-09-07T02:48:00+02:00","area_km2":2.312,"label":"Activité observée","coherence_level":"indisponible","coherence_fraction":0.0,"projection_displayed":false,"model_version":"fire_progression_arrival_v1"},"geometry":{"type":"Polygon","coordinates":[[[6.102331742497175,49.33069911161239],[6.102196688681992,49.32845358104676],[6.098760978171126,49.32854179782282],[6.098626085360885,49.32629625817578],[6.09519051236537,49.32638437361263],[6.094786352039483,49.31964771112362],[6.098221477349362,49.31955960656386],[6.098086631480154,49.31731404514834],[6.101521595855942,49.31722584652081],[6.101386612529977,49.31498028330145],[6.1116909875839855,49.31471511217659],[6.111826418465317,49.31696066448433],[6.115261335785981,49.316872075089115],[6.115396927645493,49.3191176183177],[6.118831982363478,49.31902892758233],[6.119239276392189,49.325765513678974],[6.115803774016202,49.325854215363655],[6.115939413075624,49.328099736820285],[6.112503749650587,49.328188344444285],[6.1126392512541265,49.330433864095156],[6.102331742497175,49.33069911161239]]]}},{"type":"Feature","properties":{"category":"firms_extent_snapshot","snapshot_index":8,"pass_time_utc":"2026-09-07T02:28:00+00:00","dt_local":"2026-09-07T04:28:00+02:00","label":"Emprise FIRMS cumulée à ce passage","interpretation":"Enveloppe des détections FIRMS, pas une surface brûlée","cumulative":true,"point_count":3,"extent_method":"cumulative_detection_extent_smoothed_landmasked_web_v1","local_cluster_link_m":10000.0,"model_version":"fire_progression_arrival_v1"},"geometry":{"type":"Polygon","coordinates":[[[6.09073951292705,49.32465554548339],[6.091574827362885,49.32617787305797],[6.093737419283643,49.327142760639745],[6.101604154840353,49.32673672269587],[6.103529422198283,49.32599913422042],[6.1059259867514735,49.323938236334364],[6.106397789980234,49.321847399455095],[6.104564349126829,49.32023175799489],[6.1013658895602365,49.319923272760796],[6.097460508792778,49.32170484610783],[6.092505948849483,49.322337960935805],[6.091149978052959,49.32337347062506],[6.09073951292705,49.32465554548339]]]}},{"type":"Feature","properties":{"category":"historical_support","snapshot_index":8,"pass_time_utc":"2026-09-07T02:28:00+00:00","dt_local":"2026-09-07T04:28:00+02:00","area_km2":5.938,"label":"Isoline temporelle","coherence_level":"indisponible","coherence_fraction":0.0,"projection_displayed":false,"model_version":"fire_progression_arrival_v1"},"geometry":{"type":"MultiPolygon","coordinates":[[[[6.153593648178408,49.32487312306417],[6.153456379451259,49.32262763652925],[6.156891601932513,49.32253786379562],[6.1567541959461884,49.32029237550785],[6.160189257270654,49.32020250877512],[6.159776663507856,49.313466022359336],[6.156342049707958,49.31355587799937],[6.156204691530267,49.31131036796021],[6.152770214931091,49.31140012222606],[6.152633017839272,49.3091546030651],[6.138895588784606,49.30951262861731],[6.139032189310432,49.31175816251027],[6.135597653163943,49.31184742838412],[6.135734116415054,49.314092960522316],[6.132299419238043,49.314182132385454],[6.1327084326736365,49.320918707205884],[6.136143577407845,49.32082952433429],[6.136280088157091,49.32307503472533],[6.139715370224506,49.32298575048399],[6.139852042075163,49.325231251755156],[6.153593648178408,49.32487312306417]]],[[[6.1126392512541265,49.330433864095156],[6.112503749650587,49.328188344444285],[6.115939413075624,49.328099736820285],[6.115803774016202,49.325854215363655],[6.119239276392189,49.325765513678974],[6.118831982363478,49.31902892758233],[6.115396927645493,49.3191176183177],[6.115261335785981,49.316872075089115],[6.111826418465317,49.31696066448433],[6.1116909875839855,49.31471511217659],[6.094516970424874,49.31515657560906],[6.094651655372933,49.31740214608277],[6.091216667547221,49.317490149323625],[6.091351215009584,49.3197357179858],[6.087916066272608,49.319823627149916],[6.088319331213466,49.32656031135696],[6.091754927645248,49.32647239133984],[6.0918895219450855,49.328717938234945],[6.095325255921175,49.32862991688571],[6.095460011203117,49.33087545470778],[6.1126392512541265,49.330433864095156]]]]}},{"type":"Feature","properties":{"category":"observed_front","snapshot_index":8,"pass_time_utc":"2026-09-07T02:28:00+00:00","dt_local":"2026-09-07T04:28:00+02:00","area_km2":2.375,"label":"Activité observée","coherence_level":"indisponible","coherence_fraction":0.0,"projection_displayed":false,"model_version":"fire_progression_arrival_v1"},"geometry":{"type":"Polygon","coordinates":[[[6.095460011203117,49.33087545470778],[6.095325255921175,49.32862991688571],[6.0918895219450855,49.328717938234945],[6.091754927645248,49.32647239133984],[6.088319331213466,49.32656031135696],[6.087916066272608,49.319823627149916],[6.091351215009584,49.3197357179858],[6.091216667547221,49.317490149323625],[6.094651655372933,49.31740214608277],[6.094516970424874,49.31515657560906],[6.10825620766372,49.31480360023938],[6.108391489361464,49.31704915618835],[6.111826418465317,49.31696066448433],[6.112368259837927,49.325942819341556],[6.108932733870312,49.326031325612185],[6.109068074434671,49.328276854357036],[6.102196688681992,49.32845358104676],[6.102331742497175,49.33069911161239],[6.095460011203117,49.33087545470778]]]}},{"type":"Feature","properties":{"category":"firms_extent_snapshot","snapshot_index":9,"pass_time_utc":"2026-09-07T03:04:00+00:00","dt_local":"2026-09-07T05:04:00+02:00","label":"Emprise FIRMS cumulée à ce passage","interpretation":"Enveloppe des détections FIRMS, pas une surface brûlée","cumulative":true,"point_count":5,"extent_method":"cumulative_detection_extent_smoothed_landmasked_web_v1","local_cluster_link_m":10000.0,"model_version":"fire_progression_arrival_v1"},"geometry":{"type":"Polygon","coordinates":[[[6.09073951292705,49.32465554548339],[6.091302137106506,49.3259127078839],[6.093570525928361,49.32765913591313],[6.096934800224289,49.328349971246105],[6.105510933781237,49.32555705718402],[6.106857682348514,49.3243940095058],[6.107104621870912,49.32304055700276],[6.105208856936793,49.32055064861481],[6.101844980248667,49.319860038044524],[6.0973783968999555,49.321725797716425],[6.092505948849483,49.322337960935805],[6.091149978052959,49.32337347062506],[6.09073951292705,49.32465554548339]]]}},{"type":"Feature","properties":{"category":"historical_support","snapshot_index":9,"pass_time_utc":"2026-09-07T03:04:00+00:00","dt_local":"2026-09-07T05:04:00+02:00","area_km2":5.938,"label":"Isoline temporelle","coherence_level":"indisponible","coherence_fraction":0.0,"projection_displayed":false,"model_version":"fire_progression_arrival_v1"},"geometry":{"type":"MultiPolygon","coordinates":[[[[6.153593648178408,49.32487312306417],[6.153456379451259,49.32262763652925],[6.156891601932513,49.32253786379562],[6.1567541959461884,49.32029237550785],[6.160189257270654,49.32020250877512],[6.159776663507856,49.313466022359336],[6.156342049707958,49.31355587799937],[6.156204691530267,49.31131036796021],[6.152770214931091,49.31140012222606],[6.152633017839272,49.3091546030651],[6.138895588784606,49.30951262861731],[6.139032189310432,49.31175816251027],[6.135597653163943,49.31184742838412],[6.135734116415054,49.314092960522316],[6.132299419238043,49.314182132385454],[6.1327084326736365,49.320918707205884],[6.136143577407845,49.32082952433429],[6.136280088157091,49.32307503472533],[6.139715370224506,49.32298575048399],[6.139852042075163,49.325231251755156],[6.153593648178408,49.32487312306417]]],[[[6.1126392512541265,49.330433864095156],[6.112503749650587,49.328188344444285],[6.115939413075624,49.328099736820285],[6.115803774016202,49.325854215363655],[6.119239276392189,49.325765513678974],[6.118831982363478,49.31902892758233],[6.115396927645493,49.3191176183177],[6.115261335785981,49.316872075089115],[6.111826418465317,49.31696066448433],[6.1116909875839855,49.31471511217659],[6.094516970424874,49.31515657560906],[6.094651655372933,49.31740214608277],[6.091216667547221,49.317490149323625],[6.091351215009584,49.3197357179858],[6.087916066272608,49.319823627149916],[6.088319331213466,49.32656031135696],[6.091754927645248,49.32647239133984],[6.0918895219450855,49.328717938234945],[6.095325255921175,49.32862991688571],[6.095460011203117,49.33087545470778],[6.1126392512541265,49.330433864095156]]]]}},{"type":"Feature","properties":{"category":"observed_front","snapshot_index":9,"pass_time_utc":"2026-09-07T03:04:00+00:00","dt_local":"2026-09-07T05:04:00+02:00","area_km2":2.375,"label":"Activité observée","coherence_level":"indisponible","coherence_fraction":0.0,"projection_displayed":false,"model_version":"fire_progression_arrival_v1"},"geometry":{"type":"Polygon","coordinates":[[[6.095460011203117,49.33087545470778],[6.095325255921175,49.32862991688571],[6.0918895219450855,49.328717938234945],[6.091754927645248,49.32647239133984],[6.088319331213466,49.32656031135696],[6.087916066272608,49.319823627149916],[6.091351215009584,49.3197357179858],[6.091216667547221,49.317490149323625],[6.094651655372933,49.31740214608277],[6.094516970424874,49.31515657560906],[6.10825620766372,49.31480360023938],[6.108391489361464,49.31704915618835],[6.111826418465317,49.31696066448433],[6.112368259837927,49.325942819341556],[6.108932733870312,49.326031325612185],[6.109068074434671,49.328276854357036],[6.102196688681992,49.32845358104676],[6.102331742497175,49.33069911161239],[6.095460011203117,49.33087545470778]]]}},{"type":"Feature","properties":{"category":"historical_support","snapshot_index":10,"pass_time_utc":"2026-09-10T00:48:00+00:00","dt_local":"2026-09-10T02:48:00+02:00","area_km2":5.938,"label":"Isoline temporelle","coherence_level":"indisponible","coherence_fraction":0.0,"projection_displayed":false,"model_version":"fire_progression_arrival_v1"},"geometry":{"type":"MultiPolygon","coordinates":[[[[6.153593648178408,49.32487312306417],[6.153456379451259,49.32262763652925],[6.156891601932513,49.32253786379562],[6.1567541959461884,49.32029237550785],[6.160189257270654,49.32020250877512],[6.159776663507856,49.313466022359336],[6.156342049707958,49.31355587799937],[6.156204691530267,49.31131036796021],[6.152770214931091,49.31140012222606],[6.152633017839272,49.3091546030651],[6.138895588784606,49.30951262861731],[6.139032189310432,49.31175816251027],[6.135597653163943,49.31184742838412],[6.135734116415054,49.314092960522316],[6.132299419238043,49.314182132385454],[6.1327084326736365,49.320918707205884],[6.136143577407845,49.32082952433429],[6.136280088157091,49.32307503472533],[6.139715370224506,49.32298575048399],[6.139852042075163,49.325231251755156],[6.153593648178408,49.32487312306417]]],[[[6.1126392512541265,49.330433864095156],[6.112503749650587,49.328188344444285],[6.115939413075624,49.328099736820285],[6.115803774016202,49.325854215363655],[6.119239276392189,49.325765513678974],[6.118831982363478,49.31902892758233],[6.115396927645493,49.3191176183177],[6.115261335785981,49.316872075089115],[6.111826418465317,49.31696066448433],[6.1116909875839855,49.31471511217659],[6.094516970424874,49.31515657560906],[6.094651655372933,49.31740214608277],[6.091216667547221,49.317490149323625],[6.091351215009584,49.3197357179858],[6.087916066272608,49.319823627149916],[6.088319331213466,49.32656031135696],[6.091754927645248,49.32647239133984],[6.0918895219450855,49.328717938234945],[6.095325255921175,49.32862991688571],[6.095460011203117,49.33087545470778],[6.1126392512541265,49.330433864095156]]]]}}]}