{"type":"FeatureCollection","name":"detection_envelopes","crs":{"type":"name","properties":{"name":"urn:ogc:def:crs:OGC:1.3:CRS84"}},"features":[{"type":"Feature","properties":{"cluster_id":1,"snapshot_index":1,"estimated_time_utc":"2026-09-04T12:25:00Z","observed_until_utc":"2026-09-04T12:25:00Z","target_time_utc":"2026-09-04T12:25:00Z","arrival_h":0.0,"hours_ago":37.65,"supported_detections_cumulative":3,"sources_cumulative":"VIIRS_NOAA20_NRT","last_source":"VIIRS_NOAA20_NRT","last_satellite":"N20","last_instrument":"VIIRS","detected_area_km2":0.5736789224522871,"product_type":"cumulative_active_fire_detection_extent"},"geometry":{"type":"LineString","coordinates":[[0.454576328272161,42.90135622890447],[0.457279729507595,42.902841601735744],[0.462472484177548,42.90276014327416],[0.464712779036476,42.90151606562385],[0.465100255576284,42.89947177053637],[0.463034513794292,42.89768392007307],[0.45970896517744,42.8976074838104],[0.457325615875461,42.89636303267993],[0.455197862602536,42.89629981112435],[0.453380888463753,42.89711634601792],[0.452479283898564,42.898581168375195],[0.452844329007052,42.90012367708581],[0.454576328272161,42.90135622890447]]}},{"type":"Feature","properties":{"cluster_id":1,"snapshot_index":2,"estimated_time_utc":"2026-09-04T13:48:00Z","observed_until_utc":"2026-09-04T13:48:00Z","target_time_utc":"2026-09-04T18:25:00Z","arrival_h":1.3833333333333333,"hours_ago":36.266666666666666,"supported_detections_cumulative":5,"sources_cumulative":"VIIRS_NOAA20_NRT, VIIRS_NOAA21_NRT, VIIRS_SNPP_NRT","last_source":"VIIRS_SNPP_NRT","last_satellite":"N","last_instrument":"VIIRS","detected_area_km2":0.7509077460434295,"product_type":"cumulative_active_fire_detection_extent"},"geometry":{"type":"LineString","coordinates":[[0.466906971952162,42.8977545196989],[0.465634117387,42.89564688807605],[0.462669961837448,42.89502596842844],[0.460709260062133,42.89573792575693],[0.459233158320017,42.89742621718682],[0.456921846147604,42.89627842537591],[0.454207012444164,42.89660900151219],[0.452790633693392,42.89777815719527],[0.452496395469118,42.89932882183024],[0.4534235556606,42.90073833618217],[0.456600562687171,42.90266783879163],[0.46212003708201,42.902814049672806],[0.464550332784226,42.90170154078707],[0.466906971952162,42.8977545196989]]}},{"type":"Feature","properties":{"cluster_id":1,"snapshot_index":3,"estimated_time_utc":"2026-09-05T02:24:00Z","observed_until_utc":"2026-09-05T02:24:00Z","target_time_utc":"2026-09-05T06:25:00Z","arrival_h":13.983333333333333,"hours_ago":23.666666666666668,"supported_detections_cumulative":8,"sources_cumulative":"VIIRS_NOAA20_NRT, VIIRS_NOAA21_NRT, VIIRS_SNPP_NRT","last_source":"VIIRS_NOAA20_NRT","last_satellite":"N20","last_instrument":"VIIRS","detected_area_km2":0.8628594148860508,"product_type":"cumulative_active_fire_detection_extent"},"geometry":{"type":"LineString","coordinates":[[0.452809474593985,42.89756791172313],[0.451379239332918,42.899391130849295],[0.452323483392491,42.90154830988307],[0.453814213246666,42.90226694904982],[0.455878257684312,42.90234037343407],[0.460212013545296,42.90371603658895],[0.462213374429674,42.90332089898594],[0.464329029670982,42.90191027773451],[0.466906971952162,42.8977545196989],[0.46589496557422,42.89582925576445],[0.463327836711016,42.89499397539934],[0.45799980969981,42.89659508857952],[0.454854328120728,42.896378830927105],[0.452809474593985,42.89756791172313]]}},{"type":"Feature","properties":{"cluster_id":1,"snapshot_index":4,"estimated_time_utc":"2026-09-05T12:08:00Z","observed_until_utc":"2026-09-05T12:08:00Z","target_time_utc":"2026-09-05T12:25:00Z","arrival_h":23.716666666666665,"hours_ago":13.933333333333334,"supported_detections_cumulative":9,"sources_cumulative":"VIIRS_NOAA20_NRT, VIIRS_NOAA21_NRT, VIIRS_SNPP_NRT","last_source":"VIIRS_NOAA20_NRT","last_satellite":"N20","last_instrument":"VIIRS","detected_area_km2":0.8628594148860506,"product_type":"cumulative_active_fire_detection_extent"},"geometry":{"type":"LineString","coordinates":[[0.452761906655029,42.89759477334113],[0.451379239332918,42.899391130849295],[0.452323483392491,42.90154830988307],[0.453814213246666,42.90226694904982],[0.455878257684312,42.90234037343407],[0.460212013545296,42.90371603658895],[0.462213374429674,42.90332089898594],[0.464329029670982,42.90191027773451],[0.466906971952162,42.8977545196989],[0.46589496557422,42.89582925576445],[0.463327836711016,42.89499397539934],[0.45799980969981,42.89659508857952],[0.454854328120728,42.896378830927105],[0.452761906655029,42.89759477334113]]}},{"type":"Feature","properties":{"cluster_id":1,"snapshot_index":5,"estimated_time_utc":"2026-09-06T02:04:00Z","observed_until_utc":"2026-09-06T02:04:00Z","target_time_utc":"2026-09-06T02:04:00Z","arrival_h":37.65,"hours_ago":0.0,"supported_detections_cumulative":12,"sources_cumulative":"VIIRS_NOAA20_NRT, VIIRS_NOAA21_NRT, VIIRS_SNPP_NRT","last_source":"VIIRS_NOAA20_NRT","last_satellite":"N20","last_instrument":"VIIRS","detected_area_km2":1.0768750357815209,"product_type":"cumulative_active_fire_detection_extent"},"geometry":{"type":"LineString","coordinates":[[0.452533206043769,42.89773756842791],[0.451555732440735,42.898833494336166],[0.45122287877437,42.9002650698528],[0.4523210759948,42.90243283129551],[0.452294935962404,42.90432051613508],[0.453670350474048,42.90577996331278],[0.455741802020081,42.906296039108035],[0.458360918621071,42.90555220287409],[0.45949702942206,42.90365140370474],[0.461897385284835,42.903447697632004],[0.464289507069766,42.90194345046877],[0.466906971952162,42.8977545196989],[0.46589496557422,42.89582925576445],[0.463327836711016,42.89499397539934],[0.45799980969981,42.89659508857952],[0.454854328120728,42.896378830927105],[0.452533206043769,42.89773756842791]]}}],"metadata":{"generated_at_utc":"2026-09-06T08:54:12.251972Z","product_type":"cumulative_active_fire_detection_extent","product_label":"Emprises cumulées des détections actives FIRMS","not_a_burn_perimeter":true,"not_a_continuous_fire_front":true,"not_an_arrival_time_interpolation":true,"snapshot_step_hours":6,"confidence_filter":{"VIIRS":["nominal","high"],"MODIS_minimum":30},"footprint_radius_m":{"VIIRS":300.0,"MODIS":750.0},"same_pass_neighbour_m":2000.0,"continuity_distance_m":3000.0,"clusters":[{"cluster_id":1,"first_supported_detection_utc":"2026-09-04T12:25:00Z","last_supported_detection_utc":"2026-09-06T02:04:00Z","pass_states":7,"published_snapshots":5,"final_detected_area_km2":1.0768750357815209}]},"bbox":[0.45122287877437045,42.89499397539934,0.46690697195216174,42.906296039108035]}