{"type":"FeatureCollection","name":"fire_progression_arrival_v1","features":[{"type":"Feature","properties":{"category":"arrival_step","arrival_snapshot_index":4,"first_detected_utc":"2026-09-07T03:08:00+00:00","first_detected_local":"2026-09-07T05:08:00+02:00","area_km2":0.812,"label":"Première détection FIRMS","model_version":"fire_progression_arrival_v1"},"geometry":{"type":"Polygon","coordinates":[[[0.4556238282141589,42.89401571842039],[0.45591931571952354,42.887274775758776],[0.45897499315022305,42.88734715229401],[0.459073355618759,42.885100177302306],[0.4651844970660163,42.88524466364499],[0.4650863708419071,42.88749164451835],[0.4681420710846429,42.88756376020675],[0.46794603212532315,42.89205774109166],[0.4648900956081437,42.89198561953186],[0.4647919465967251,42.89423261366553],[0.4556238282141589,42.89401571842039]]]}},{"type":"Feature","properties":{"category":"arrival_step","arrival_snapshot_index":5,"first_detected_utc":"2026-09-07T04:29:00+00:00","first_detected_local":"2026-09-07T06:29:00+02:00","area_km2":1.188,"label":"Première détection FIRMS","model_version":"fire_progression_arrival_v1"},"geometry":{"type":"Polygon","coordinates":[[[0.44921552228108735,42.90061165146389],[0.44970925926497085,42.88937673240925],[0.4558208275078409,42.88952175222731],[0.4556238282141589,42.89401571842039],[0.4647919465967251,42.89423261366553],[0.4644974539737434,42.900973622535304],[0.44921552228108735,42.90061165146389]]]}},{"type":"Feature","properties":{"category":"arrival_step","arrival_snapshot_index":6,"first_detected_utc":"2026-09-07T09:56:00+00:00","first_detected_local":"2026-09-07T11:56:00+02:00","area_km2":1.25,"label":"Première détection FIRMS","model_version":"fire_progression_arrival_v1"},"geometry":{"type":"Polygon","coordinates":[[[0.44655463635413845,42.89155106410129],[0.44675232919746877,42.88705712446477],[0.44980798373402237,42.88712976184381],[0.45000540975149783,42.88263583398436],[0.45306083569944205,42.88270837850952],[0.45315941914876307,42.88046141826905],[0.4653807267330951,42.88075071518129],[0.46528261569611823,42.882997687198234],[0.4683380797009048,42.883069797015686],[0.46824007918521615,42.88531677639786],[0.4712956688893002,42.88538880220464],[0.47109988136034614,42.88988278010995],[0.46804405539830557,42.88981074843908],[0.4681420710846429,42.88756376020675],[0.4650863708419071,42.88749164451835],[0.4651844970660163,42.88524466364499],[0.459073355618759,42.885100177302306],[0.45897499315022305,42.88734715229401],[0.45591931571952354,42.887274775758776],[0.4558208275078409,42.88952175222731],[0.44970925926497085,42.88937673240925],[0.4496105271545262,42.89162370739416],[0.44655463635413845,42.89155106410129]]]}},{"type":"Feature","properties":{"category":"arrival_step","arrival_snapshot_index":10,"first_detected_utc":"2026-09-07T13:55:00+00:00","first_detected_local":"2026-09-07T15:55:00+02:00","area_km2":0.812,"label":"Première détection FIRMS","model_version":"fire_progression_arrival_v1"},"geometry":{"type":"Polygon","coordinates":[[[0.44891918834792016,42.90735265576184],[0.4490179739729498,42.905105649931315],[0.4459613741620243,42.905032988893964],[0.44615915884352275,42.90053899634185],[0.4614410523983341,42.90090140226068],[0.4612444496013707,42.90539542431872],[0.4581878192548219,42.90532311118689],[0.4580893882362453,42.907570125869725],[0.44891918834792016,42.90735265576184]]]}},{"type":"Feature","properties":{"category":"arrival_step","arrival_snapshot_index":11,"first_detected_utc":"2026-09-07T21:01:00+00:00","first_detected_local":"2026-09-07T23:01:00+02:00","area_km2":1.188,"label":"Première détection FIRMS","model_version":"fire_progression_arrival_v1"},"geometry":{"type":"Polygon","coordinates":[[[0.44872159415149904,42.911846680600206],[0.44882039507439914,42.90959966598586],[0.4457635588535872,42.90952699903268],[0.4458624703366173,42.9072799917666],[0.44280575998293803,42.907207240792296],[0.44300379636686116,42.90271324536629],[0.44606027033069634,42.90278599041794],[0.4459613741620243,42.905032988893964],[0.4490179739729498,42.905105649931315],[0.44891918834792016,42.90735265576184],[0.4580893882362453,42.907570125869725],[0.4581878192548219,42.90532311118689],[0.4612444496013707,42.90539542431872],[0.4614410523983341,42.90090140226068],[0.46755386314933145,42.90104575583942],[0.4673577331185648,42.90553978965033],[0.46430108755899635,42.905467650473305],[0.4641046907364728,42.90996169600092],[0.46104781636010284,42.90988946396586],[0.4609494883206455,42.912136490377215],[0.44872159415149904,42.911846680600206]]]}},{"type":"Feature","properties":{"category":"arrival_step","arrival_snapshot_index":12,"first_detected_utc":"2026-09-08T01:07:00+00:00","first_detected_local":"2026-09-08T03:07:00+02:00","area_km2":0.688,"label":"Première détection FIRMS","model_version":"fire_progression_arrival_v1"},"geometry":{"type":"Polygon","coordinates":[[[0.4398481975195071,42.90488740589295],[0.44024468167241504,42.895899462104076],[0.44330079345764944,42.89597228523371],[0.4433997771621112,42.893725307337554],[0.44951178740180303,42.893870686795346],[0.44921552228108735,42.90061165146389],[0.44615915884352275,42.90053899634185],[0.44606027033069634,42.90278599041794],[0.44300379636686116,42.90271324536629],[0.44290478200783295,42.904960240881046],[0.4398481975195071,42.90488740589295]]]}},{"type":"Feature","properties":{"category":"arrival_step","arrival_snapshot_index":17,"first_detected_utc":"2026-09-08T08:56:00+00:00","first_detected_local":"2026-09-08T10:56:00+02:00","area_km2":0.562,"label":"Première détection FIRMS","model_version":"fire_progression_arrival_v1"},"geometry":{"type":"Polygon","coordinates":[[[0.4641046907364728,42.90996169600092],[0.46430108755899635,42.905467650473305],[0.4673577331185648,42.90553978965033],[0.46755386314933145,42.90104575583942],[0.4644974539737434,42.900973622535304],[0.4646937899877736,42.89647961221282],[0.4708061432333168,42.89662378011249],[0.4703164280733558,42.907858868285885],[0.4672596567144045,42.9077868131537],[0.4671615727165519,42.910033841051316],[0.4641046907364728,42.90996169600092]]]}},{"type":"Feature","properties":{"category":"firms_extent_snapshot","snapshot_index":1,"pass_time_utc":"2026-09-07T01:26:00+00:00","dt_local":"2026-09-07T03:26:00+02:00","label":"Emprise FIRMS cumulée à ce passage","interpretation":"Enveloppe des détections FIRMS, pas une surface brûlée","cumulative":true,"point_count":2,"extent_method":"cumulative_detection_extent_smoothed_landmasked_web_v1","local_cluster_link_m":10000.0,"model_version":"fire_progression_arrival_v1"},"geometry":{"type":"Polygon","coordinates":[[[0.44740454793170537,42.89507291095782],[0.44859790714153536,42.897150708821194],[0.4513114957256383,42.89785058450258],[0.45646259334568035,42.89574093205636],[0.4581514941299559,42.89587777587973],[0.46100927613802795,42.8970463479699],[0.4630630690206009,42.89696122913667],[0.4648644228198187,42.89594368765741],[0.46549931816678913,42.894242019235925],[0.4642563461024135,42.89239165725834],[0.4615980306450844,42.89172944742645],[0.4564474755389948,42.89383933864259],[0.454758638069141,42.89370246827141],[0.4519737401091824,42.892547542634524],[0.4500473613888249,42.89257134991907],[0.44813325845970053,42.89354629450101],[0.44740454793170537,42.89507291095782]]]}},{"type":"Feature","properties":{"category":"observed_front","snapshot_index":3,"pass_time_utc":"2026-09-07T02:32:00+00:00","dt_local":"2026-09-07T04:32:00+02:00","area_km2":0.438,"label":"Activité observée","coherence_level":"indisponible","coherence_fraction":0.0,"projection_displayed":false,"model_version":"fire_progression_arrival_v1"},"geometry":{"type":"Polygon","coordinates":[[[0.45867986006226963,42.894088103794765],[0.45897499315022305,42.88734715229401],[0.4650863708419071,42.88749164451835],[0.4649882370229105,42.88973862981504],[0.46804405539830557,42.88981074843908],[0.46794603212532315,42.89205774109166],[0.4648900956081437,42.89198561953186],[0.4647919465967251,42.89423261366553],[0.45867986006226963,42.894088103794765]]]}},{"type":"Feature","properties":{"category":"firms_extent_snapshot","snapshot_index":4,"pass_time_utc":"2026-09-07T03:08:00+00:00","dt_local":"2026-09-07T05:08:00+02:00","label":"Emprise FIRMS cumulée à ce passage","interpretation":"Enveloppe des détections FIRMS, pas une surface brûlée","cumulative":true,"point_count":10,"extent_method":"cumulative_detection_extent_smoothed_landmasked_web_v1","local_cluster_link_m":10000.0,"model_version":"fire_progression_arrival_v1"},"geometry":{"type":"Polygon","coordinates":[[[0.44740454793170537,42.89507291095782],[0.4479976235642086,42.89663095298803],[0.4498926556357116,42.89771371572183],[0.4517426944658618,42.89780988609178],[0.4548977932800466,42.8969295671427],[0.45894078326700943,42.8973827042064],[0.46061933403496935,42.89794534289819],[0.46316084374774025,42.89988281749314],[0.4659632598034063,42.89999120296868],[0.467498959880812,42.89922659900348],[0.4683274401738816,42.898006623014226],[0.4671106437942985,42.8942726447836],[0.4688330860747344,42.891413973741834],[0.4687359161168839,42.88985060362305],[0.466791283072095,42.888293223386384],[0.464056964787819,42.888208810197256],[0.46177671100469664,42.889224729627394],[0.4551963818002449,42.89090225405529],[0.4526438906044128,42.89227790217706],[0.4491966858826284,42.892842824223486],[0.4478932247185413,42.89381277554509],[0.44740454793170537,42.89507291095782]]]}},{"type":"Feature","properties":{"category":"historical_support","snapshot_index":4,"pass_time_utc":"2026-09-07T03:08:00+00:00","dt_local":"2026-09-07T05:08:00+02:00","area_km2":0.812,"label":"Isoline temporelle","coherence_level":"indisponible","coherence_fraction":0.0,"projection_displayed":false,"model_version":"fire_progression_arrival_v1"},"geometry":{"type":"Polygon","coordinates":[[[0.4556238282141589,42.89401571842039],[0.45591931571952354,42.887274775758776],[0.45897499315022305,42.88734715229401],[0.459073355618759,42.885100177302306],[0.4651844970660163,42.88524466364499],[0.4650863708419071,42.88749164451835],[0.4681420710846429,42.88756376020675],[0.46794603212532315,42.89205774109166],[0.4648900956081437,42.89198561953186],[0.4647919465967251,42.89423261366553],[0.4556238282141589,42.89401571842039]]]}},{"type":"Feature","properties":{"category":"observed_front","snapshot_index":4,"pass_time_utc":"2026-09-07T03:08:00+00:00","dt_local":"2026-09-07T05:08:00+02:00","area_km2":0.812,"label":"Activité observée","coherence_level":"indisponible","coherence_fraction":0.0,"projection_displayed":false,"model_version":"fire_progression_arrival_v1"},"geometry":{"type":"Polygon","coordinates":[[[0.4556238282141589,42.89401571842039],[0.45591931571952354,42.887274775758776],[0.45897499315022305,42.88734715229401],[0.459073355618759,42.885100177302306],[0.4651844970660163,42.88524466364499],[0.4650863708419071,42.88749164451835],[0.4681420710846429,42.88756376020675],[0.46794603212532315,42.89205774109166],[0.4648900956081437,42.89198561953186],[0.4647919465967251,42.89423261366553],[0.4556238282141589,42.89401571842039]]]}},{"type":"Feature","properties":{"category":"historical_support","snapshot_index":5,"pass_time_utc":"2026-09-07T04:29:00+00:00","dt_local":"2026-09-07T06:29:00+02:00","area_km2":2.0,"label":"Isoline temporelle","coherence_level":"indisponible","coherence_fraction":0.0,"projection_displayed":false,"model_version":"fire_progression_arrival_v1"},"geometry":{"type":"Polygon","coordinates":[[[0.44921552228108735,42.90061165146389],[0.44970925926497085,42.88937673240925],[0.4558208275078409,42.88952175222731],[0.45591931571952354,42.887274775758776],[0.45897499315022305,42.88734715229401],[0.459073355618759,42.885100177302306],[0.4651844970660163,42.88524466364499],[0.4650863708419071,42.88749164451835],[0.4681420710846429,42.88756376020675],[0.46794603212532315,42.89205774109166],[0.4648900956081437,42.89198561953186],[0.4644974539737434,42.900973622535304],[0.44921552228108735,42.90061165146389]]]}},{"type":"Feature","properties":{"category":"observed_front","snapshot_index":5,"pass_time_utc":"2026-09-07T04:29:00+00:00","dt_local":"2026-09-07T06:29:00+02:00","area_km2":1.562,"label":"Activité observée","coherence_level":"indisponible","coherence_fraction":0.0,"projection_displayed":false,"model_version":"fire_progression_arrival_v1"},"geometry":{"type":"Polygon","coordinates":[[[0.44921552228108735,42.90061165146389],[0.44970925926497085,42.88937673240925],[0.4649882370229105,42.88973862981504],[0.4644974539737434,42.900973622535304],[0.44921552228108735,42.90061165146389]]]}},{"type":"Feature","properties":{"category":"historical_support","snapshot_index":6,"pass_time_utc":"2026-09-07T09:56:00+00:00","dt_local":"2026-09-07T11:56:00+02:00","area_km2":3.25,"label":"Isoline temporelle","coherence_level":"indisponible","coherence_fraction":0.0,"projection_displayed":false,"model_version":"fire_progression_arrival_v1"},"geometry":{"type":"Polygon","coordinates":[[[0.44921552228108735,42.90061165146389],[0.4496105271545262,42.89162370739416],[0.44655463635413845,42.89155106410129],[0.44675232919746877,42.88705712446477],[0.44980798373402237,42.88712976184381],[0.45000540975149783,42.88263583398436],[0.45306083569944205,42.88270837850952],[0.45315941914876307,42.88046141826905],[0.4653807267330951,42.88075071518129],[0.46528261569611823,42.882997687198234],[0.4683380797009048,42.883069797015686],[0.46824007918521615,42.88531677639786],[0.4712956688893002,42.88538880220464],[0.47109988136034614,42.88988278010995],[0.46804405539830557,42.88981074843908],[0.46794603212532315,42.89205774109166],[0.4648900956081437,42.89198561953186],[0.4644974539737434,42.900973622535304],[0.44921552228108735,42.90061165146389]]]}},{"type":"Feature","properties":{"category":"observed_front","snapshot_index":6,"pass_time_utc":"2026-09-07T09:56:00+00:00","dt_local":"2026-09-07T11:56:00+02:00","area_km2":2.562,"label":"Activité observée","coherence_level":"indisponible","coherence_fraction":0.0,"projection_displayed":false,"model_version":"fire_progression_arrival_v1"},"geometry":{"type":"Polygon","coordinates":[[[0.4524691747506888,42.896190232855],[0.4525678039909613,42.893943246087126],[0.44951178740180303,42.893870686795346],[0.4496105271545262,42.89162370739416],[0.44655463635413845,42.89155106410129],[0.44675232919746877,42.88705712446477],[0.44980798373402237,42.88712976184381],[0.45000540975149783,42.88263583398436],[0.45306083569944205,42.88270837850952],[0.45315941914876307,42.88046141826905],[0.4653807267330951,42.88075071518129],[0.46528261569611823,42.882997687198234],[0.4683380797009048,42.883069797015686],[0.46824007918521615,42.88531677639786],[0.4712956688893002,42.88538880220464],[0.47109988136034614,42.88988278010995],[0.46804405539830557,42.88981074843908],[0.46794603212532315,42.89205774109166],[0.4648900956081437,42.89198561953186],[0.4646937899877736,42.89647961221282],[0.4524691747506888,42.896190232855]]]}},{"type":"Feature","properties":{"category":"historical_support","snapshot_index":7,"pass_time_utc":"2026-09-07T12:14:00+00:00","dt_local":"2026-09-07T14:14:00+02:00","area_km2":3.25,"label":"Isoline temporelle","coherence_level":"indisponible","coherence_fraction":0.0,"projection_displayed":false,"model_version":"fire_progression_arrival_v1"},"geometry":{"type":"Polygon","coordinates":[[[0.44921552228108735,42.90061165146389],[0.4496105271545262,42.89162370739416],[0.44655463635413845,42.89155106410129],[0.44675232919746877,42.88705712446477],[0.44980798373402237,42.88712976184381],[0.45000540975149783,42.88263583398436],[0.45306083569944205,42.88270837850952],[0.45315941914876307,42.88046141826905],[0.4653807267330951,42.88075071518129],[0.46528261569611823,42.882997687198234],[0.4683380797009048,42.883069797015686],[0.46824007918521615,42.88531677639786],[0.4712956688893002,42.88538880220464],[0.47109988136034614,42.88988278010995],[0.46804405539830557,42.88981074843908],[0.46794603212532315,42.89205774109166],[0.4648900956081437,42.89198561953186],[0.4644974539737434,42.900973622535304],[0.44921552228108735,42.90061165146389]]]}},{"type":"Feature","properties":{"category":"historical_support","snapshot_index":8,"pass_time_utc":"2026-09-07T12:51:00+00:00","dt_local":"2026-09-07T14:51:00+02:00","area_km2":3.25,"label":"Isoline temporelle","coherence_level":"indisponible","coherence_fraction":0.0,"projection_displayed":false,"model_version":"fire_progression_arrival_v1"},"geometry":{"type":"Polygon","coordinates":[[[0.44921552228108735,42.90061165146389],[0.4496105271545262,42.89162370739416],[0.44655463635413845,42.89155106410129],[0.44675232919746877,42.88705712446477],[0.44980798373402237,42.88712976184381],[0.45000540975149783,42.88263583398436],[0.45306083569944205,42.88270837850952],[0.45315941914876307,42.88046141826905],[0.4653807267330951,42.88075071518129],[0.46528261569611823,42.882997687198234],[0.4683380797009048,42.883069797015686],[0.46824007918521615,42.88531677639786],[0.4712956688893002,42.88538880220464],[0.47109988136034614,42.88988278010995],[0.46804405539830557,42.88981074843908],[0.46794603212532315,42.89205774109166],[0.4648900956081437,42.89198561953186],[0.4644974539737434,42.900973622535304],[0.44921552228108735,42.90061165146389]]]}},{"type":"Feature","properties":{"category":"firms_extent_snapshot","snapshot_index":9,"pass_time_utc":"2026-09-07T13:10:00+00:00","dt_local":"2026-09-07T15:10:00+02:00","label":"Emprise FIRMS cumulée à ce passage","interpretation":"Enveloppe des détections FIRMS, pas une surface brûlée","cumulative":true,"point_count":26,"extent_method":"cumulative_detection_extent_smoothed_landmasked_web_v1","local_cluster_link_m":10000.0,"model_version":"fire_progression_arrival_v1"},"geometry":{"type":"Polygon","coordinates":[[[0.44749399555975455,42.89248245462965],[0.4476663639333978,42.89616198653139],[0.4507359427971521,42.89836199300843],[0.4514469216535431,42.89962488968554],[0.45010522600210917,42.90515408534046],[0.4506359618319344,42.906874964381906],[0.4534749351324573,42.90887939596384],[0.454912270484993,42.90935750071196],[0.46097875948460615,42.90837904711375],[0.4626279194920759,42.906646817680105],[0.46229269852465604,42.90278390865931],[0.4626698092703405,42.901577917811736],[0.4639373671608964,42.90051929587044],[0.46703284673162165,42.89955353836471],[0.46831225765067563,42.89806061566751],[0.4682995890356539,42.8968040244363],[0.4671106437942985,42.8942726447836],[0.46893907631402004,42.89057190260964],[0.46842623338230144,42.887700801248634],[0.4673542700710594,42.8858857569633],[0.4649667423921512,42.88399979802833],[0.4624409946057999,42.883047150248665],[0.4589652511508499,42.88272161915371],[0.45557798689351153,42.883380712492254],[0.4526726063245411,42.88500656543729],[0.4491611624115299,42.888820470911426],[0.44797470293738073,42.89053544360698],[0.44749399555975455,42.89248245462965]]]}},{"type":"Feature","properties":{"category":"historical_support","snapshot_index":9,"pass_time_utc":"2026-09-07T13:10:00+00:00","dt_local":"2026-09-07T15:10:00+02:00","area_km2":3.25,"label":"Isoline temporelle","coherence_level":"indisponible","coherence_fraction":0.0,"projection_displayed":false,"model_version":"fire_progression_arrival_v1"},"geometry":{"type":"Polygon","coordinates":[[[0.44921552228108735,42.90061165146389],[0.4496105271545262,42.89162370739416],[0.44655463635413845,42.89155106410129],[0.44675232919746877,42.88705712446477],[0.44980798373402237,42.88712976184381],[0.45000540975149783,42.88263583398436],[0.45306083569944205,42.88270837850952],[0.45315941914876307,42.88046141826905],[0.4653807267330951,42.88075071518129],[0.46528261569611823,42.882997687198234],[0.4683380797009048,42.883069797015686],[0.46824007918521615,42.88531677639786],[0.4712956688893002,42.88538880220464],[0.47109988136034614,42.88988278010995],[0.46804405539830557,42.88981074843908],[0.46794603212532315,42.89205774109166],[0.4648900956081437,42.89198561953186],[0.4644974539737434,42.900973622535304],[0.44921552228108735,42.90061165146389]]]}},{"type":"Feature","properties":{"category":"firms_extent_snapshot","snapshot_index":10,"pass_time_utc":"2026-09-07T13:55:00+00:00","dt_local":"2026-09-07T15:55:00+02:00","label":"Emprise FIRMS cumulée à ce passage","interpretation":"Enveloppe des détections FIRMS, pas une surface brûlée","cumulative":true,"point_count":31,"extent_method":"cumulative_detection_extent_smoothed_landmasked_web_v1","local_cluster_link_m":10000.0,"model_version":"fire_progression_arrival_v1"},"geometry":{"type":"Polygon","coordinates":[[[0.44797470293738073,42.89053544360698],[0.4476382069777047,42.8961108864326],[0.4507359427971521,42.89836199300843],[0.45147138170198653,42.8997966534316],[0.45049846505325164,42.902876638687275],[0.4481138000915353,42.90520698323212],[0.4484958787201252,42.907444903061396],[0.45036203695660815,42.908554770406305],[0.45526760973123936,42.90939939704525],[0.46097875948460615,42.90837904711375],[0.4626279194920759,42.906646817680105],[0.46229269852465604,42.90278390865931],[0.4626698092703405,42.901577917811736],[0.4639373671608964,42.90051929587044],[0.46703284673162165,42.89955353836471],[0.46831225765067563,42.89806061566751],[0.46782662986354334,42.89521275460283],[0.46893907631402004,42.89057190260964],[0.46842623338230144,42.887700801248634],[0.4673542700710594,42.8858857569633],[0.4649667423921512,42.88399979802833],[0.4624409946057999,42.883047150248665],[0.4589652511508499,42.88272161915371],[0.45557798689351153,42.883380712492254],[0.4526726063245411,42.88500656543729],[0.4491611624115299,42.888820470911426],[0.44797470293738073,42.89053544360698]]]}},{"type":"Feature","properties":{"category":"historical_support","snapshot_index":10,"pass_time_utc":"2026-09-07T13:55:00+00:00","dt_local":"2026-09-07T15:55:00+02:00","area_km2":4.062,"label":"Isoline temporelle","coherence_level":"indisponible","coherence_fraction":0.0,"projection_displayed":false,"model_version":"fire_progression_arrival_v1"},"geometry":{"type":"Polygon","coordinates":[[[0.44891918834792016,42.90735265576184],[0.4490179739729498,42.905105649931315],[0.4459613741620243,42.905032988893964],[0.44615915884352275,42.90053899634185],[0.44921552228108735,42.90061165146389],[0.4496105271545262,42.89162370739416],[0.44655463635413845,42.89155106410129],[0.44675232919746877,42.88705712446477],[0.44980798373402237,42.88712976184381],[0.45000540975149783,42.88263583398436],[0.45306083569944205,42.88270837850952],[0.45315941914876307,42.88046141826905],[0.4653807267330951,42.88075071518129],[0.46528261569611823,42.882997687198234],[0.4683380797009048,42.883069797015686],[0.46824007918521615,42.88531677639786],[0.4712956688893002,42.88538880220464],[0.47109988136034614,42.88988278010995],[0.46804405539830557,42.88981074843908],[0.46794603212532315,42.89205774109166],[0.4648900956081437,42.89198561953186],[0.4644974539737434,42.900973622535304],[0.4614410523983341,42.90090140226068],[0.4612444496013707,42.90539542431872],[0.4581878192548219,42.90532311118689],[0.4580893882362453,42.907570125869725],[0.44891918834792016,42.90735265576184]]]}},{"type":"Feature","properties":{"category":"observed_front","snapshot_index":10,"pass_time_utc":"2026-09-07T13:55:00+00:00","dt_local":"2026-09-07T15:55:00+02:00","area_km2":3.0,"label":"Activité observée","coherence_level":"indisponible","coherence_fraction":0.0,"projection_displayed":false,"model_version":"fire_progression_arrival_v1"},"geometry":{"type":"Polygon","coordinates":[[[0.44891918834792016,42.90735265576184],[0.4490179739729498,42.905105649931315],[0.4459613741620243,42.905032988893964],[0.44615915884352275,42.90053899634185],[0.44921552228108735,42.90061165146389],[0.44980798373402237,42.88712976184381],[0.4528636459110818,42.88720231227524],[0.4529622446205106,42.88495534317934],[0.4651844970660163,42.88524466364499],[0.4650863708419071,42.88749164451835],[0.4681420710846429,42.88756376020675],[0.46794603212532315,42.89205774109166],[0.4648900956081437,42.89198561953186],[0.464595625780407,42.8987266151705],[0.4615393423824098,42.89865439783567],[0.4612444496013707,42.90539542431872],[0.4581878192548219,42.90532311118689],[0.4580893882362453,42.907570125869725],[0.44891918834792016,42.90735265576184]]]}},{"type":"Feature","properties":{"category":"historical_support","snapshot_index":11,"pass_time_utc":"2026-09-07T21:01:00+00:00","dt_local":"2026-09-07T23:01:00+02:00","area_km2":5.25,"label":"Isoline temporelle","coherence_level":"indisponible","coherence_fraction":0.0,"projection_displayed":false,"model_version":"fire_progression_arrival_v1"},"geometry":{"type":"Polygon","coordinates":[[[0.44872159415149904,42.911846680600206],[0.44882039507439914,42.90959966598586],[0.4457635588535872,42.90952699903268],[0.4458624703366173,42.9072799917666],[0.44280575998293803,42.907207240792296],[0.44300379636686116,42.90271324536629],[0.44606027033069634,42.90278599041794],[0.44615915884352275,42.90053899634185],[0.44921552228108735,42.90061165146389],[0.4496105271545262,42.89162370739416],[0.44655463635413845,42.89155106410129],[0.44675232919746877,42.88705712446477],[0.44980798373402237,42.88712976184381],[0.45000540975149783,42.88263583398436],[0.45306083569944205,42.88270837850952],[0.45315941914876307,42.88046141826905],[0.4653807267330951,42.88075071518129],[0.46528261569611823,42.882997687198234],[0.4683380797009048,42.883069797015686],[0.46824007918521615,42.88531677639786],[0.4712956688893002,42.88538880220464],[0.47109988136034614,42.88988278010995],[0.46804405539830557,42.88981074843908],[0.46794603212532315,42.89205774109166],[0.4648900956081437,42.89198561953186],[0.4644974539737434,42.900973622535304],[0.46755386314933145,42.90104575583942],[0.4673577331185648,42.90553978965033],[0.46430108755899635,42.905467650473305],[0.4641046907364728,42.90996169600092],[0.46104781636010284,42.90988946396586],[0.4609494883206455,42.912136490377215],[0.44872159415149904,42.911846680600206]]]}},{"type":"Feature","properties":{"category":"observed_front","snapshot_index":11,"pass_time_utc":"2026-09-07T21:01:00+00:00","dt_local":"2026-09-07T23:01:00+02:00","area_km2":2.562,"label":"Activité observée","coherence_level":"indisponible","coherence_fraction":0.0,"projection_displayed":false,"model_version":"fire_progression_arrival_v1"},"geometry":{"type":"Polygon","coordinates":[[[0.44872159415149904,42.911846680600206],[0.44882039507439914,42.90959966598586],[0.4457635588535872,42.90952699903268],[0.4458624703366173,42.9072799917666],[0.44280575998293803,42.907207240792296],[0.44300379636686116,42.90271324536629],[0.44606027033069634,42.90278599041794],[0.44615915884352275,42.90053899634185],[0.44921552228108735,42.90061165146389],[0.44941304000591353,42.89611767060951],[0.46163762475806,42.896407397817676],[0.4615393423824098,42.89865439783567],[0.464595625780407,42.8987266151705],[0.4644974539737434,42.900973622535304],[0.46755386314933145,42.90104575583942],[0.4673577331185648,42.90553978965033],[0.46430108755899635,42.905467650473305],[0.4641046907364728,42.90996169600092],[0.46104781636010284,42.90988946396586],[0.4609494883206455,42.912136490377215],[0.44872159415149904,42.911846680600206]]]}},{"type":"Feature","properties":{"category":"firms_extent_snapshot","snapshot_index":12,"pass_time_utc":"2026-09-08T01:07:00+00:00","dt_local":"2026-09-08T03:07:00+02:00","label":"Emprise FIRMS cumulée à ce passage","interpretation":"Enveloppe des détections FIRMS, pas une surface brûlée","cumulative":true,"point_count":38,"extent_method":"cumulative_detection_extent_smoothed_landmasked_web_v1","local_cluster_link_m":10000.0,"model_version":"fire_progression_arrival_v1"},"geometry":{"type":"Polygon","coordinates":[[[0.44006427483723426,42.89957266008566],[0.44065719943244214,42.90113074889026],[0.4438515606615128,42.90364761216941],[0.44437699003725295,42.90616106141241],[0.44408378941942694,42.90986534462714],[0.4448941821158656,42.91169497465818],[0.44642713974082127,42.913321714233334],[0.4492700769910731,42.914829434099396],[0.45200137667899065,42.915401762701656],[0.4554986678235257,42.91522259863461],[0.4586477161745729,42.91409017753141],[0.46106695136999115,42.912078560990444],[0.4624941026421053,42.90892133496806],[0.4647572579918676,42.90641948457812],[0.4655027157068882,42.9044615242075],[0.4655057196305496,42.90101651983752],[0.46831225765067563,42.89806061566751],[0.46782662986354334,42.89521275460283],[0.46893907631402004,42.89057190260964],[0.46842623338230144,42.887700801248634],[0.4668858822970461,42.88538640962804],[0.4641502933859532,42.88360837654012],[0.46076180320607674,42.88276413484607],[0.45719193127996083,42.882937640999664],[0.4540445439413905,42.88406998803947],[0.45211352164359164,42.885525081234206],[0.44830510443149174,42.88991991949718],[0.44690716701346417,42.89574396180034],[0.44523808238853124,42.89676029466746],[0.44149633376413727,42.8975213231433],[0.44006427483723426,42.89957266008566]]]}},{"type":"Feature","properties":{"category":"historical_support","snapshot_index":12,"pass_time_utc":"2026-09-08T01:07:00+00:00","dt_local":"2026-09-08T03:07:00+02:00","area_km2":5.938,"label":"Isoline temporelle","coherence_level":"indisponible","coherence_fraction":0.0,"projection_displayed":false,"model_version":"fire_progression_arrival_v1"},"geometry":{"type":"Polygon","coordinates":[[[0.44872159415149904,42.911846680600206],[0.44882039507439914,42.90959966598586],[0.4457635588535872,42.90952699903268],[0.4458624703366173,42.9072799917666],[0.44280575998293803,42.907207240792296],[0.44290478200783295,42.904960240881046],[0.4398481975195071,42.90488740589295],[0.44024468167241504,42.895899462104076],[0.44330079345764944,42.89597228523371],[0.4433997771621112,42.893725307337554],[0.44951178740180303,42.893870686795346],[0.4496105271545262,42.89162370739416],[0.44655463635413845,42.89155106410129],[0.44675232919746877,42.88705712446477],[0.44980798373402237,42.88712976184381],[0.45000540975149783,42.88263583398436],[0.45306083569944205,42.88270837850952],[0.45315941914876307,42.88046141826905],[0.4653807267330951,42.88075071518129],[0.46528261569611823,42.882997687198234],[0.4683380797009048,42.883069797015686],[0.46824007918521615,42.88531677639786],[0.4712956688893002,42.88538880220464],[0.47109988136034614,42.88988278010995],[0.46804405539830557,42.88981074843908],[0.46794603212532315,42.89205774109166],[0.4648900956081437,42.89198561953186],[0.4644974539737434,42.900973622535304],[0.46755386314933145,42.90104575583942],[0.4673577331185648,42.90553978965033],[0.46430108755899635,42.905467650473305],[0.4641046907364728,42.90996169600092],[0.46104781636010284,42.90988946396586],[0.4609494883206455,42.912136490377215],[0.44872159415149904,42.911846680600206]]]}},{"type":"Feature","properties":{"category":"observed_front","snapshot_index":12,"pass_time_utc":"2026-09-08T01:07:00+00:00","dt_local":"2026-09-08T03:07:00+02:00","area_km2":2.5,"label":"Activité observée","coherence_level":"indisponible","coherence_fraction":0.0,"projection_displayed":false,"model_version":"fire_progression_arrival_v1"},"geometry":{"type":"Polygon","coordinates":[[[0.4457635588535872,42.90952699903268],[0.4458624703366173,42.9072799917666],[0.44280575998293803,42.907207240792296],[0.44290478200783295,42.904960240881046],[0.4398481975195071,42.90488740589295],[0.44024468167241504,42.895899462104076],[0.44330079345764944,42.89597228523371],[0.4433997771621112,42.893725307337554],[0.4525678039909613,42.893943246087126],[0.4524691747506888,42.896190232855],[0.45858146713589,42.89633509645942],[0.45848306659283933,42.8985820935342],[0.4615393423824098,42.89865439783567],[0.4611461367867169,42.90764244194528],[0.4580893882362453,42.907570125869725],[0.4579909495965766,42.90981714494647],[0.4457635588535872,42.90952699903268]]]}},{"type":"Feature","properties":{"category":"historical_support","snapshot_index":13,"pass_time_utc":"2026-09-08T01:28:00+00:00","dt_local":"2026-09-08T03:28:00+02:00","area_km2":5.938,"label":"Isoline temporelle","coherence_level":"indisponible","coherence_fraction":0.0,"projection_displayed":false,"model_version":"fire_progression_arrival_v1"},"geometry":{"type":"Polygon","coordinates":[[[0.44872159415149904,42.911846680600206],[0.44882039507439914,42.90959966598586],[0.4457635588535872,42.90952699903268],[0.4458624703366173,42.9072799917666],[0.44280575998293803,42.907207240792296],[0.44290478200783295,42.904960240881046],[0.4398481975195071,42.90488740589295],[0.44024468167241504,42.895899462104076],[0.44330079345764944,42.89597228523371],[0.4433997771621112,42.893725307337554],[0.44951178740180303,42.893870686795346],[0.4496105271545262,42.89162370739416],[0.44655463635413845,42.89155106410129],[0.44675232919746877,42.88705712446477],[0.44980798373402237,42.88712976184381],[0.45000540975149783,42.88263583398436],[0.45306083569944205,42.88270837850952],[0.45315941914876307,42.88046141826905],[0.4653807267330951,42.88075071518129],[0.46528261569611823,42.882997687198234],[0.4683380797009048,42.883069797015686],[0.46824007918521615,42.88531677639786],[0.4712956688893002,42.88538880220464],[0.47109988136034614,42.88988278010995],[0.46804405539830557,42.88981074843908],[0.46794603212532315,42.89205774109166],[0.4648900956081437,42.89198561953186],[0.4644974539737434,42.900973622535304],[0.46755386314933145,42.90104575583942],[0.4673577331185648,42.90553978965033],[0.46430108755899635,42.905467650473305],[0.4641046907364728,42.90996169600092],[0.46104781636010284,42.90988946396586],[0.4609494883206455,42.912136490377215],[0.44872159415149904,42.911846680600206]]]}},{"type":"Feature","properties":{"category":"observed_front","snapshot_index":13,"pass_time_utc":"2026-09-08T01:28:00+00:00","dt_local":"2026-09-08T03:28:00+02:00","area_km2":0.562,"label":"Activité observée","coherence_level":"indisponible","coherence_fraction":0.0,"projection_displayed":false,"model_version":"fire_progression_arrival_v1"},"geometry":{"type":"Polygon","coordinates":[[[0.4458624703366173,42.9072799917666],[0.44615915884352275,42.90053899634185],[0.4553282720845736,42.90075670080127],[0.45503264730686727,42.907497722813744],[0.4458624703366173,42.9072799917666]]]}},{"type":"Feature","properties":{"category":"historical_support","snapshot_index":14,"pass_time_utc":"2026-09-08T02:11:00+00:00","dt_local":"2026-09-08T04:11:00+02:00","area_km2":5.938,"label":"Isoline temporelle","coherence_level":"indisponible","coherence_fraction":0.0,"projection_displayed":false,"model_version":"fire_progression_arrival_v1"},"geometry":{"type":"Polygon","coordinates":[[[0.44872159415149904,42.911846680600206],[0.44882039507439914,42.90959966598586],[0.4457635588535872,42.90952699903268],[0.4458624703366173,42.9072799917666],[0.44280575998293803,42.907207240792296],[0.44290478200783295,42.904960240881046],[0.4398481975195071,42.90488740589295],[0.44024468167241504,42.895899462104076],[0.44330079345764944,42.89597228523371],[0.4433997771621112,42.893725307337554],[0.44951178740180303,42.893870686795346],[0.4496105271545262,42.89162370739416],[0.44655463635413845,42.89155106410129],[0.44675232919746877,42.88705712446477],[0.44980798373402237,42.88712976184381],[0.45000540975149783,42.88263583398436],[0.45306083569944205,42.88270837850952],[0.45315941914876307,42.88046141826905],[0.4653807267330951,42.88075071518129],[0.46528261569611823,42.882997687198234],[0.4683380797009048,42.883069797015686],[0.46824007918521615,42.88531677639786],[0.4712956688893002,42.88538880220464],[0.47109988136034614,42.88988278010995],[0.46804405539830557,42.88981074843908],[0.46794603212532315,42.89205774109166],[0.4648900956081437,42.89198561953186],[0.4644974539737434,42.900973622535304],[0.46755386314933145,42.90104575583942],[0.4673577331185648,42.90553978965033],[0.46430108755899635,42.905467650473305],[0.4641046907364728,42.90996169600092],[0.46104781636010284,42.90988946396586],[0.4609494883206455,42.912136490377215],[0.44872159415149904,42.911846680600206]]]}},{"type":"Feature","properties":{"category":"observed_front","snapshot_index":14,"pass_time_utc":"2026-09-08T02:11:00+00:00","dt_local":"2026-09-08T04:11:00+02:00","area_km2":0.625,"label":"Activité observée","coherence_level":"indisponible","coherence_fraction":0.0,"projection_displayed":false,"model_version":"fire_progression_arrival_v1"},"geometry":{"type":"Polygon","coordinates":[[[0.44891918834792016,42.90735265576184],[0.44921552228108735,42.90061165146389],[0.4583846584322337,42.90082909501587],[0.45828624265318985,42.90307610090117],[0.46134275480494835,42.90314841108943],[0.4612444496013707,42.90539542431872],[0.4581878192548219,42.90532311118689],[0.4580893882362453,42.907570125869725],[0.44891918834792016,42.90735265576184]]]}},{"type":"Feature","properties":{"category":"historical_support","snapshot_index":15,"pass_time_utc":"2026-09-08T02:47:00+00:00","dt_local":"2026-09-08T04:47:00+02:00","area_km2":5.938,"label":"Isoline temporelle","coherence_level":"indisponible","coherence_fraction":0.0,"projection_displayed":false,"model_version":"fire_progression_arrival_v1"},"geometry":{"type":"Polygon","coordinates":[[[0.44872159415149904,42.911846680600206],[0.44882039507439914,42.90959966598586],[0.4457635588535872,42.90952699903268],[0.4458624703366173,42.9072799917666],[0.44280575998293803,42.907207240792296],[0.44290478200783295,42.904960240881046],[0.4398481975195071,42.90488740589295],[0.44024468167241504,42.895899462104076],[0.44330079345764944,42.89597228523371],[0.4433997771621112,42.893725307337554],[0.44951178740180303,42.893870686795346],[0.4496105271545262,42.89162370739416],[0.44655463635413845,42.89155106410129],[0.44675232919746877,42.88705712446477],[0.44980798373402237,42.88712976184381],[0.45000540975149783,42.88263583398436],[0.45306083569944205,42.88270837850952],[0.45315941914876307,42.88046141826905],[0.4653807267330951,42.88075071518129],[0.46528261569611823,42.882997687198234],[0.4683380797009048,42.883069797015686],[0.46824007918521615,42.88531677639786],[0.4712956688893002,42.88538880220464],[0.47109988136034614,42.88988278010995],[0.46804405539830557,42.88981074843908],[0.46794603212532315,42.89205774109166],[0.4648900956081437,42.89198561953186],[0.4644974539737434,42.900973622535304],[0.46755386314933145,42.90104575583942],[0.4673577331185648,42.90553978965033],[0.46430108755899635,42.905467650473305],[0.4641046907364728,42.90996169600092],[0.46104781636010284,42.90988946396586],[0.4609494883206455,42.912136490377215],[0.44872159415149904,42.911846680600206]]]}},{"type":"Feature","properties":{"category":"observed_front","snapshot_index":15,"pass_time_utc":"2026-09-08T02:47:00+00:00","dt_local":"2026-09-08T04:47:00+02:00","area_km2":3.25,"label":"Activité observée","coherence_level":"indisponible","coherence_fraction":0.0,"projection_displayed":false,"model_version":"fire_progression_arrival_v1"},"geometry":{"type":"Polygon","coordinates":[[[0.44872159415149904,42.911846680600206],[0.44882039507439914,42.90959966598586],[0.4457635588535872,42.90952699903268],[0.4458624703366173,42.9072799917666],[0.44280575998293803,42.907207240792296],[0.44290478200783295,42.904960240881046],[0.4398481975195071,42.90488740589295],[0.44014557214356576,42.89814644144534],[0.44320180209088006,42.898219267539396],[0.44330079345764944,42.89597228523371],[0.44635691290519114,42.896045021402315],[0.4464557784558111,42.89379804054536],[0.4556238282141589,42.89401571842039],[0.45552531713039074,42.896262708138416],[0.46163762475806,42.896407397817676],[0.4615393423824098,42.89865439783567],[0.464595625780407,42.8987266151705],[0.4644974539737434,42.900973622535304],[0.46755386314933145,42.90104575583942],[0.4673577331185648,42.90553978965033],[0.46430108755899635,42.905467650473305],[0.4641046907364728,42.90996169600092],[0.46104781636010284,42.90988946396586],[0.4609494883206455,42.912136490377215],[0.44872159415149904,42.911846680600206]]]}},{"type":"Feature","properties":{"category":"firms_extent_snapshot","snapshot_index":16,"pass_time_utc":"2026-09-08T03:08:00+00:00","dt_local":"2026-09-08T05:08:00+02:00","label":"Emprise FIRMS cumulée à ce passage","interpretation":"Enveloppe des détections FIRMS, pas une surface brûlée","cumulative":true,"point_count":60,"extent_method":"cumulative_detection_extent_smoothed_landmasked_web_v1","local_cluster_link_m":10000.0,"model_version":"fire_progression_arrival_v1"},"geometry":{"type":"Polygon","coordinates":[[[0.4391439705787094,42.904412628304165],[0.439947812395097,42.90618508152438],[0.4435493302346205,42.908273507519354],[0.4445358007023124,42.911087920795836],[0.4458444259967633,42.91281727660591],[0.4478417919906112,42.91422390097518],[0.4509683030743435,42.91526395311558],[0.45379904850809666,42.91543358805749],[0.45718155240985503,42.914756324858125],[0.4594479402725573,42.91359058706784],[0.46228355086048384,42.910937015127395],[0.4657492173383945,42.9097469203865],[0.4667142535853217,42.90864516498121],[0.4672731989790286,42.906517044231094],[0.4657253567669977,42.90398353476724],[0.4653542935435657,42.901533532032666],[0.46831225765067563,42.89806061566751],[0.46782662986354334,42.89521275460283],[0.4689452058592,42.890836478612854],[0.46817511180744137,42.88712297304605],[0.46625906489096614,42.88483756515666],[0.4633496261427771,42.88330638534284],[0.45986494693569263,42.88271042797114],[0.45633537957156617,42.88314039200063],[0.4532981014768481,42.88453084133675],[0.44827587318066403,42.889970691197874],[0.44690716701346417,42.89574396180034],[0.44523808238853124,42.89676029466746],[0.44185683365253015,42.897342686904864],[0.4405172788205956,42.8983609712269],[0.44006427483723426,42.89957266008566],[0.4404248013846031,42.901798056286964],[0.4391439705787094,42.904412628304165]]]}},{"type":"Feature","properties":{"category":"historical_support","snapshot_index":16,"pass_time_utc":"2026-09-08T03:08:00+00:00","dt_local":"2026-09-08T05:08:00+02:00","area_km2":5.938,"label":"Isoline temporelle","coherence_level":"indisponible","coherence_fraction":0.0,"projection_displayed":false,"model_version":"fire_progression_arrival_v1"},"geometry":{"type":"Polygon","coordinates":[[[0.44872159415149904,42.911846680600206],[0.44882039507439914,42.90959966598586],[0.4457635588535872,42.90952699903268],[0.4458624703366173,42.9072799917666],[0.44280575998293803,42.907207240792296],[0.44290478200783295,42.904960240881046],[0.4398481975195071,42.90488740589295],[0.44024468167241504,42.895899462104076],[0.44330079345764944,42.89597228523371],[0.4433997771621112,42.893725307337554],[0.44951178740180303,42.893870686795346],[0.4496105271545262,42.89162370739416],[0.44655463635413845,42.89155106410129],[0.44675232919746877,42.88705712446477],[0.44980798373402237,42.88712976184381],[0.45000540975149783,42.88263583398436],[0.45306083569944205,42.88270837850952],[0.45315941914876307,42.88046141826905],[0.4653807267330951,42.88075071518129],[0.46528261569611823,42.882997687198234],[0.4683380797009048,42.883069797015686],[0.46824007918521615,42.88531677639786],[0.4712956688893002,42.88538880220464],[0.47109988136034614,42.88988278010995],[0.46804405539830557,42.88981074843908],[0.46794603212532315,42.89205774109166],[0.4648900956081437,42.89198561953186],[0.4644974539737434,42.900973622535304],[0.46755386314933145,42.90104575583942],[0.4673577331185648,42.90553978965033],[0.46430108755899635,42.905467650473305],[0.4641046907364728,42.90996169600092],[0.46104781636010284,42.90988946396586],[0.4609494883206455,42.912136490377215],[0.44872159415149904,42.911846680600206]]]}},{"type":"Feature","properties":{"category":"observed_front","snapshot_index":16,"pass_time_utc":"2026-09-08T03:08:00+00:00","dt_local":"2026-09-08T05:08:00+02:00","area_km2":1.438,"label":"Activité observée","coherence_level":"indisponible","coherence_fraction":0.0,"projection_displayed":false,"model_version":"fire_progression_arrival_v1"},"geometry":{"type":"Polygon","coordinates":[[[0.4458624703366173,42.9072799917666],[0.4459613741620243,42.905032988893964],[0.44290478200783295,42.904960240881046],[0.44320180209088006,42.898219267539396],[0.4462580397013914,42.89829200666889],[0.44635691290519114,42.896045021402315],[0.45552531713039074,42.896262708138416],[0.4554267984208241,42.89850970226645],[0.45848306659283933,42.8985820935342],[0.4583846584322337,42.90082909501587],[0.4614410523983341,42.90090140226068],[0.46134275480494835,42.90314841108943],[0.45828624265318985,42.90307610090117],[0.4580893882362453,42.907570125869725],[0.4458624703366173,42.9072799917666]]]}},{"type":"Feature","properties":{"category":"historical_support","snapshot_index":17,"pass_time_utc":"2026-09-08T08:56:00+00:00","dt_local":"2026-09-08T10:56:00+02:00","area_km2":6.5,"label":"Isoline temporelle","coherence_level":"indisponible","coherence_fraction":0.0,"projection_displayed":false,"model_version":"fire_progression_arrival_v1"},"geometry":{"type":"Polygon","coordinates":[[[0.44872159415149904,42.911846680600206],[0.44882039507439914,42.90959966598586],[0.4457635588535872,42.90952699903268],[0.4458624703366173,42.9072799917666],[0.44280575998293803,42.907207240792296],[0.44290478200783295,42.904960240881046],[0.4398481975195071,42.90488740589295],[0.44024468167241504,42.895899462104076],[0.44330079345764944,42.89597228523371],[0.4433997771621112,42.893725307337554],[0.44951178740180303,42.893870686795346],[0.4496105271545262,42.89162370739416],[0.44655463635413845,42.89155106410129],[0.44675232919746877,42.88705712446477],[0.44980798373402237,42.88712976184381],[0.45000540975149783,42.88263583398436],[0.45306083569944205,42.88270837850952],[0.45315941914876307,42.88046141826905],[0.4653807267330951,42.88075071518129],[0.46528261569611823,42.882997687198234],[0.4683380797009048,42.883069797015686],[0.46824007918521615,42.88531677639786],[0.4712956688893002,42.88538880220464],[0.47109988136034614,42.88988278010995],[0.46804405539830557,42.88981074843908],[0.46794603212532315,42.89205774109166],[0.4648900956081437,42.89198561953186],[0.4646937899877736,42.89647961221282],[0.4708061432333168,42.89662378011249],[0.4703164280733558,42.907858868285885],[0.4672596567144045,42.9077868131537],[0.4671615727165519,42.910033841051316],[0.46104781636010284,42.90988946396586],[0.4609494883206455,42.912136490377215],[0.44872159415149904,42.911846680600206]]]}},{"type":"Feature","properties":{"category":"observed_front","snapshot_index":17,"pass_time_utc":"2026-09-08T08:56:00+00:00","dt_local":"2026-09-08T10:56:00+02:00","area_km2":3.562,"label":"Activité observée","coherence_level":"indisponible","coherence_fraction":0.0,"projection_displayed":false,"model_version":"fire_progression_arrival_v1"},"geometry":{"type":"Polygon","coordinates":[[[0.44872159415149904,42.911846680600206],[0.44882039507439914,42.90959966598586],[0.4457635588535872,42.90952699903268],[0.4458624703366173,42.9072799917666],[0.44280575998293803,42.907207240792296],[0.44320180209088006,42.898219267539396],[0.4462580397013914,42.89829200666889],[0.44635691290519114,42.896045021402315],[0.45552531713039074,42.896262708138416],[0.4556238282141589,42.89401571842039],[0.4647919465967251,42.89423261366553],[0.4646937899877736,42.89647961221282],[0.4708061432333168,42.89662378011249],[0.4703164280733558,42.907858868285885],[0.4672596567144045,42.9077868131537],[0.4671615727165519,42.910033841051316],[0.4579909495965766,42.90981714494647],[0.45789250333492965,42.9120641684139],[0.44872159415149904,42.911846680600206]]]}},{"type":"Feature","properties":{"category":"historical_support","snapshot_index":18,"pass_time_utc":"2026-09-08T11:55:00+00:00","dt_local":"2026-09-08T13:55:00+02:00","area_km2":6.5,"label":"Isoline temporelle","coherence_level":"indisponible","coherence_fraction":0.0,"projection_displayed":false,"model_version":"fire_progression_arrival_v1"},"geometry":{"type":"Polygon","coordinates":[[[0.44872159415149904,42.911846680600206],[0.44882039507439914,42.90959966598586],[0.4457635588535872,42.90952699903268],[0.4458624703366173,42.9072799917666],[0.44280575998293803,42.907207240792296],[0.44290478200783295,42.904960240881046],[0.4398481975195071,42.90488740589295],[0.44024468167241504,42.895899462104076],[0.44330079345764944,42.89597228523371],[0.4433997771621112,42.893725307337554],[0.44951178740180303,42.893870686795346],[0.4496105271545262,42.89162370739416],[0.44655463635413845,42.89155106410129],[0.44675232919746877,42.88705712446477],[0.44980798373402237,42.88712976184381],[0.45000540975149783,42.88263583398436],[0.45306083569944205,42.88270837850952],[0.45315941914876307,42.88046141826905],[0.4653807267330951,42.88075071518129],[0.46528261569611823,42.882997687198234],[0.4683380797009048,42.883069797015686],[0.46824007918521615,42.88531677639786],[0.4712956688893002,42.88538880220464],[0.47109988136034614,42.88988278010995],[0.46804405539830557,42.88981074843908],[0.46794603212532315,42.89205774109166],[0.4648900956081437,42.89198561953186],[0.4646937899877736,42.89647961221282],[0.4708061432333168,42.89662378011249],[0.4703164280733558,42.907858868285885],[0.4672596567144045,42.9077868131537],[0.4671615727165519,42.910033841051316],[0.46104781636010284,42.90988946396586],[0.4609494883206455,42.912136490377215],[0.44872159415149904,42.911846680600206]]]}},{"type":"Feature","properties":{"category":"historical_support","snapshot_index":19,"pass_time_utc":"2026-09-08T12:32:00+00:00","dt_local":"2026-09-08T14:32:00+02:00","area_km2":6.5,"label":"Isoline temporelle","coherence_level":"indisponible","coherence_fraction":0.0,"projection_displayed":false,"model_version":"fire_progression_arrival_v1"},"geometry":{"type":"Polygon","coordinates":[[[0.44872159415149904,42.911846680600206],[0.44882039507439914,42.90959966598586],[0.4457635588535872,42.90952699903268],[0.4458624703366173,42.9072799917666],[0.44280575998293803,42.907207240792296],[0.44290478200783295,42.904960240881046],[0.4398481975195071,42.90488740589295],[0.44024468167241504,42.895899462104076],[0.44330079345764944,42.89597228523371],[0.4433997771621112,42.893725307337554],[0.44951178740180303,42.893870686795346],[0.4496105271545262,42.89162370739416],[0.44655463635413845,42.89155106410129],[0.44675232919746877,42.88705712446477],[0.44980798373402237,42.88712976184381],[0.45000540975149783,42.88263583398436],[0.45306083569944205,42.88270837850952],[0.45315941914876307,42.88046141826905],[0.4653807267330951,42.88075071518129],[0.46528261569611823,42.882997687198234],[0.4683380797009048,42.883069797015686],[0.46824007918521615,42.88531677639786],[0.4712956688893002,42.88538880220464],[0.47109988136034614,42.88988278010995],[0.46804405539830557,42.88981074843908],[0.46794603212532315,42.89205774109166],[0.4648900956081437,42.89198561953186],[0.4646937899877736,42.89647961221282],[0.4708061432333168,42.89662378011249],[0.4703164280733558,42.907858868285885],[0.4672596567144045,42.9077868131537],[0.4671615727165519,42.910033841051316],[0.46104781636010284,42.90988946396586],[0.4609494883206455,42.912136490377215],[0.44872159415149904,42.911846680600206]]]}},{"type":"Feature","properties":{"category":"firms_extent_snapshot","snapshot_index":20,"pass_time_utc":"2026-09-08T12:51:00+00:00","dt_local":"2026-09-08T14:51:00+02:00","label":"Emprise FIRMS cumulée à ce passage","interpretation":"Enveloppe des détections FIRMS, pas une surface brûlée","cumulative":true,"point_count":68,"extent_method":"cumulative_detection_extent_smoothed_landmasked_web_v1","local_cluster_link_m":10000.0,"model_version":"fire_progression_arrival_v1"},"geometry":{"type":"Polygon","coordinates":[[[0.4391439705787094,42.904412628304165],[0.4428644670925265,42.91080706744695],[0.4477797480390788,42.91419291384888],[0.451040924921408,42.91527776331121],[0.4537243419865275,42.91543856947085],[0.45635569594292463,42.91501984851386],[0.45870830565539966,42.91405767281884],[0.4616505923755388,42.912084015748306],[0.4667358176889094,42.91140769598918],[0.46984498948720244,42.90999864863228],[0.4722322602968884,42.90729509472503],[0.47271588415231763,42.90457962025559],[0.4717590623551234,42.90204479563773],[0.4684860286161279,42.89865567180884],[0.4678228589881375,42.89538927116328],[0.4689239470450106,42.891045395962855],[0.46862724357237884,42.888402124216014],[0.4677919119503968,42.88646396089784],[0.46625906489096614,42.88483756515666],[0.4633496261427771,42.88330638534284],[0.45986494693569263,42.88271042797114],[0.45633537957156617,42.88314039200063],[0.4532981014768481,42.88453084133675],[0.44827587318066403,42.889970691197874],[0.44690716701346417,42.89574396180034],[0.44523808238853124,42.89676029466746],[0.44185683365253015,42.897342686904864],[0.4405172788205956,42.8983609712269],[0.44006427483723426,42.89957266008566],[0.4404248013846031,42.901798056286964],[0.4391439705787094,42.904412628304165]]]}},{"type":"Feature","properties":{"category":"historical_support","snapshot_index":20,"pass_time_utc":"2026-09-08T12:51:00+00:00","dt_local":"2026-09-08T14:51:00+02:00","area_km2":6.5,"label":"Isoline temporelle","coherence_level":"indisponible","coherence_fraction":0.0,"projection_displayed":false,"model_version":"fire_progression_arrival_v1"},"geometry":{"type":"Polygon","coordinates":[[[0.44872159415149904,42.911846680600206],[0.44882039507439914,42.90959966598586],[0.4457635588535872,42.90952699903268],[0.4458624703366173,42.9072799917666],[0.44280575998293803,42.907207240792296],[0.44290478200783295,42.904960240881046],[0.4398481975195071,42.90488740589295],[0.44024468167241504,42.895899462104076],[0.44330079345764944,42.89597228523371],[0.4433997771621112,42.893725307337554],[0.44951178740180303,42.893870686795346],[0.4496105271545262,42.89162370739416],[0.44655463635413845,42.89155106410129],[0.44675232919746877,42.88705712446477],[0.44980798373402237,42.88712976184381],[0.45000540975149783,42.88263583398436],[0.45306083569944205,42.88270837850952],[0.45315941914876307,42.88046141826905],[0.4653807267330951,42.88075071518129],[0.46528261569611823,42.882997687198234],[0.4683380797009048,42.883069797015686],[0.46824007918521615,42.88531677639786],[0.4712956688893002,42.88538880220464],[0.47109988136034614,42.88988278010995],[0.46804405539830557,42.88981074843908],[0.46794603212532315,42.89205774109166],[0.4648900956081437,42.89198561953186],[0.4646937899877736,42.89647961221282],[0.4708061432333168,42.89662378011249],[0.4703164280733558,42.907858868285885],[0.4672596567144045,42.9077868131537],[0.4671615727165519,42.910033841051316],[0.46104781636010284,42.90988946396586],[0.4609494883206455,42.912136490377215],[0.44872159415149904,42.911846680600206]]]}},{"type":"Feature","properties":{"category":"firms_extent_snapshot","snapshot_index":21,"pass_time_utc":"2026-09-08T13:36:00+00:00","dt_local":"2026-09-08T15:36:00+02:00","label":"Emprise FIRMS cumulée à ce passage","interpretation":"Enveloppe des détections FIRMS, pas une surface brûlée","cumulative":true,"point_count":70,"extent_method":"cumulative_detection_extent_smoothed_landmasked_web_v1","local_cluster_link_m":10000.0,"model_version":"fire_progression_arrival_v1"},"geometry":{"type":"Polygon","coordinates":[[[0.4391439705787094,42.904412628304165],[0.4428644670925265,42.91080706744695],[0.4477797480390788,42.91419291384888],[0.451040924921408,42.91527776331121],[0.4537243419865275,42.91543856947085],[0.45635569594292463,42.91501984851386],[0.4617395839818988,42.91210998706312],[0.46680662958256186,42.91138951335882],[0.46984498948720244,42.90999864863228],[0.4722322602968884,42.90729509472503],[0.47271588415231763,42.90457962025559],[0.4717590623551234,42.90204479563773],[0.4684860286161279,42.89865567180884],[0.4678228589881375,42.89538927116328],[0.4689239470450106,42.891045395962855],[0.46862724357237884,42.888402124216014],[0.4677919119503968,42.88646396089784],[0.46625906489096614,42.88483756515666],[0.4633496261427771,42.88330638534284],[0.45986494693569263,42.88271042797114],[0.45633537957156617,42.88314039200063],[0.4532981014768481,42.88453084133675],[0.44827587318066403,42.889970691197874],[0.44690716701346417,42.89574396180034],[0.44523808238853124,42.89676029466746],[0.44185683365253015,42.897342686904864],[0.4405172788205956,42.8983609712269],[0.44006427483723426,42.89957266008566],[0.4404248013846031,42.901798056286964],[0.4391439705787094,42.904412628304165]]]}},{"type":"Feature","properties":{"category":"historical_support","snapshot_index":21,"pass_time_utc":"2026-09-08T13:36:00+00:00","dt_local":"2026-09-08T15:36:00+02:00","area_km2":6.5,"label":"Isoline temporelle","coherence_level":"indisponible","coherence_fraction":0.0,"projection_displayed":false,"model_version":"fire_progression_arrival_v1"},"geometry":{"type":"Polygon","coordinates":[[[0.44872159415149904,42.911846680600206],[0.44882039507439914,42.90959966598586],[0.4457635588535872,42.90952699903268],[0.4458624703366173,42.9072799917666],[0.44280575998293803,42.907207240792296],[0.44290478200783295,42.904960240881046],[0.4398481975195071,42.90488740589295],[0.44024468167241504,42.895899462104076],[0.44330079345764944,42.89597228523371],[0.4433997771621112,42.893725307337554],[0.44951178740180303,42.893870686795346],[0.4496105271545262,42.89162370739416],[0.44655463635413845,42.89155106410129],[0.44675232919746877,42.88705712446477],[0.44980798373402237,42.88712976184381],[0.45000540975149783,42.88263583398436],[0.45306083569944205,42.88270837850952],[0.45315941914876307,42.88046141826905],[0.4653807267330951,42.88075071518129],[0.46528261569611823,42.882997687198234],[0.4683380797009048,42.883069797015686],[0.46824007918521615,42.88531677639786],[0.4712956688893002,42.88538880220464],[0.47109988136034614,42.88988278010995],[0.46804405539830557,42.88981074843908],[0.46794603212532315,42.89205774109166],[0.4648900956081437,42.89198561953186],[0.4646937899877736,42.89647961221282],[0.4708061432333168,42.89662378011249],[0.4703164280733558,42.907858868285885],[0.4672596567144045,42.9077868131537],[0.4671615727165519,42.910033841051316],[0.46104781636010284,42.90988946396586],[0.4609494883206455,42.912136490377215],[0.44872159415149904,42.911846680600206]]]}}]}