{"type":"FeatureCollection","name":"detection_envelopes","crs":{"type":"name","properties":{"name":"urn:ogc:def:crs:OGC:1.3:CRS84"}},"features":[{"type":"Feature","properties":{"cluster_id":1,"snapshot_index":1,"estimated_time_utc":"2026-09-27T11:55:00Z","observed_until_utc":"2026-09-27T11:55:00Z","target_time_utc":"2026-09-27T11:55:00Z","arrival_h":0.0,"hours_ago":64.4,"supported_detections_cumulative":8,"sources_cumulative":"VIIRS_NOAA20_NRT","last_source":"VIIRS_NOAA20_NRT","last_satellite":"N20","last_instrument":"VIIRS","detected_area_km2":1.45353334085705,"product_type":"cumulative_active_fire_detection_extent"},"geometry":{"type":"LineString","coordinates":[[1.757061774500948,42.69961389117189],[1.757605720703632,42.70258386979646],[1.759782506397782,42.703944253884536],[1.762515896160658,42.70377758513295],[1.764918260328732,42.702148677639585],[1.767734671949194,42.70283129462306],[1.769819314104699,42.70253729514093],[1.771687406369623,42.70073868861139],[1.771642368338654,42.69942880932203],[1.770535339052717,42.697597859619904],[1.773096597355055,42.69552019190321],[1.77296621936869,42.693216567774655],[1.771529076667898,42.69212292913702],[1.769103878391633,42.69172129122614],[1.767213934402869,42.69084916371248],[1.764371105821004,42.69102266601871],[1.762214255658237,42.693031565973314],[1.756596086431065,42.696175127316984],[1.755979565391595,42.697934003216666],[1.757061774500948,42.69961389117189]]}},{"type":"Feature","properties":{"cluster_id":1,"snapshot_index":2,"estimated_time_utc":"2026-09-27T13:36:00Z","observed_until_utc":"2026-09-27T13:36:00Z","target_time_utc":"2026-09-27T17:55:00Z","arrival_h":1.6833333333333333,"hours_ago":62.71666666666667,"supported_detections_cumulative":20,"sources_cumulative":"VIIRS_NOAA20_NRT, VIIRS_NOAA21_NRT, VIIRS_SNPP_NRT","last_source":"VIIRS_NOAA20_NRT","last_satellite":"N20","last_instrument":"VIIRS","detected_area_km2":1.7215791985857514,"product_type":"cumulative_active_fire_detection_extent"},"geometry":{"type":"LineString","coordinates":[[1.772387233370894,42.69779866364784],[1.772298784002534,42.696388022576166],[1.773384196181625,42.69453398634342],[1.772609729342568,42.69280944282048],[1.76749382865192,42.690926699187756],[1.765383675081872,42.69076166956291],[1.763772391480398,42.69131302723394],[1.762300147930437,42.692970161388416],[1.760035527627728,42.69407006058941],[1.757895359392461,42.694053968499574],[1.756122019413325,42.69491377942936],[1.755301860465652,42.69631162279678],[1.755960397414826,42.69820839987306],[1.755069981658809,42.69936779823909],[1.754969349178116,42.700675994581964],[1.756173977628624,42.702212783109],[1.759725579988935,42.703930794027315],[1.764648787261243,42.70350353490809],[1.766782809096482,42.70430432585842],[1.768556567244701,42.70437834203644],[1.770168167029806,42.70382690551535],[1.771236983491011,42.70278025762148],[1.772387233370894,42.69779866364784]]}},{"type":"Feature","properties":{"cluster_id":1,"snapshot_index":3,"estimated_time_utc":"2026-09-28T01:52:00Z","observed_until_utc":"2026-09-28T01:52:00Z","target_time_utc":"2026-09-28T05:55:00Z","arrival_h":13.95,"hours_ago":50.45,"supported_detections_cumulative":40,"sources_cumulative":"VIIRS_NOAA20_NRT, VIIRS_NOAA21_NRT, VIIRS_SNPP_NRT","last_source":"VIIRS_NOAA20_NRT","last_satellite":"N20","last_instrument":"VIIRS","detected_area_km2":2.422843964274079,"product_type":"cumulative_active_fire_detection_extent"},"geometry":{"type":"LineString","coordinates":[[1.75463303083232,42.698238437980095],[1.754797446121926,42.7004907525568],[1.755955597847389,42.702062109467605],[1.759122479949615,42.70373830480451],[1.761065663440934,42.70406074374329],[1.761932691904977,42.70584413937995],[1.76322028172077,42.70674698875753],[1.767295200131297,42.70722597656939],[1.769250620444381,42.70619088548913],[1.769856763578498,42.70415770227965],[1.771952100006813,42.70250375398464],[1.771767443985808,42.69999325056384],[1.772425130488513,42.69871411532481],[1.772298784002534,42.696388022576166],[1.773309644769698,42.6950155277943],[1.773235545359446,42.69370637503601],[1.771783102181142,42.69223924650928],[1.766308639743722,42.690721722426595],[1.764124039214992,42.68926920058],[1.762293834179008,42.689181653728205],[1.760156333468816,42.68982237626632],[1.757305463202641,42.6896839735275],[1.755532247552904,42.69054377111755],[1.754700812572883,42.69203683505879],[1.753462202854594,42.69274371321298],[1.752703133458762,42.693880801157825],[1.75276418635677,42.695233069898734],[1.75463303083232,42.698238437980095]]}},{"type":"Feature","properties":{"cluster_id":1,"snapshot_index":4,"estimated_time_utc":"2026-09-28T12:19:00Z","observed_until_utc":"2026-09-28T12:19:00Z","target_time_utc":"2026-09-28T17:55:00Z","arrival_h":24.4,"hours_ago":40.0,"supported_detections_cumulative":43,"sources_cumulative":"VIIRS_NOAA20_NRT, VIIRS_NOAA21_NRT, VIIRS_SNPP_NRT","last_source":"VIIRS_NOAA21_NRT","last_satellite":"N21","last_instrument":"VIIRS","detected_area_km2":2.5547100394666167,"product_type":"cumulative_active_fire_detection_extent"},"geometry":{"type":"LineString","coordinates":[[1.760294217011645,42.689749240349656],[1.75800922196869,42.68958477638989],[1.756332419372866,42.690016855588404],[1.752798606120809,42.6936257438745],[1.75276418635677,42.695233069898734],[1.754829573355068,42.6985578936288],[1.754813894182814,42.70053314086769],[1.756219583872392,42.70224128707742],[1.759122479949615,42.70373830480451],[1.761368396860477,42.704299309349786],[1.761932691904977,42.70584413937995],[1.76465402394358,42.7083429839463],[1.766300070861714,42.70894053291344],[1.768075264278187,42.70888597308631],[1.770251436828756,42.70758864527589],[1.770512767650028,42.704993501329305],[1.772067554771455,42.70309867726189],[1.771767443985808,42.69999325056384],[1.772425130488513,42.69871411532481],[1.772298784002534,42.696388022576166],[1.773309644769698,42.6950155277943],[1.773235545359446,42.69370637503601],[1.771783102181142,42.69223924650928],[1.766308639743722,42.690721722426595],[1.764403921759549,42.68934674401853],[1.762352626341913,42.68917373106391],[1.760294217011645,42.689749240349656]]}},{"type":"Feature","properties":{"cluster_id":1,"snapshot_index":5,"estimated_time_utc":"2026-09-30T04:19:00Z","observed_until_utc":"2026-09-30T04:19:00Z","target_time_utc":"2026-09-30T04:19:00Z","arrival_h":64.4,"hours_ago":0.0,"supported_detections_cumulative":64,"sources_cumulative":"MODIS_NRT, VIIRS_NOAA20_NRT, VIIRS_NOAA21_NRT, VIIRS_SNPP_NRT","last_source":"MODIS_NRT","last_satellite":"Aqua","last_instrument":"MODIS","detected_area_km2":4.565158739443447,"product_type":"cumulative_active_fire_detection_extent"},"geometry":{"type":"LineString","coordinates":[[1.759237309702002,42.68961448132697],[1.757362921152051,42.68967184047566],[1.755818053510954,42.69031838657028],[1.752703133458762,42.693880801157825],[1.75276418635677,42.695233069898734],[1.754829573355068,42.6985578936288],[1.754718635966174,42.700232613017526],[1.755472755968518,42.70161394731202],[1.759070208115918,42.70371691226377],[1.761368396860477,42.704299309349786],[1.761932691904977,42.70584413937995],[1.763516006610354,42.70701741027334],[1.762379563242888,42.708474219181724],[1.762722751566713,42.71027323914444],[1.763906083091081,42.71125067723764],[1.767048170521361,42.71226495063932],[1.77046351446868,42.71600901974283],[1.772747892480528,42.71704700213148],[1.77534257778301,42.71755125134266],[1.778024050708287,42.71747832698681],[1.781286280603801,42.71652520823254],[1.783307746670389,42.71522409013038],[1.784753613136113,42.71350580052972],[1.785437030819944,42.71159246260683],[1.785146883455158,42.70901387606583],[1.783487175864193,42.70663655467922],[1.780034527730736,42.70468068835398],[1.778855435632536,42.70322675870513],[1.776914335019518,42.70259366848873],[1.774463264527994,42.702750682162225],[1.771752772567257,42.70045003679174],[1.772425130488513,42.69871411532481],[1.772298784002534,42.696388022576166],[1.773364887932952,42.6947540823427],[1.772816511907363,42.69302565136266],[1.771208554231774,42.69200415231097],[1.766308639743722,42.690721722426595],[1.764124039214992,42.68926920058],[1.759237309702002,42.68961448132697]]}}],"metadata":{"generated_at_utc":"2026-09-30T12:29:07.889553Z","product_type":"cumulative_active_fire_detection_extent","product_label":"Emprises cumulées des détections actives FIRMS","not_a_burn_perimeter":true,"not_a_continuous_fire_front":true,"not_an_arrival_time_interpolation":true,"snapshot_step_hours":6,"confidence_filter":{"VIIRS":["nominal","high"],"MODIS_minimum":30},"footprint_radius_m":{"VIIRS":300.0,"MODIS":750.0},"same_pass_neighbour_m":2000.0,"continuity_distance_m":3000.0,"clusters":[{"cluster_id":1,"first_supported_detection_utc":"2026-09-27T11:55:00Z","last_supported_detection_utc":"2026-09-30T04:19:00Z","pass_states":14,"published_snapshots":5,"final_detected_area_km2":4.565158739443447}]},"bbox":[1.752703133458762,42.68917373106391,1.7854370308199436,42.71755125134266]}