{"type":"FeatureCollection","name":"fire_progression_arrival_v1","features":[{"type":"Feature","properties":{"category":"arrival_step","arrival_snapshot_index":1,"first_detected_utc":"2026-09-28T00:56:00+00:00","first_detected_local":"2026-09-28T02:56:00+02:00","area_km2":3.312,"label":"Première détection FIRMS","model_version":"fire_progression_arrival_v1"},"geometry":{"type":"Polygon","coordinates":[[[1.7565248895518324,42.703373401694876],[1.7565728784368833,42.701125922206245],[1.753525768582773,42.701090484748406],[1.753573871316449,42.698843011465605],[1.750526882726759,42.69880748872681],[1.750767928343355,42.68757020109956],[1.7538143293101633,42.68760571660702],[1.7538624097769802,42.68535827196896],[1.7690938825874707,42.6855345417326],[1.7690463896140036,42.68778199354811],[1.7720928127052962,42.687816988815946],[1.7719980507907436,42.69231190964124],[1.7750447125656597,42.69234682104483],[1.7749028948785825,42.69908924236029],[1.7718558804937885,42.69905432669185],[1.7718084830797434,42.7013018085792],[1.7687613547984253,42.701266804760664],[1.7687138361627393,42.7035142899859],[1.7565248895518324,42.703373401694876]]]}},{"type":"Feature","properties":{"category":"arrival_step","arrival_snapshot_index":2,"first_detected_utc":"2026-09-28T01:34:00+00:00","first_detected_local":"2026-09-28T03:34:00+02:00","area_km2":0.625,"label":"Première détection FIRMS","model_version":"fire_progression_arrival_v1"},"geometry":{"type":"Polygon","coordinates":[[[1.762523836905074,42.70793899830727],[1.762571598038459,42.705691506426945],[1.7564768969627742,42.705620885943134],[1.7565248895518324,42.703373401694876],[1.7687138361627393,42.7035142899859],[1.7687613547984253,42.701266804760664],[1.7718084830797434,42.7013018085792],[1.7718558804937885,42.69905432669185],[1.7749028948785825,42.69908924236029],[1.7748083315108452,42.703584213741706],[1.7717610820074625,42.70354929522973],[1.7717136772765223,42.70579678664025],[1.768666313859324,42.70576177997102],[1.7686187878877553,42.70800927471283],[1.762523836905074,42.70793899830727]]]}},{"type":"Feature","properties":{"category":"arrival_step","arrival_snapshot_index":4,"first_detected_utc":"2026-09-28T12:19:00+00:00","first_detected_local":"2026-09-28T14:19:00+02:00","area_km2":0.75,"label":"Première détection FIRMS","model_version":"fire_progression_arrival_v1"},"geometry":{"type":"Polygon","coordinates":[[[1.759428484529833,42.71015122519428],[1.7595242456529336,42.70565623955242],[1.762571598038459,42.705691506426945],[1.762523836905074,42.70793899830727],[1.7686187878877553,42.70800927471283],[1.768666313859324,42.70576177997102],[1.7717136772765223,42.70579678664025],[1.7717610820074625,42.70354929522973],[1.7748083315108452,42.703584213741706],[1.7749028948785825,42.69908924236029],[1.777949912912121,42.6991240713037],[1.7778084150790967,42.705866539772266],[1.7747610443528035,42.70583170657406],[1.7746664590862613,42.71032670650597],[1.759428484529833,42.71015122519428]]]}},{"type":"Feature","properties":{"category":"arrival_step","arrival_snapshot_index":5,"first_detected_utc":"2026-09-30T00:56:00+00:00","first_detected_local":"2026-09-30T02:56:00+02:00","area_km2":1.312,"label":"Première détection FIRMS","model_version":"fire_progression_arrival_v1"},"geometry":{"type":"Polygon","coordinates":[[[1.7654283578319159,42.7147166883253],[1.7654760124188336,42.712469180761985],[1.7624283035777113,42.712433996324684],[1.762476072084967,42.71018649494092],[1.7746664590862613,42.71032670650597],[1.7747610443528035,42.70583170657406],[1.7778084150790967,42.705866539772266],[1.7779027506080183,42.70137155603099],[1.7809498898368372,42.70140629966394],[1.7809028414573085,42.703653790569255],[1.7839501018822501,42.70368844888454],[1.7837623423965174,42.71267846572047],[1.7807146116204935,42.712643801759796],[1.780667545079512,42.71489131643359],[1.7654283578319159,42.7147166883253]]]}},{"type":"Feature","properties":{"category":"arrival_step","arrival_snapshot_index":7,"first_detected_utc":"2026-09-30T02:00:00+00:00","first_detected_local":"2026-09-30T04:00:00+02:00","area_km2":0.312,"label":"Première détection FIRMS","model_version":"fire_progression_arrival_v1"},"geometry":{"type":"Polygon","coordinates":[[[1.7809028414573085,42.703653790569255],[1.7809498898368372,42.70140629966394],[1.7779027506080183,42.70137155603099],[1.777949912912121,42.6991240713037],[1.7749028948785825,42.69908924236029],[1.774950171089123,42.69684176381769],[1.7810439757032264,42.69691133214661],[1.780996934585336,42.69915881352197],[1.7840439598891606,42.699193469014915],[1.7839501018822501,42.70368844888454],[1.7809028414573085,42.703653790569255]]]}},{"type":"Feature","properties":{"category":"arrival_step","arrival_snapshot_index":8,"first_detected_utc":"2026-09-30T02:36:00+00:00","first_detected_local":"2026-09-30T04:36:00+02:00","area_km2":0.562,"label":"Première détection FIRMS","model_version":"fire_progression_arrival_v1"},"geometry":{"type":"Polygon","coordinates":[[[1.7745245538039622,42.71706924202333],[1.7745718592162905,42.714821725439236],[1.780667545079512,42.71489131643359],[1.7807146116204935,42.712643801759796],[1.7837623423965174,42.71267846572047],[1.7839501018822501,42.70368844888454],[1.7869973659295708,42.70372302046729],[1.7867632454769433,42.714960560427734],[1.783715393465989,42.71492598180576],[1.7836684409109838,42.71717350263512],[1.7745245538039622,42.71706924202333]]]}},{"type":"Feature","properties":{"category":"firms_extent_snapshot","snapshot_index":1,"pass_time_utc":"2026-09-28T00:56:00+00:00","dt_local":"2026-09-28T02:56:00+02:00","label":"Emprise FIRMS cumulée à ce passage","interpretation":"Enveloppe des détections FIRMS, pas une surface brûlée","cumulative":true,"point_count":5,"extent_method":"cumulative_detection_extent_smoothed_landmasked_web_v1","local_cluster_link_m":10000.0,"model_version":"fire_progression_arrival_v1"},"geometry":{"type":"Polygon","coordinates":[[[1.7526157225906422,42.69442747596961],[1.7535945766167962,42.69630550383597],[1.7572285234334308,42.69816070567864],[1.758090774334817,42.701023189292684],[1.7596865888089737,42.70233737785463],[1.76140266914632,42.70267562136574],[1.7665769872895483,42.70246204525596],[1.769116233802423,42.70111781701259],[1.769515513549475,42.69932537325693],[1.768074472504653,42.696699232013245],[1.768775169094248,42.69364540072699],[1.7669529389956344,42.69177254950517],[1.7651624257275955,42.69143488938144],[1.7553366713506393,42.69186428008024],[1.7534349059249732,42.692769986660664],[1.7526157225906422,42.69442747596961]]]}},{"type":"Feature","properties":{"category":"historical_support","snapshot_index":1,"pass_time_utc":"2026-09-28T00:56:00+00:00","dt_local":"2026-09-28T02:56:00+02:00","area_km2":3.312,"label":"Isoline temporelle","coherence_level":"indisponible","coherence_fraction":0.0,"projection_displayed":false,"model_version":"fire_progression_arrival_v1"},"geometry":{"type":"Polygon","coordinates":[[[1.7565248895518324,42.703373401694876],[1.7565728784368833,42.701125922206245],[1.753525768582773,42.701090484748406],[1.753573871316449,42.698843011465605],[1.750526882726759,42.69880748872681],[1.750767928343355,42.68757020109956],[1.7538143293101633,42.68760571660702],[1.7538624097769802,42.68535827196896],[1.7690938825874707,42.6855345417326],[1.7690463896140036,42.68778199354811],[1.7720928127052962,42.687816988815946],[1.7719980507907436,42.69231190964124],[1.7750447125656597,42.69234682104483],[1.7749028948785825,42.69908924236029],[1.7718558804937885,42.69905432669185],[1.7718084830797434,42.7013018085792],[1.7687613547984253,42.701266804760664],[1.7687138361627393,42.7035142899859],[1.7565248895518324,42.703373401694876]]]}},{"type":"Feature","properties":{"category":"observed_front","snapshot_index":1,"pass_time_utc":"2026-09-28T00:56:00+00:00","dt_local":"2026-09-28T02:56:00+02:00","area_km2":3.312,"label":"Activité observée","coherence_level":"indisponible","coherence_fraction":0.0,"projection_displayed":false,"model_version":"fire_progression_arrival_v1"},"geometry":{"type":"Polygon","coordinates":[[[1.7565248895518324,42.703373401694876],[1.7565728784368833,42.701125922206245],[1.753525768582773,42.701090484748406],[1.753573871316449,42.698843011465605],[1.750526882726759,42.69880748872681],[1.750767928343355,42.68757020109956],[1.7538143293101633,42.68760571660702],[1.7538624097769802,42.68535827196896],[1.7690938825874707,42.6855345417326],[1.7690463896140036,42.68778199354811],[1.7720928127052962,42.687816988815946],[1.7719980507907436,42.69231190964124],[1.7750447125656597,42.69234682104483],[1.7749028948785825,42.69908924236029],[1.7718558804937885,42.69905432669185],[1.7718084830797434,42.7013018085792],[1.7687613547984253,42.701266804760664],[1.7687138361627393,42.7035142899859],[1.7565248895518324,42.703373401694876]]]}},{"type":"Feature","properties":{"category":"historical_support","snapshot_index":2,"pass_time_utc":"2026-09-28T01:34:00+00:00","dt_local":"2026-09-28T03:34:00+02:00","area_km2":3.938,"label":"Isoline temporelle","coherence_level":"indisponible","coherence_fraction":0.0,"projection_displayed":false,"model_version":"fire_progression_arrival_v1"},"geometry":{"type":"Polygon","coordinates":[[[1.762523836905074,42.70793899830727],[1.762571598038459,42.705691506426945],[1.7564768969627742,42.705620885943134],[1.7565728784368833,42.701125922206245],[1.753525768582773,42.701090484748406],[1.753573871316449,42.698843011465605],[1.750526882726759,42.69880748872681],[1.750767928343355,42.68757020109956],[1.7538143293101633,42.68760571660702],[1.7538624097769802,42.68535827196896],[1.7690938825874707,42.6855345417326],[1.7690463896140036,42.68778199354811],[1.7720928127052962,42.687816988815946],[1.7719980507907436,42.69231190964124],[1.7750447125656597,42.69234682104483],[1.7748083315108452,42.703584213741706],[1.7717610820074625,42.70354929522973],[1.7717136772765223,42.70579678664025],[1.768666313859324,42.70576177997102],[1.7686187878877553,42.70800927471283],[1.762523836905074,42.70793899830727]]]}},{"type":"Feature","properties":{"category":"observed_front","snapshot_index":2,"pass_time_utc":"2026-09-28T01:34:00+00:00","dt_local":"2026-09-28T03:34:00+02:00","area_km2":3.75,"label":"Activité observée","coherence_level":"indisponible","coherence_fraction":0.0,"projection_displayed":false,"model_version":"fire_progression_arrival_v1"},"geometry":{"type":"Polygon","coordinates":[[[1.762523836905074,42.70793899830727],[1.762571598038459,42.705691506426945],[1.7564768969627742,42.705620885943134],[1.7565728784368833,42.701125922206245],[1.753525768582773,42.701090484748406],[1.7536219703379077,42.69659554294886],[1.7505750992909246,42.696560021656474],[1.750719726660021,42.68981764907367],[1.7537662451332774,42.68985316602725],[1.7538143293101633,42.68760571660702],[1.756860733987041,42.687641145408286],[1.7569086969560421,42.685393699327676],[1.7690938825874707,42.6855345417326],[1.7690463896140036,42.68778199354811],[1.7720928127052962,42.687816988815946],[1.7719980507907436,42.69231190964124],[1.7750447125656597,42.69234682104483],[1.7748083315108452,42.703584213741706],[1.7717610820074625,42.70354929522973],[1.7717136772765223,42.70579678664025],[1.768666313859324,42.70576177997102],[1.7686187878877553,42.70800927471283],[1.762523836905074,42.70793899830727]]]}},{"type":"Feature","properties":{"category":"firms_extent_snapshot","snapshot_index":3,"pass_time_utc":"2026-09-28T01:52:00+00:00","dt_local":"2026-09-28T03:52:00+02:00","label":"Emprise FIRMS cumulée à ce passage","interpretation":"Enveloppe des détections FIRMS, pas une surface brûlée","cumulative":true,"point_count":20,"extent_method":"cumulative_detection_extent_smoothed_landmasked_web_v1","local_cluster_link_m":10000.0,"model_version":"fire_progression_arrival_v1"},"geometry":{"type":"Polygon","coordinates":[[[1.7526157225906422,42.69442747596961],[1.754582569758372,42.69842703233495],[1.7548283455282967,42.7005644803804],[1.755695073252315,42.70164608205089],[1.7601421351586974,42.70317674891588],[1.761949215970095,42.70586251184426],[1.7633128274647554,42.70678299951563],[1.7664868041000357,42.707329979762385],[1.7688041238600103,42.7065758555579],[1.7718347863601138,42.702730364008545],[1.7720872370978342,42.70122973931088],[1.7713862910062577,42.700026356941606],[1.768338080137068,42.697549636195184],[1.7686934588678662,42.69338779196972],[1.7656042497819557,42.689953756817815],[1.7630372471894582,42.689134405525365],[1.7567354620193465,42.68984869681667],[1.753263636551847,42.6929370576056],[1.7526157225906422,42.69442747596961]]]}},{"type":"Feature","properties":{"category":"historical_support","snapshot_index":3,"pass_time_utc":"2026-09-28T01:52:00+00:00","dt_local":"2026-09-28T03:52:00+02:00","area_km2":3.938,"label":"Isoline temporelle","coherence_level":"indisponible","coherence_fraction":0.0,"projection_displayed":false,"model_version":"fire_progression_arrival_v1"},"geometry":{"type":"Polygon","coordinates":[[[1.762523836905074,42.70793899830727],[1.762571598038459,42.705691506426945],[1.7564768969627742,42.705620885943134],[1.7565728784368833,42.701125922206245],[1.753525768582773,42.701090484748406],[1.753573871316449,42.698843011465605],[1.750526882726759,42.69880748872681],[1.750767928343355,42.68757020109956],[1.7538143293101633,42.68760571660702],[1.7538624097769802,42.68535827196896],[1.7690938825874707,42.6855345417326],[1.7690463896140036,42.68778199354811],[1.7720928127052962,42.687816988815946],[1.7719980507907436,42.69231190964124],[1.7750447125656597,42.69234682104483],[1.7748083315108452,42.703584213741706],[1.7717610820074625,42.70354929522973],[1.7717136772765223,42.70579678664025],[1.768666313859324,42.70576177997102],[1.7686187878877553,42.70800927471283],[1.762523836905074,42.70793899830727]]]}},{"type":"Feature","properties":{"category":"observed_front","snapshot_index":3,"pass_time_utc":"2026-09-28T01:52:00+00:00","dt_local":"2026-09-28T03:52:00+02:00","area_km2":3.25,"label":"Activité observée","coherence_level":"indisponible","coherence_fraction":0.0,"projection_displayed":false,"model_version":"fire_progression_arrival_v1"},"geometry":{"type":"Polygon","coordinates":[[[1.7564768969627742,42.705620885943134],[1.7565728784368833,42.701125922206245],[1.753525768582773,42.701090484748406],[1.753573871316449,42.698843011465605],[1.750526882726759,42.69880748872681],[1.750719726660021,42.68981764907367],[1.7537662451332774,42.68985316602725],[1.7538143293101633,42.68760571660702],[1.7599071423649257,42.687676487503175],[1.7599549878356835,42.68542903998355],[1.7630012824068426,42.68546429393645],[1.7629535544347563,42.68771174289158],[1.7690463896140036,42.68778199354811],[1.768998892975778,42.690029450146135],[1.7720454335760794,42.69006444683893],[1.7719506643488652,42.694559377219655],[1.7749974436513416,42.694594290044776],[1.7748556150192976,42.70133672566936],[1.7718084830797434,42.7013018085792],[1.7717610820074625,42.70354929522973],[1.7687138361627393,42.7035142899859],[1.768666313859324,42.70576177997102],[1.7564768969627742,42.705620885943134]]]}},{"type":"Feature","properties":{"category":"firms_extent_snapshot","snapshot_index":4,"pass_time_utc":"2026-09-28T12:19:00+00:00","dt_local":"2026-09-28T14:19:00+02:00","label":"Emprise FIRMS cumulée à ce passage","interpretation":"Enveloppe des détections FIRMS, pas une surface brûlée","cumulative":true,"point_count":23,"extent_method":"cumulative_detection_extent_smoothed_landmasked_web_v1","local_cluster_link_m":10000.0,"model_version":"fire_progression_arrival_v1"},"geometry":{"type":"Polygon","coordinates":[[[1.7526157225906422,42.69442747596961],[1.7556443977543914,42.701605564292215],[1.7601421351586974,42.70317674891588],[1.761949215970095,42.70586251184426],[1.7650243547540168,42.70854815245653],[1.7673414682225865,42.70898678578576],[1.769529290869224,42.708273224159015],[1.7704965783542226,42.70717479470498],[1.7707956762935786,42.70504694980996],[1.7720019727113898,42.70327978464924],[1.7720872370978342,42.70122973931088],[1.7713862910062577,42.700026356941606],[1.768338080137068,42.697549636195184],[1.7686934588678662,42.69338779196972],[1.7656549220707678,42.68999426941387],[1.7630372471894582,42.689134405525365],[1.7567354620193465,42.68984869681667],[1.753263636551847,42.6929370576056],[1.7526157225906422,42.69442747596961]]]}},{"type":"Feature","properties":{"category":"historical_support","snapshot_index":4,"pass_time_utc":"2026-09-28T12:19:00+00:00","dt_local":"2026-09-28T14:19:00+02:00","area_km2":4.688,"label":"Isoline temporelle","coherence_level":"indisponible","coherence_fraction":0.0,"projection_displayed":false,"model_version":"fire_progression_arrival_v1"},"geometry":{"type":"Polygon","coordinates":[[[1.759428484529833,42.71015122519428],[1.7595242456529336,42.70565623955242],[1.7564768969627742,42.705620885943134],[1.7565728784368833,42.701125922206245],[1.753525768582773,42.701090484748406],[1.753573871316449,42.698843011465605],[1.750526882726759,42.69880748872681],[1.750767928343355,42.68757020109956],[1.7538143293101633,42.68760571660702],[1.7538624097769802,42.68535827196896],[1.7690938825874707,42.6855345417326],[1.7690463896140036,42.68778199354811],[1.7720928127052962,42.687816988815946],[1.7719980507907436,42.69231190964124],[1.7750447125656597,42.69234682104483],[1.7749028948785825,42.69908924236029],[1.777949912912121,42.6991240713037],[1.7778084150790967,42.705866539772266],[1.7747610443528035,42.70583170657406],[1.7746664590862613,42.71032670650597],[1.759428484529833,42.71015122519428]]]}},{"type":"Feature","properties":{"category":"observed_front","snapshot_index":4,"pass_time_utc":"2026-09-28T12:19:00+00:00","dt_local":"2026-09-28T14:19:00+02:00","area_km2":3.625,"label":"Activité observée","coherence_level":"indisponible","coherence_fraction":0.0,"projection_displayed":false,"model_version":"fire_progression_arrival_v1"},"geometry":{"type":"Polygon","coordinates":[[[1.759428484529833,42.71015122519428],[1.7595242456529336,42.70565623955242],[1.7564768969627742,42.705620885943134],[1.7566208636183556,42.698878447480546],[1.753573871316449,42.698843011465605],[1.7538143293101633,42.68760571660702],[1.7629535544347563,42.68771174289158],[1.7629058227797867,42.68995919662907],[1.7659523560406594,42.68999436674279],[1.7659047382196031,42.69224182669152],[1.7719980507907436,42.69231190964124],[1.7719506643488652,42.694559377219655],[1.7749974436513416,42.694594290044776],[1.7749028948785825,42.69908924236029],[1.777949912912121,42.6991240713037],[1.7778084150790967,42.705866539772266],[1.7747610443528035,42.70583170657406],[1.7746664590862613,42.71032670650597],[1.759428484529833,42.71015122519428]]]}},{"type":"Feature","properties":{"category":"firms_extent_snapshot","snapshot_index":5,"pass_time_utc":"2026-09-30T00:56:00+00:00","dt_local":"2026-09-30T02:56:00+02:00","label":"Emprise FIRMS cumulée à ce passage","interpretation":"Enveloppe des détections FIRMS, pas une surface brûlée","cumulative":true,"point_count":28,"extent_method":"cumulative_detection_extent_smoothed_landmasked_web_v1","local_cluster_link_m":10000.0,"model_version":"fire_progression_arrival_v1"},"geometry":{"type":"Polygon","coordinates":[[[1.7526157225906422,42.69442747596961],[1.754582569758372,42.69842703233495],[1.7552492918596592,42.70123231326182],[1.7566126890477776,42.70215288222911],[1.7597660387321756,42.70294797303204],[1.761102891733007,42.70416586205437],[1.7625851189835091,42.70701114905985],[1.7624267582631918,42.70970877731473],[1.763388225990507,42.71093491725767],[1.7696009930743297,42.71344095703404],[1.7731932396790944,42.712984363111],[1.7764162302886026,42.71342087237846],[1.7786370913225598,42.71263630283445],[1.7811168927761076,42.709784453988576],[1.781029331288292,42.707866187070756],[1.7791110031239707,42.706435507965736],[1.774743584398761,42.70634845650262],[1.772496302539297,42.705130526065126],[1.7718782964660453,42.70066721975538],[1.7681877113632192,42.69721743022278],[1.7686711275306521,42.693335186860885],[1.7655509439649513,42.68991512721668],[1.7630372471894582,42.689134405525365],[1.7567354620193465,42.68984869681667],[1.753263636551847,42.6929370576056],[1.7526157225906422,42.69442747596961]]]}},{"type":"Feature","properties":{"category":"historical_support","snapshot_index":5,"pass_time_utc":"2026-09-30T00:56:00+00:00","dt_local":"2026-09-30T02:56:00+02:00","area_km2":6.0,"label":"Isoline temporelle","coherence_level":"indisponible","coherence_fraction":0.0,"projection_displayed":false,"model_version":"fire_progression_arrival_v1"},"geometry":{"type":"Polygon","coordinates":[[[1.7654283578319159,42.7147166883253],[1.7654760124188336,42.712469180761985],[1.7624283035777113,42.712433996324684],[1.762476072084967,42.71018649494092],[1.759428484529833,42.71015122519428],[1.7595242456529336,42.70565623955242],[1.7564768969627742,42.705620885943134],[1.7565728784368833,42.701125922206245],[1.753525768582773,42.701090484748406],[1.753573871316449,42.698843011465605],[1.750526882726759,42.69880748872681],[1.750767928343355,42.68757020109956],[1.7538143293101633,42.68760571660702],[1.7538624097769802,42.68535827196896],[1.7690938825874707,42.6855345417326],[1.7690463896140036,42.68778199354811],[1.7720928127052962,42.687816988815946],[1.7719980507907436,42.69231190964124],[1.7750447125656597,42.69234682104483],[1.7749028948785825,42.69908924236029],[1.777949912912121,42.6991240713037],[1.7779027506080183,42.70137155603099],[1.7809498898368372,42.70140629966394],[1.7809028414573085,42.703653790569255],[1.7839501018822501,42.70368844888454],[1.7837623423965174,42.71267846572047],[1.7807146116204935,42.712643801759796],[1.780667545079512,42.71489131643359],[1.7654283578319159,42.7147166883253]]]}},{"type":"Feature","properties":{"category":"observed_front","snapshot_index":5,"pass_time_utc":"2026-09-30T00:56:00+00:00","dt_local":"2026-09-30T02:56:00+02:00","area_km2":2.75,"label":"Activité observée","coherence_level":"indisponible","coherence_fraction":0.0,"projection_displayed":false,"model_version":"fire_progression_arrival_v1"},"geometry":{"type":"Polygon","coordinates":[[[1.7654283578319159,42.7147166883253],[1.7654760124188336,42.712469180761985],[1.7624283035777113,42.712433996324684],[1.762476072084967,42.71018649494092],[1.759428484529833,42.71015122519428],[1.7595242456529336,42.70565623955242],[1.762571598038459,42.705691506426945],[1.7626671092467714,42.7011965369392],[1.7687613547984253,42.701266804760664],[1.768808869766807,42.699019324298604],[1.777949912912121,42.6991240713037],[1.7779027506080183,42.70137155603099],[1.7809498898368372,42.70140629966394],[1.7809028414573085,42.703653790569255],[1.7839501018822501,42.70368844888454],[1.7837623423965174,42.71267846572047],[1.7807146116204935,42.712643801759796],[1.780667545079512,42.71489131643359],[1.7654283578319159,42.7147166883253]]]}},{"type":"Feature","properties":{"category":"historical_support","snapshot_index":6,"pass_time_utc":"2026-09-30T01:15:00+00:00","dt_local":"2026-09-30T03:15:00+02:00","area_km2":6.0,"label":"Isoline temporelle","coherence_level":"indisponible","coherence_fraction":0.0,"projection_displayed":false,"model_version":"fire_progression_arrival_v1"},"geometry":{"type":"Polygon","coordinates":[[[1.7654283578319159,42.7147166883253],[1.7654760124188336,42.712469180761985],[1.7624283035777113,42.712433996324684],[1.762476072084967,42.71018649494092],[1.759428484529833,42.71015122519428],[1.7595242456529336,42.70565623955242],[1.7564768969627742,42.705620885943134],[1.7565728784368833,42.701125922206245],[1.753525768582773,42.701090484748406],[1.753573871316449,42.698843011465605],[1.750526882726759,42.69880748872681],[1.750767928343355,42.68757020109956],[1.7538143293101633,42.68760571660702],[1.7538624097769802,42.68535827196896],[1.7690938825874707,42.6855345417326],[1.7690463896140036,42.68778199354811],[1.7720928127052962,42.687816988815946],[1.7719980507907436,42.69231190964124],[1.7750447125656597,42.69234682104483],[1.7749028948785825,42.69908924236029],[1.777949912912121,42.6991240713037],[1.7779027506080183,42.70137155603099],[1.7809498898368372,42.70140629966394],[1.7809028414573085,42.703653790569255],[1.7839501018822501,42.70368844888454],[1.7837623423965174,42.71267846572047],[1.7807146116204935,42.712643801759796],[1.780667545079512,42.71489131643359],[1.7654283578319159,42.7147166883253]]]}},{"type":"Feature","properties":{"category":"observed_front","snapshot_index":6,"pass_time_utc":"2026-09-30T01:15:00+00:00","dt_local":"2026-09-30T03:15:00+02:00","area_km2":2.938,"label":"Activité observée","coherence_level":"indisponible","coherence_fraction":0.0,"projection_displayed":false,"model_version":"fire_progression_arrival_v1"},"geometry":{"type":"Polygon","coordinates":[[[1.7654283578319159,42.7147166883253],[1.7654760124188336,42.712469180761985],[1.7624283035777113,42.712433996324684],[1.762476072084967,42.71018649494092],[1.759428484529833,42.71015122519428],[1.759667859623412,42.698913796771485],[1.7657618627067053,42.698984235180674],[1.7658094915530516,42.696736760913694],[1.7719032742500214,42.69680684957093],[1.7718558804937885,42.69905432669185],[1.777949912912121,42.6991240713037],[1.7779027506080183,42.70137155603099],[1.7809498898368372,42.70140629966394],[1.780667545079512,42.71489131643359],[1.7654283578319159,42.7147166883253]]]}},{"type":"Feature","properties":{"category":"historical_support","snapshot_index":7,"pass_time_utc":"2026-09-30T02:00:00+00:00","dt_local":"2026-09-30T04:00:00+02:00","area_km2":6.312,"label":"Isoline temporelle","coherence_level":"indisponible","coherence_fraction":0.0,"projection_displayed":false,"model_version":"fire_progression_arrival_v1"},"geometry":{"type":"Polygon","coordinates":[[[1.7654283578319159,42.7147166883253],[1.7654760124188336,42.712469180761985],[1.7624283035777113,42.712433996324684],[1.762476072084967,42.71018649494092],[1.759428484529833,42.71015122519428],[1.7595242456529336,42.70565623955242],[1.7564768969627742,42.705620885943134],[1.7565728784368833,42.701125922206245],[1.753525768582773,42.701090484748406],[1.753573871316449,42.698843011465605],[1.750526882726759,42.69880748872681],[1.750767928343355,42.68757020109956],[1.7538143293101633,42.68760571660702],[1.7538624097769802,42.68535827196896],[1.7690938825874707,42.6855345417326],[1.7690463896140036,42.68778199354811],[1.7720928127052962,42.687816988815946],[1.7719980507907436,42.69231190964124],[1.7750447125656597,42.69234682104483],[1.774950171089123,42.69684176381769],[1.7810439757032264,42.69691133214661],[1.780996934585336,42.69915881352197],[1.7840439598891606,42.699193469014915],[1.7837623423965174,42.71267846572047],[1.7807146116204935,42.712643801759796],[1.780667545079512,42.71489131643359],[1.7654283578319159,42.7147166883253]]]}},{"type":"Feature","properties":{"category":"observed_front","snapshot_index":7,"pass_time_utc":"2026-09-30T02:00:00+00:00","dt_local":"2026-09-30T04:00:00+02:00","area_km2":3.062,"label":"Activité observée","coherence_level":"indisponible","coherence_fraction":0.0,"projection_displayed":false,"model_version":"fire_progression_arrival_v1"},"geometry":{"type":"Polygon","coordinates":[[[1.7684761879598796,42.71475178744605],[1.7685237249384578,42.71250427845357],[1.7654760124188336,42.712469180761985],[1.7655236633272497,42.710221677945576],[1.762476072084967,42.71018649494092],[1.7627148593225512,42.69894905933823],[1.7657618627067053,42.698984235180674],[1.7658094915530516,42.696736760913694],[1.7810439757032264,42.69691133214661],[1.780996934585336,42.69915881352197],[1.7840439598891606,42.699193469014915],[1.783809287702988,42.71043095438248],[1.7807616745283434,42.710396291833234],[1.780667545079512,42.71489131643359],[1.7684761879598796,42.71475178744605]]]}},{"type":"Feature","properties":{"category":"historical_support","snapshot_index":8,"pass_time_utc":"2026-09-30T02:36:00+00:00","dt_local":"2026-09-30T04:36:00+02:00","area_km2":6.875,"label":"Isoline temporelle","coherence_level":"indisponible","coherence_fraction":0.0,"projection_displayed":false,"model_version":"fire_progression_arrival_v1"},"geometry":{"type":"Polygon","coordinates":[[[1.7745245538039622,42.71706924202333],[1.7745718592162905,42.714821725439236],[1.7654283578319159,42.7147166883253],[1.7654760124188336,42.712469180761985],[1.7624283035777113,42.712433996324684],[1.762476072084967,42.71018649494092],[1.759428484529833,42.71015122519428],[1.7595242456529336,42.70565623955242],[1.7564768969627742,42.705620885943134],[1.7565728784368833,42.701125922206245],[1.753525768582773,42.701090484748406],[1.753573871316449,42.698843011465605],[1.750526882726759,42.69880748872681],[1.750767928343355,42.68757020109956],[1.7538143293101633,42.68760571660702],[1.7538624097769802,42.68535827196896],[1.7690938825874707,42.6855345417326],[1.7690463896140036,42.68778199354811],[1.7720928127052962,42.687816988815946],[1.7719980507907436,42.69231190964124],[1.7750447125656597,42.69234682104483],[1.774950171089123,42.69684176381769],[1.7810439757032264,42.69691133214661],[1.780996934585336,42.69915881352197],[1.7840439598891606,42.699193469014915],[1.7839501018822501,42.70368844888454],[1.7869973659295708,42.70372302046729],[1.7867632454769433,42.714960560427734],[1.783715393465989,42.71492598180576],[1.7836684409109838,42.71717350263512],[1.7745245538039622,42.71706924202333]]]}},{"type":"Feature","properties":{"category":"observed_front","snapshot_index":8,"pass_time_utc":"2026-09-30T02:36:00+00:00","dt_local":"2026-09-30T04:36:00+02:00","area_km2":3.188,"label":"Activité observée","coherence_level":"indisponible","coherence_fraction":0.0,"projection_displayed":false,"model_version":"fire_progression_arrival_v1"},"geometry":{"type":"Polygon","coordinates":[[[1.7745245538039622,42.71706924202333],[1.7745718592162905,42.714821725439236],[1.7684761879598796,42.71475178744605],[1.768571258247608,42.710256774208084],[1.7655236633272497,42.710221677945576],[1.7657618627067053,42.698984235180674],[1.768808869766807,42.699019324298604],[1.7688563810683087,42.696771848602886],[1.7779970715765467,42.696876591342956],[1.777949912912121,42.6991240713037],[1.7840439598891606,42.699193469014915],[1.7839501018822501,42.70368844888454],[1.7869973659295708,42.70372302046729],[1.7867632454769433,42.714960560427734],[1.783715393465989,42.71492598180576],[1.7836684409109838,42.71717350263512],[1.7745245538039622,42.71706924202333]]]}},{"type":"Feature","properties":{"category":"historical_support","snapshot_index":9,"pass_time_utc":"2026-09-30T02:56:00+00:00","dt_local":"2026-09-30T04:56:00+02:00","area_km2":6.875,"label":"Isoline temporelle","coherence_level":"indisponible","coherence_fraction":0.0,"projection_displayed":false,"model_version":"fire_progression_arrival_v1"},"geometry":{"type":"Polygon","coordinates":[[[1.7745245538039622,42.71706924202333],[1.7745718592162905,42.714821725439236],[1.7654283578319159,42.7147166883253],[1.7654760124188336,42.712469180761985],[1.7624283035777113,42.712433996324684],[1.762476072084967,42.71018649494092],[1.759428484529833,42.71015122519428],[1.7595242456529336,42.70565623955242],[1.7564768969627742,42.705620885943134],[1.7565728784368833,42.701125922206245],[1.753525768582773,42.701090484748406],[1.753573871316449,42.698843011465605],[1.750526882726759,42.69880748872681],[1.750767928343355,42.68757020109956],[1.7538143293101633,42.68760571660702],[1.7538624097769802,42.68535827196896],[1.7690938825874707,42.6855345417326],[1.7690463896140036,42.68778199354811],[1.7720928127052962,42.687816988815946],[1.7719980507907436,42.69231190964124],[1.7750447125656597,42.69234682104483],[1.774950171089123,42.69684176381769],[1.7810439757032264,42.69691133214661],[1.780996934585336,42.69915881352197],[1.7840439598891606,42.699193469014915],[1.7839501018822501,42.70368844888454],[1.7869973659295708,42.70372302046729],[1.7867632454769433,42.714960560427734],[1.783715393465989,42.71492598180576],[1.7836684409109838,42.71717350263512],[1.7745245538039622,42.71706924202333]]]}},{"type":"Feature","properties":{"category":"observed_front","snapshot_index":9,"pass_time_utc":"2026-09-30T02:56:00+00:00","dt_local":"2026-09-30T04:56:00+02:00","area_km2":3.0,"label":"Activité observée","coherence_level":"indisponible","coherence_fraction":0.0,"projection_displayed":false,"model_version":"fire_progression_arrival_v1"},"geometry":{"type":"Polygon","coordinates":[[[1.7745245538039622,42.71706924202333],[1.7745718592162905,42.714821725439236],[1.7654283578319159,42.7147166883253],[1.7654760124188336,42.712469180761985],[1.7624283035777113,42.712433996324684],[1.7626193554855494,42.70344401930318],[1.7656665939857448,42.70347919801031],[1.7657142301844118,42.701231714213954],[1.7718084830797434,42.7013018085792],[1.7718558804937885,42.69905432669185],[1.780996934585336,42.69915881352197],[1.7809498898368372,42.70140629966394],[1.7839970326966856,42.70144095656801],[1.7839501018822501,42.70368844888454],[1.7869973659295708,42.70372302046729],[1.7868100767965982,42.71271304293449],[1.7837623423965174,42.71267846572047],[1.783715393465989,42.71492598180576],[1.7776197003265872,42.714856564311354],[1.7775725125329453,42.71710408231406],[1.7745245538039622,42.71706924202333]]]}},{"type":"Feature","properties":{"category":"firms_extent_snapshot","snapshot_index":10,"pass_time_utc":"2026-09-30T04:19:00+00:00","dt_local":"2026-09-30T06:19:00+02:00","label":"Emprise FIRMS cumulée à ce passage","interpretation":"Enveloppe des détections FIRMS, pas une surface brûlée","cumulative":true,"point_count":44,"extent_method":"cumulative_detection_extent_smoothed_landmasked_web_v1","local_cluster_link_m":10000.0,"model_version":"fire_progression_arrival_v1"},"geometry":{"type":"Polygon","coordinates":[[[1.7526157225906422,42.69442747596961],[1.754582569758372,42.69842703233495],[1.755210307823261,42.70118528205874],[1.756482027206856,42.70209940268048],[1.7591330849941824,42.70267887858009],[1.7606207893484411,42.703583835795946],[1.762542056488135,42.706843932196],[1.7623124574089082,42.70918719640127],[1.7627452221680473,42.71030189559966],[1.7638816995803426,42.71123792075398],[1.7669721413260093,42.712372931045785],[1.7698389233765441,42.7155812874539],[1.7727205987391363,42.717038001028335],[1.776208316866024,42.717591186764196],[1.7797176120778995,42.71711797062645],[1.782766437455366,42.715651086068014],[1.7847100699794418,42.71357597399818],[1.785422987427045,42.7116689354029],[1.785342868539648,42.709636953007234],[1.784478046558573,42.70776407002445],[1.778832388729065,42.70321271867436],[1.7742416707781894,42.70215246371513],[1.769297587620976,42.69867901438736],[1.768074472504653,42.696699232013245],[1.7686711275306521,42.693335186860885],[1.7655509439649513,42.68991512721668],[1.7630372471894582,42.689134405525365],[1.7567354620193465,42.68984869681667],[1.753263636551847,42.6929370576056],[1.7526157225906422,42.69442747596961]]]}},{"type":"Feature","properties":{"category":"historical_support","snapshot_index":10,"pass_time_utc":"2026-09-30T04:19:00+00:00","dt_local":"2026-09-30T06:19:00+02:00","area_km2":6.875,"label":"Isoline temporelle","coherence_level":"indisponible","coherence_fraction":0.0,"projection_displayed":false,"model_version":"fire_progression_arrival_v1"},"geometry":{"type":"Polygon","coordinates":[[[1.7745245538039622,42.71706924202333],[1.7745718592162905,42.714821725439236],[1.7654283578319159,42.7147166883253],[1.7654760124188336,42.712469180761985],[1.7624283035777113,42.712433996324684],[1.762476072084967,42.71018649494092],[1.759428484529833,42.71015122519428],[1.7595242456529336,42.70565623955242],[1.7564768969627742,42.705620885943134],[1.7565728784368833,42.701125922206245],[1.753525768582773,42.701090484748406],[1.753573871316449,42.698843011465605],[1.750526882726759,42.69880748872681],[1.750767928343355,42.68757020109956],[1.7538143293101633,42.68760571660702],[1.7538624097769802,42.68535827196896],[1.7690938825874707,42.6855345417326],[1.7690463896140036,42.68778199354811],[1.7720928127052962,42.687816988815946],[1.7719980507907436,42.69231190964124],[1.7750447125656597,42.69234682104483],[1.774950171089123,42.69684176381769],[1.7810439757032264,42.69691133214661],[1.780996934585336,42.69915881352197],[1.7840439598891606,42.699193469014915],[1.7839501018822501,42.70368844888454],[1.7869973659295708,42.70372302046729],[1.7867632454769433,42.714960560427734],[1.783715393465989,42.71492598180576],[1.7836684409109838,42.71717350263512],[1.7745245538039622,42.71706924202333]]]}},{"type":"Feature","properties":{"category":"observed_front","snapshot_index":10,"pass_time_utc":"2026-09-30T04:19:00+00:00","dt_local":"2026-09-30T06:19:00+02:00","area_km2":2.25,"label":"Activité observée","coherence_level":"indisponible","coherence_fraction":0.0,"projection_displayed":false,"model_version":"fire_progression_arrival_v1"},"geometry":{"type":"Polygon","coordinates":[[[1.7745245538039622,42.71706924202333],[1.7745718592162905,42.714821725439236],[1.7684761879598796,42.71475178744605],[1.7685237249384578,42.71250427845357],[1.7654760124188336,42.712469180761985],[1.7656189541102794,42.70572668656652],[1.768666313859324,42.70576177997102],[1.7687138361627393,42.7035142899859],[1.7717610820074625,42.70354929522973],[1.7718084830797434,42.7013018085792],[1.7809498898368372,42.70140629966394],[1.7809028414573085,42.703653790569255],[1.7839501018822501,42.70368844888454],[1.7839031674454349,42.70593594596129],[1.786950549067338,42.70597051895176],[1.7868100767965982,42.71271304293449],[1.7837623423965174,42.71267846572047],[1.783715393465989,42.71492598180576],[1.780667545079512,42.71489131643359],[1.7806204749049777,42.717138835851365],[1.7745245538039622,42.71706924202333]]]}},{"type":"Feature","properties":{"category":"firms_extent_snapshot","snapshot_index":11,"pass_time_utc":"2026-10-01T00:56:00+00:00","dt_local":"2026-10-01T02:56:00+02:00","label":"Emprise FIRMS cumulée à ce passage","interpretation":"Enveloppe des détections FIRMS, pas une surface brûlée","cumulative":true,"point_count":45,"extent_method":"cumulative_detection_extent_smoothed_landmasked_web_v1","local_cluster_link_m":10000.0,"model_version":"fire_progression_arrival_v1"},"geometry":{"type":"Polygon","coordinates":[[[1.7526157225906422,42.69442747596961],[1.754582569758372,42.69842703233495],[1.755210307823261,42.70118528205874],[1.756482027206856,42.70209940268048],[1.7591330849941824,42.70267887858009],[1.7606207893484411,42.703583835795946],[1.762542056488135,42.706843932196],[1.7623124574089082,42.70918719640127],[1.7627452221680473,42.71030189559966],[1.7638816995803426,42.71123792075398],[1.7669721413260093,42.712372931045785],[1.7698389233765441,42.7155812874539],[1.7727205987391363,42.717038001028335],[1.776208316866024,42.717591186764196],[1.7797176120778995,42.71711797062645],[1.782766437455366,42.715651086068014],[1.7847100699794418,42.71357597399818],[1.785422987427045,42.7116689354029],[1.785342868539648,42.709636953007234],[1.784478046558573,42.70776407002445],[1.778832388729065,42.70321271867436],[1.7742416707781894,42.70215246371513],[1.769297587620976,42.69867901438736],[1.768074472504653,42.696699232013245],[1.7686711275306521,42.693335186860885],[1.7655509439649513,42.68991512721668],[1.7630372471894582,42.689134405525365],[1.7567354620193465,42.68984869681667],[1.753263636551847,42.6929370576056],[1.7526157225906422,42.69442747596961]]]}},{"type":"Feature","properties":{"category":"historical_support","snapshot_index":11,"pass_time_utc":"2026-10-01T00:56:00+00:00","dt_local":"2026-10-01T02:56:00+02:00","area_km2":6.875,"label":"Isoline temporelle","coherence_level":"indisponible","coherence_fraction":0.0,"projection_displayed":false,"model_version":"fire_progression_arrival_v1"},"geometry":{"type":"Polygon","coordinates":[[[1.7745245538039622,42.71706924202333],[1.7745718592162905,42.714821725439236],[1.7654283578319159,42.7147166883253],[1.7654760124188336,42.712469180761985],[1.7624283035777113,42.712433996324684],[1.762476072084967,42.71018649494092],[1.759428484529833,42.71015122519428],[1.7595242456529336,42.70565623955242],[1.7564768969627742,42.705620885943134],[1.7565728784368833,42.701125922206245],[1.753525768582773,42.701090484748406],[1.753573871316449,42.698843011465605],[1.750526882726759,42.69880748872681],[1.750767928343355,42.68757020109956],[1.7538143293101633,42.68760571660702],[1.7538624097769802,42.68535827196896],[1.7690938825874707,42.6855345417326],[1.7690463896140036,42.68778199354811],[1.7720928127052962,42.687816988815946],[1.7719980507907436,42.69231190964124],[1.7750447125656597,42.69234682104483],[1.774950171089123,42.69684176381769],[1.7810439757032264,42.69691133214661],[1.780996934585336,42.69915881352197],[1.7840439598891606,42.699193469014915],[1.7839501018822501,42.70368844888454],[1.7869973659295708,42.70372302046729],[1.7867632454769433,42.714960560427734],[1.783715393465989,42.71492598180576],[1.7836684409109838,42.71717350263512],[1.7745245538039622,42.71706924202333]]]}},{"type":"Feature","properties":{"category":"observed_front","snapshot_index":11,"pass_time_utc":"2026-10-01T00:56:00+00:00","dt_local":"2026-10-01T02:56:00+02:00","area_km2":2.312,"label":"Activité observée","coherence_level":"indisponible","coherence_fraction":0.0,"projection_displayed":false,"model_version":"fire_progression_arrival_v1"},"geometry":{"type":"Polygon","coordinates":[[[1.7685237249384578,42.71250427845357],[1.768571258247608,42.710256774208084],[1.7655236633272497,42.710221677945576],[1.7655713105575896,42.70797417987936],[1.762523836905074,42.70793899830727],[1.7626671092467714,42.7011965369392],[1.7657142301844118,42.701231714213954],[1.7657618627067053,42.698984235180674],[1.768808869766807,42.699019324298604],[1.7688563810683087,42.696771848602886],[1.7779970715765467,42.696876591342956],[1.777949912912121,42.6991240713037],[1.780996934585336,42.69915881352197],[1.7809498898368372,42.70140629966394],[1.7839970326966856,42.70144095656801],[1.7838562293858207,42.70818344779501],[1.7808087338034824,42.70814878665714],[1.7807616745283434,42.710396291833234],[1.7777140649864105,42.71036154254101],[1.7776668844776018,42.71260905105258],[1.7685237249384578,42.71250427845357]]]}},{"type":"Feature","properties":{"category":"firms_extent_snapshot","snapshot_index":12,"pass_time_utc":"2026-10-01T01:39:00+00:00","dt_local":"2026-10-01T03:39:00+02:00","label":"Emprise FIRMS cumulée à ce passage","interpretation":"Enveloppe des détections FIRMS, pas une surface brûlée","cumulative":true,"point_count":46,"extent_method":"cumulative_detection_extent_smoothed_landmasked_web_v1","local_cluster_link_m":10000.0,"model_version":"fire_progression_arrival_v1"},"geometry":{"type":"Polygon","coordinates":[[[1.7526157225906422,42.69442747596961],[1.754582569758372,42.69842703233495],[1.7554502922976003,42.70158528956621],[1.7610924039883342,42.70472107389212],[1.762542056488135,42.706843932196],[1.7623167871157626,42.709242228730865],[1.7628499995486897,42.71043551635751],[1.7669721413260093,42.712372931045785],[1.7698389233765441,42.7155812874539],[1.7727205987391363,42.717038001028335],[1.776208316866024,42.717591186764196],[1.7797176120778995,42.71711797062645],[1.782766437455366,42.715651086068014],[1.7843453637513313,42.714119607352494],[1.785270499589193,42.71232082360082],[1.785115941181927,42.708940156409206],[1.7835054925101474,42.70665397826942],[1.778832388729065,42.70321271867436],[1.7744524786852858,42.702244962379034],[1.7727487097034793,42.70091624670776],[1.7722796262840526,42.699727244191045],[1.7724874610867984,42.69682327167477],[1.7733765996667026,42.69430255325798],[1.7723008385745394,42.69255496029667],[1.7667979069414916,42.69070562522746],[1.7640237757621098,42.68924719843718],[1.7579647382167416,42.68958911788226],[1.7555518476566736,42.6905271281693],[1.7530744194583037,42.693161807726824],[1.7526157225906422,42.69442747596961]]]}},{"type":"Feature","properties":{"category":"historical_support","snapshot_index":12,"pass_time_utc":"2026-10-01T01:39:00+00:00","dt_local":"2026-10-01T03:39:00+02:00","area_km2":6.875,"label":"Isoline temporelle","coherence_level":"indisponible","coherence_fraction":0.0,"projection_displayed":false,"model_version":"fire_progression_arrival_v1"},"geometry":{"type":"Polygon","coordinates":[[[1.7745245538039622,42.71706924202333],[1.7745718592162905,42.714821725439236],[1.7654283578319159,42.7147166883253],[1.7654760124188336,42.712469180761985],[1.7624283035777113,42.712433996324684],[1.762476072084967,42.71018649494092],[1.759428484529833,42.71015122519428],[1.7595242456529336,42.70565623955242],[1.7564768969627742,42.705620885943134],[1.7565728784368833,42.701125922206245],[1.753525768582773,42.701090484748406],[1.753573871316449,42.698843011465605],[1.750526882726759,42.69880748872681],[1.750767928343355,42.68757020109956],[1.7538143293101633,42.68760571660702],[1.7538624097769802,42.68535827196896],[1.7690938825874707,42.6855345417326],[1.7690463896140036,42.68778199354811],[1.7720928127052962,42.687816988815946],[1.7719980507907436,42.69231190964124],[1.7750447125656597,42.69234682104483],[1.774950171089123,42.69684176381769],[1.7810439757032264,42.69691133214661],[1.780996934585336,42.69915881352197],[1.7840439598891606,42.699193469014915],[1.7839501018822501,42.70368844888454],[1.7869973659295708,42.70372302046729],[1.7867632454769433,42.714960560427734],[1.783715393465989,42.71492598180576],[1.7836684409109838,42.71717350263512],[1.7745245538039622,42.71706924202333]]]}},{"type":"Feature","properties":{"category":"observed_front","snapshot_index":12,"pass_time_utc":"2026-10-01T01:39:00+00:00","dt_local":"2026-10-01T03:39:00+02:00","area_km2":0.812,"label":"Activité observée","coherence_level":"indisponible","coherence_fraction":0.0,"projection_displayed":false,"model_version":"fire_progression_arrival_v1"},"geometry":{"type":"Polygon","coordinates":[[[1.77471375354475,42.70807920416323],[1.7747610443528035,42.70583170657406],[1.7717136772765223,42.70579678664025],[1.7717610820074625,42.70354929522973],[1.7687138361627393,42.7035142899859],[1.7687613547984253,42.701266804760664],[1.7718084830797434,42.7013018085792],[1.7718558804937885,42.69905432669185],[1.7749028948785825,42.69908924236029],[1.774950171089123,42.69684176381769],[1.7779970715765467,42.696876591342956],[1.777949912912121,42.6991240713037],[1.780996934585336,42.69915881352197],[1.7809498898368372,42.70140629966394],[1.7839970326966856,42.70144095656801],[1.7839501018822501,42.70368844888454],[1.7809028414573085,42.703653790569255],[1.7808557894463304,42.70590128623474],[1.7778084150790967,42.705866539772266],[1.7777612418534345,42.708114038779826],[1.77471375354475,42.70807920416323]]]}}]}