{"type":"FeatureCollection","name":"detection_envelopes","crs":{"type":"name","properties":{"name":"urn:ogc:def:crs:OGC:1.3:CRS84"}},"features":[{"type":"Feature","properties":{"cluster_id":1,"snapshot_index":1,"estimated_time_utc":"2026-09-27T12:40:00Z","observed_until_utc":"2026-09-27T12:40:00Z","target_time_utc":"2026-09-27T12:40:00Z","arrival_h":0.0,"hours_ago":0.9333333333333333,"supported_detections_cumulative":3,"sources_cumulative":"VIIRS_NOAA21_NRT","last_source":"VIIRS_NOAA21_NRT","last_satellite":"N21","last_instrument":"VIIRS","detected_area_km2":2.0434729142722694,"product_type":"cumulative_active_fire_detection_extent"},"geometry":{"type":"MultiLineString","coordinates":[[[4.510809950255517,43.693107630056474],[4.511525287108982,43.693560278001186],[4.511801919047912,43.69527363351222],[4.513002386191313,43.69652465048416],[4.515006241927043,43.69710822817258],[4.517119237445251,43.696785670132584],[4.51891715459496,43.69513231285197],[4.518845494728104,43.69323325229162],[4.519919524137589,43.6913008203789],[4.5194701121413,43.689811743556135],[4.517191652547275,43.6885072536017],[4.514326718199726,43.68858262533535],[4.511693890932212,43.68774179453081],[4.509581198382229,43.6880642453075],[4.508043738878856,43.68922337823222],[4.507730810182666,43.69098536908079],[4.50881313837284,43.69238947677006],[4.510809950255517,43.693107630056474]],[[4.84362593226901,43.99372428628165],[4.841248315622045,43.99480864425167],[4.84011620689072,43.996095747440584],[4.840149042280588,43.9976625096383],[4.841382182959473,43.99895204979607],[4.843827852118722,43.999537634716276],[4.846376712432382,43.99873084073797],[4.849238108284425,43.99959762897384],[4.852046015557175,43.998580175858],[4.852797661995514,43.997386076102906],[4.852661666183298,43.996035277508234],[4.849267460352194,43.993147836411985],[4.846456323399147,43.99258371334355],[4.84362593226901,43.99372428628165]],[[4.76178024918626,44.06302676406953],[4.763761664462226,44.06238322917718],[4.764913270305223,44.06105435804486],[4.764866015401592,44.05953002858346],[4.763633296290327,44.0582395823361],[4.761917962765081,44.057687973314536],[4.759187321025768,44.05782697162369],[4.75605444878676,44.056580475639706],[4.754259255954151,44.05679114455341],[4.752813709819355,44.057587191592425],[4.752028003200039,44.05961604399163],[4.753602942191259,44.06148323045495],[4.753119412002508,44.06347370085005],[4.754446258293949,44.06502027708256],[4.756161740330541,44.06557200539281],[4.757975080953766,44.06546781922267],[4.759744447790375,44.06455797475156],[4.760518447100288,44.062987489680395],[4.76178024918626,44.06302676406953]]]}},{"type":"Feature","properties":{"cluster_id":1,"snapshot_index":2,"estimated_time_utc":"2026-09-27T13:36:00Z","observed_until_utc":"2026-09-27T13:36:00Z","target_time_utc":"2026-09-27T13:36:00Z","arrival_h":0.9333333333333333,"hours_ago":0.0,"supported_detections_cumulative":13,"sources_cumulative":"VIIRS_NOAA20_NRT, VIIRS_NOAA21_NRT, VIIRS_SNPP_NRT","last_source":"VIIRS_NOAA20_NRT","last_satellite":"N20","last_instrument":"VIIRS","detected_area_km2":3.224556693761617,"product_type":"cumulative_active_fire_detection_extent"},"geometry":{"type":"MultiLineString","coordinates":[[[4.511690595129172,43.69497550297539],[4.51311943667344,43.697808169611726],[4.514365974931958,43.69877848891897],[4.514412879122411,43.70028174937396],[4.515402960308357,43.70142964330833],[4.519658288336182,43.7037027991638],[4.521759133176225,43.703673443505885],[4.523341308519329,43.702955023931],[4.524330150881434,43.700761875449075],[4.522416472348527,43.698123846394736],[4.524229253281425,43.696475542178945],[4.524647690475768,43.69515590635679],[4.522686625361391,43.692243698871145],[4.524498920573447,43.69059552915195],[4.524918482874708,43.689320014574925],[4.523756302375805,43.68739023616569],[4.52056036109948,43.68543605652861],[4.5181746415026,43.6850376257889],[4.513340147349042,43.68693294402814],[4.512226596397776,43.68780637080341],[4.510545190095648,43.68779875285828],[4.508933279747955,43.6883915693233],[4.507704246002989,43.68997597790895],[4.508153264674137,43.6926215412477],[4.509143088073728,43.69376948631332],[4.511613453086089,43.694505537847654],[4.511690595129172,43.69497550297539]],[[4.84362593226901,43.99372428628165],[4.841248315622045,43.99480864425167],[4.84011620689072,43.996095747440584],[4.840149042280588,43.9976625096383],[4.841382182959473,43.99895204979607],[4.843827852118722,43.999537634716276],[4.846376712432382,43.99873084073797],[4.849238108284425,43.99959762897384],[4.852046015557175,43.998580175858],[4.852797661995514,43.997386076102906],[4.852661666183298,43.996035277508234],[4.849267460352194,43.993147836411985],[4.846456323399147,43.99258371334355],[4.84362593226901,43.99372428628165]],[[4.76178024918626,44.06302676406953],[4.763761664462226,44.06238322917718],[4.764913270305223,44.06105435804486],[4.764866015401592,44.05953002858346],[4.763633296290327,44.0582395823361],[4.761917962765081,44.057687973314536],[4.759187321025768,44.05782697162369],[4.75605444878676,44.056580475639706],[4.754259255954151,44.05679114455341],[4.752813709819355,44.057587191592425],[4.752028003200039,44.05961604399163],[4.753602942191259,44.06148323045495],[4.753119412002508,44.06347370085005],[4.754446258293949,44.06502027708256],[4.756161740330541,44.06557200539281],[4.757975080953766,44.06546781922267],[4.759744447790375,44.06455797475156],[4.760518447100288,44.062987489680395],[4.76178024918626,44.06302676406953]]]}}],"metadata":{"generated_at_utc":"2026-09-27T17:18:20.474802Z","product_type":"cumulative_active_fire_detection_extent","product_label":"Emprises cumulées des détections actives FIRMS","not_a_burn_perimeter":true,"not_a_continuous_fire_front":true,"not_an_arrival_time_interpolation":true,"snapshot_step_hours":6,"confidence_filter":{"VIIRS":["nominal","high"],"MODIS_minimum":30},"footprint_radius_m":{"VIIRS":300.0,"MODIS":750.0},"same_pass_neighbour_m":2000.0,"continuity_distance_m":3000.0,"clusters":[{"cluster_id":1,"first_supported_detection_utc":"2026-09-27T12:40:00Z","last_supported_detection_utc":"2026-09-27T13:36:00Z","pass_states":3,"published_snapshots":2,"final_detected_area_km2":1.8932668819658214}]},"bbox":[4.507704246002989,43.6850376257889,4.852797661995514,44.06557200539281]}