{"type":"FeatureCollection","name":"fire_progression_arrival_v1","features":[{"type":"Feature","properties":{"category":"arrival_step","arrival_snapshot_index":3,"first_detected_utc":"2026-09-27T12:40:00+00:00","first_detected_local":"2026-09-27T14:40:00+02:00","area_km2":2.75,"label":"Première détection FIRMS","model_version":"fire_progression_arrival_v1"},"geometry":{"type":"Polygon","coordinates":[[[4.5100682111272965,43.698554346888784],[4.510008922217538,43.69630520082316],[4.50690904142104,43.69634817258304],[4.5068498788110185,43.694099028077076],[4.503750115014548,43.69414190979472],[4.5035139975031955,43.685145357953985],[4.506613274813552,43.6851024832244],[4.506554135422107,43.682853355320475],[4.5096532864927115,43.68281039406427],[4.509594030155746,43.68056127124097],[4.51889109066024,43.68043186310624],[4.5189507117566965,43.68268098065691],[4.522049844163624,43.682637666308906],[4.52210959153524,43.68488678542475],[4.525208840846788,43.68484338103591],[4.525448363714841,43.69383988365817],[4.522348627930372,43.69388329512136],[4.522408398759084,43.69613243083737],[4.5193085366394525,43.69617575577536],[4.519368190509059,43.698424896566785],[4.5100682111272965,43.698554346888784]]]}},{"type":"Feature","properties":{"category":"arrival_step","arrival_snapshot_index":4,"first_detected_utc":"2026-09-27T13:16:00+00:00","first_detected_local":"2026-09-27T15:16:00+02:00","area_km2":0.438,"label":"Première détection FIRMS","model_version":"fire_progression_arrival_v1"},"geometry":{"type":"Polygon","coordinates":[[[4.510127504692503,43.700803496261585],[4.5100682111272965,43.698554346888784],[4.519368190509059,43.698424896566785],[4.5193085366394525,43.69617575577536],[4.522408398759084,43.69613243083737],[4.522348627930372,43.69388329512136],[4.525448363714841,43.69383988365817],[4.525568153359058,43.698338154862725],[4.522468174280874,43.69838156986355],[4.522527954496292,43.7006307121966],[4.510127504692503,43.700803496261585]]]}},{"type":"Feature","properties":{"category":"arrival_step","arrival_snapshot_index":5,"first_detected_utc":"2026-09-27T13:36:00+00:00","first_detected_local":"2026-09-27T15:36:00+02:00","area_km2":1.0,"label":"Première détection FIRMS","model_version":"fire_progression_arrival_v1"},"geometry":{"type":"Polygon","coordinates":[[[4.5132870440454385,43.703009583619924],[4.513227624151311,43.700760432697855],[4.522527954496292,43.7006307121966],[4.522468174280874,43.69838156986355],[4.525568153359058,43.698338154862725],[4.525208840846788,43.68484338103591],[4.52210959153524,43.68488678542475],[4.522049844163624,43.682637666308906],[4.5189507117566965,43.68268098065691],[4.51889109066024,43.68043186310624],[4.525089107614092,43.68034514967086],[4.52514897188079,43.68259426368847],[4.528248094898656,43.68255077279582],[4.528728151271278,43.7005437903561],[4.525628055235649,43.700587295426836],[4.52568796181597,43.702836439294465],[4.5132870440454385,43.703009583619924]]]}},{"type":"Feature","properties":{"category":"observed_front","snapshot_index":2,"pass_time_utc":"2026-09-27T11:36:00+00:00","dt_local":"2026-09-27T13:36:00+02:00","area_km2":2.312,"label":"Activité observée","coherence_level":"indisponible","coherence_fraction":0.0,"projection_displayed":false,"model_version":"fire_progression_arrival_v1"},"geometry":{"type":"Polygon","coordinates":[[[4.510008922217538,43.69630520082316],[4.50994963796268,43.694056058067986],[4.5068498788110185,43.694099028077076],[4.506790720845806,43.69184988688495],[4.5036910786851765,43.69189276685547],[4.5035139975031955,43.685145357953985],[4.506613274813552,43.6851024832244],[4.506554135422107,43.682853355320475],[4.5096532864927115,43.68281039406427],[4.509594030155746,43.68056127124097],[4.51889109066024,43.68043186310624],[4.5189507117566965,43.68268098065691],[4.522049844163624,43.682637666308906],[4.52210959153524,43.68488678542475],[4.525208840846788,43.68484338103591],[4.525388475946112,43.69159075302431],[4.522288861794184,43.69163416271881],[4.522348627930372,43.69388329512136],[4.519248887453378,43.69392661829416],[4.5193085366394525,43.69617575577536],[4.510008922217538,43.69630520082316]]]}},{"type":"Feature","properties":{"category":"firms_extent_snapshot","snapshot_index":3,"pass_time_utc":"2026-09-27T12:40:00+00:00","dt_local":"2026-09-27T14:40:00+02:00","label":"Emprise FIRMS cumulée à ce passage","interpretation":"Enveloppe des détections FIRMS, pas une surface brûlée","cumulative":true,"point_count":3,"extent_method":"cumulative_detection_extent_smoothed_landmasked_web_v1","local_cluster_link_m":10000.0,"model_version":"fire_progression_arrival_v1"},"geometry":{"type":"Polygon","coordinates":[[[4.507652392875154,43.69048157596471],[4.508276484990652,43.69192556757782],[4.510978122370883,43.693637740614214],[4.512084703546396,43.69573725865891],[4.513260725354319,43.696660833166234],[4.516125340195787,43.69705567592631],[4.5184184314975075,43.695921326365365],[4.5199276401645125,43.6910581316585],[4.519454939525958,43.68979262236416],[4.518278958844698,43.6888691189929],[4.5105749705054,43.68779430088617],[4.508451191990081,43.688758536099726],[4.507652392875154,43.69048157596471]]]}},{"type":"Feature","properties":{"category":"historical_support","snapshot_index":3,"pass_time_utc":"2026-09-27T12:40:00+00:00","dt_local":"2026-09-27T14:40:00+02:00","area_km2":2.75,"label":"Isoline temporelle","coherence_level":"indisponible","coherence_fraction":0.0,"projection_displayed":false,"model_version":"fire_progression_arrival_v1"},"geometry":{"type":"Polygon","coordinates":[[[4.5100682111272965,43.698554346888784],[4.510008922217538,43.69630520082316],[4.50690904142104,43.69634817258304],[4.5068498788110185,43.694099028077076],[4.503750115014548,43.69414190979472],[4.5035139975031955,43.685145357953985],[4.506613274813552,43.6851024832244],[4.506554135422107,43.682853355320475],[4.5096532864927115,43.68281039406427],[4.509594030155746,43.68056127124097],[4.51889109066024,43.68043186310624],[4.5189507117566965,43.68268098065691],[4.522049844163624,43.682637666308906],[4.52210959153524,43.68488678542475],[4.525208840846788,43.68484338103591],[4.525448363714841,43.69383988365817],[4.522348627930372,43.69388329512136],[4.522408398759084,43.69613243083737],[4.5193085366394525,43.69617575577536],[4.519368190509059,43.698424896566785],[4.5100682111272965,43.698554346888784]]]}},{"type":"Feature","properties":{"category":"observed_front","snapshot_index":3,"pass_time_utc":"2026-09-27T12:40:00+00:00","dt_local":"2026-09-27T14:40:00+02:00","area_km2":2.75,"label":"Activité observée","coherence_level":"indisponible","coherence_fraction":0.0,"projection_displayed":false,"model_version":"fire_progression_arrival_v1"},"geometry":{"type":"Polygon","coordinates":[[[4.5100682111272965,43.698554346888784],[4.510008922217538,43.69630520082316],[4.50690904142104,43.69634817258304],[4.5068498788110185,43.694099028077076],[4.503750115014548,43.69414190979472],[4.5035139975031955,43.685145357953985],[4.506613274813552,43.6851024832244],[4.506554135422107,43.682853355320475],[4.5096532864927115,43.68281039406427],[4.509594030155746,43.68056127124097],[4.51889109066024,43.68043186310624],[4.5189507117566965,43.68268098065691],[4.522049844163624,43.682637666308906],[4.52210959153524,43.68488678542475],[4.525208840846788,43.68484338103591],[4.525448363714841,43.69383988365817],[4.522348627930372,43.69388329512136],[4.522408398759084,43.69613243083737],[4.5193085366394525,43.69617575577536],[4.519368190509059,43.698424896566785],[4.5100682111272965,43.698554346888784]]]}},{"type":"Feature","properties":{"category":"historical_support","snapshot_index":4,"pass_time_utc":"2026-09-27T13:16:00+00:00","dt_local":"2026-09-27T15:16:00+02:00","area_km2":3.188,"label":"Isoline temporelle","coherence_level":"indisponible","coherence_fraction":0.0,"projection_displayed":false,"model_version":"fire_progression_arrival_v1"},"geometry":{"type":"Polygon","coordinates":[[[4.510127504692503,43.700803496261585],[4.510008922217538,43.69630520082316],[4.50690904142104,43.69634817258304],[4.5068498788110185,43.694099028077076],[4.503750115014548,43.69414190979472],[4.5035139975031955,43.685145357953985],[4.506613274813552,43.6851024832244],[4.506554135422107,43.682853355320475],[4.5096532864927115,43.68281039406427],[4.509594030155746,43.68056127124097],[4.51889109066024,43.68043186310624],[4.5189507117566965,43.68268098065691],[4.522049844163624,43.682637666308906],[4.52210959153524,43.68488678542475],[4.525208840846788,43.68484338103591],[4.525568153359058,43.698338154862725],[4.522468174280874,43.69838156986355],[4.522527954496292,43.7006307121966],[4.510127504692503,43.700803496261585]]]}},{"type":"Feature","properties":{"category":"observed_front","snapshot_index":4,"pass_time_utc":"2026-09-27T13:16:00+00:00","dt_local":"2026-09-27T15:16:00+02:00","area_km2":2.688,"label":"Activité observée","coherence_level":"indisponible","coherence_fraction":0.0,"projection_displayed":false,"model_version":"fire_progression_arrival_v1"},"geometry":{"type":"Polygon","coordinates":[[[4.510127504692503,43.700803496261585],[4.510008922217538,43.69630520082316],[4.50690904142104,43.69634817258304],[4.5068498788110185,43.694099028077076],[4.503750115014548,43.69414190979472],[4.503573019930045,43.68739449093179],[4.50667241884762,43.6873516144553],[4.506613274813552,43.6851024832244],[4.512811815496863,43.68501646893427],[4.512752432911702,43.6827673445348],[4.5189507117566965,43.68268098065691],[4.519010337533378,43.68493010153756],[4.52210959153524,43.68488678542475],[4.52216934359717,43.687135907867216],[4.525268714512638,43.6870925017099],[4.525568153359058,43.698338154862725],[4.522468174280874,43.69838156986355],[4.522527954496292,43.7006307121966],[4.510127504692503,43.700803496261585]]]}},{"type":"Feature","properties":{"category":"firms_extent_snapshot","snapshot_index":5,"pass_time_utc":"2026-09-27T13:36:00+00:00","dt_local":"2026-09-27T15:36:00+02:00","label":"Emprise FIRMS cumulée à ce passage","interpretation":"Enveloppe des détections FIRMS, pas une surface brûlée","cumulative":true,"point_count":13,"extent_method":"cumulative_detection_extent_smoothed_landmasked_web_v1","local_cluster_link_m":10000.0,"model_version":"fire_progression_arrival_v1"},"geometry":{"type":"MultiPolygon","coordinates":[[[[4.842360388940771,43.99935661698996],[4.846593404011558,43.99920924558522],[4.849207538044775,43.99959787407284],[4.851824621177885,43.998762969414656],[4.852857248894865,43.996836746626485],[4.852178697857661,43.99534856036181],[4.849520653182378,43.993307658574956],[4.846852575929684,43.992562130828134],[4.8451012916509315,43.992910428325715],[4.841271731345881,43.99479445722936],[4.839972740776718,43.99690294084363],[4.840650991632796,43.9983912041378],[4.842360388940771,43.99935661698996]]],[[[4.7533874875300715,44.06404784845916],[4.75447057428492,44.06503368043221],[4.756131663095015,44.06556791496229],[4.758989652202299,44.06508719698216],[4.761011900366811,44.06341656280283],[4.763950529752267,44.06225413908215],[4.7649859351354635,44.060817264388064],[4.76472469891924,44.059261843261616],[4.763372718922192,44.05810396484163],[4.7591645083902945,44.05756697499574],[4.756388283481498,44.056612096643704],[4.753302219858503,44.05722242534258],[4.751998548396133,44.05932993721106],[4.7530148524005895,44.061472890205415],[4.7533874875300715,44.06404784845916]]],[[[4.511821151808156,43.695366341351544],[4.515131068623248,43.70122140738204],[4.516436708565983,43.701946886593284],[4.523891171861868,43.70192999099855],[4.524351545565127,43.70125755609178],[4.523302402734987,43.69842248422896],[4.524641166092318,43.6953875455983],[4.523578187090588,43.69253633964032],[4.52490665829171,43.689562622773266],[4.524028159775012,43.68759844863942],[4.520336105611593,43.68534272499094],[4.517784676476635,43.68508435831077],[4.512387930108578,43.68742865352703],[4.5091842114659375,43.68824831490151],[4.508057890122551,43.68920384907439],[4.507652392875154,43.69048157596471],[4.5084192921413875,43.6930783531067],[4.511821151808156,43.695366341351544]]],[[[4.521435677253744,43.70373564873265],[4.523054302251278,43.703152301868315],[4.523555770945519,43.7024198761251],[4.517585315925995,43.70258508274914],[4.5195564699281965,43.703680246473226],[4.521435677253744,43.70373564873265]]]]}},{"type":"Feature","properties":{"category":"historical_support","snapshot_index":5,"pass_time_utc":"2026-09-27T13:36:00+00:00","dt_local":"2026-09-27T15:36:00+02:00","area_km2":4.188,"label":"Isoline temporelle","coherence_level":"indisponible","coherence_fraction":0.0,"projection_displayed":false,"model_version":"fire_progression_arrival_v1"},"geometry":{"type":"Polygon","coordinates":[[[4.5132870440454385,43.703009583619924],[4.513227624151311,43.700760432697855],[4.510127504692503,43.700803496261585],[4.510008922217538,43.69630520082316],[4.50690904142104,43.69634817258304],[4.5068498788110185,43.694099028077076],[4.503750115014548,43.69414190979472],[4.5035139975031955,43.685145357953985],[4.506613274813552,43.6851024832244],[4.506554135422107,43.682853355320475],[4.5096532864927115,43.68281039406427],[4.509594030155746,43.68056127124097],[4.525089107614092,43.68034514967086],[4.52514897188079,43.68259426368847],[4.528248094898656,43.68255077279582],[4.528728151271278,43.7005437903561],[4.525628055235649,43.700587295426836],[4.52568796181597,43.702836439294465],[4.5132870440454385,43.703009583619924]]]}},{"type":"Feature","properties":{"category":"observed_front","snapshot_index":5,"pass_time_utc":"2026-09-27T13:36:00+00:00","dt_local":"2026-09-27T15:36:00+02:00","area_km2":3.812,"label":"Activité observée","coherence_level":"indisponible","coherence_fraction":0.0,"projection_displayed":false,"model_version":"fire_progression_arrival_v1"},"geometry":{"type":"Polygon","coordinates":[[[4.5132870440454385,43.703009583619924],[4.513168208922726,43.698511285079604],[4.5100682111272965,43.698554346888784],[4.50994963796268,43.694056058067986],[4.5068498788110185,43.694099028077076],[4.506554135422107,43.682853355320475],[4.5096532864927115,43.68281039406427],[4.509594030155746,43.68056127124097],[4.525089107614092,43.68034514967086],[4.52514897188079,43.68259426368847],[4.528248094898656,43.68255077279582],[4.528728151271278,43.7005437903561],[4.525628055235649,43.700587295426836],[4.52568796181597,43.702836439294465],[4.5132870440454385,43.703009583619924]]]}}]}