{"type":"FeatureCollection","name":"detection_envelopes","crs":{"type":"name","properties":{"name":"urn:ogc:def:crs:OGC:1.3:CRS84"}},"features":[{"type":"Feature","properties":{"cluster_id":1,"snapshot_index":1,"estimated_time_utc":"2026-09-24T01:26:00Z","observed_until_utc":"2026-09-24T01:26:00Z","target_time_utc":"2026-09-24T01:26:00Z","arrival_h":0.0,"hours_ago":84.2,"supported_detections_cumulative":6,"sources_cumulative":"VIIRS_NOAA20_NRT","last_source":"VIIRS_NOAA20_NRT","last_satellite":"N20","last_instrument":"VIIRS","detected_area_km2":1.549366531876003,"product_type":"cumulative_active_fire_detection_extent"},"geometry":{"type":"LineString","coordinates":[[2.267420222696343,51.033075983737156],[2.267823449454878,51.03377226161215],[2.266982721881722,51.0352997525811],[2.267251052775199,51.036595805254926],[2.268510242055738,51.037687274143515],[2.270728031977772,51.0382816694743],[2.272783676341226,51.03811240903083],[2.275023449438904,51.03729071573798],[2.278968204668239,51.03775844017967],[2.281918010791145,51.03681637823611],[2.286187806420072,51.037226870599405],[2.288270415072474,51.03638180535244],[2.289257334230081,51.03494963745355],[2.288988439373062,51.03365362854663],[2.287631330474171,51.0322072435955],[2.288456952261664,51.030519666735046],[2.288188102159532,51.02922364687557],[2.286928695610753,51.02813236100859],[2.284711164375965,51.02753824287557],[2.282655997099795,51.02770770197341],[2.280442139688516,51.028513841826644],[2.277344162003407,51.02800035290665],[2.273550492524621,51.029000968963395],[2.270852571602651,51.02849358624071],[2.268485219173833,51.02877620899754],[2.266925375495034,51.0296369460622],[2.26619310464912,51.03085972364196],[2.267420222696343,51.033075983737156]]}},{"type":"Feature","properties":{"cluster_id":1,"snapshot_index":2,"estimated_time_utc":"2026-09-24T03:06:00Z","observed_until_utc":"2026-09-24T03:06:00Z","target_time_utc":"2026-09-24T07:26:00Z","arrival_h":1.6666666666666667,"hours_ago":82.53333333333333,"supported_detections_cumulative":21,"sources_cumulative":"VIIRS_NOAA20_NRT, VIIRS_NOAA21_NRT, VIIRS_SNPP_NRT","last_source":"VIIRS_NOAA20_NRT","last_satellite":"N20","last_instrument":"VIIRS","detected_area_km2":3.2378723021325304,"product_type":"cumulative_active_fire_detection_extent"},"geometry":{"type":"MultiLineString","coordinates":[[[2.285766991642578,51.03772505772617],[2.287718298388278,51.03816644191025],[2.289769207918224,51.037975733690615],[2.291435314730141,51.03719797617447],[2.292323134559024,51.0360168622779],[2.292242696084432,51.03475353662268],[2.290820965962397,51.03322172366519],[2.290732447330563,51.03146358219701],[2.289310702687006,51.0299316445226],[2.28930392164845,51.02838751963036],[2.288419297300209,51.02720548280811],[2.286023998040618,51.02628145365989],[2.282771450176226,51.026301578383226],[2.28076226379383,51.02458069378064],[2.278491462772982,51.02395825191356],[2.276436422083612,51.02412760989999],[2.274188733981916,51.025048873268204],[2.271630833894258,51.02499329129441],[2.2696877984,51.02555906446294],[2.268222019543031,51.02706940986417],[2.268520498639205,51.028765937836845],[2.266925375495034,51.0296369460622],[2.266185623459881,51.03090345107621],[2.266461391060492,51.03215578726613],[2.267796851646157,51.033518954327036],[2.266954237012361,51.035607094291414],[2.267919556970834,51.037314040915405],[2.271145751672545,51.03829920802275],[2.275023449438904,51.03729071573798],[2.278968204668239,51.03775844017967],[2.282052328913253,51.036810755996456],[2.285766991642578,51.03772505772617]],[[2.290660765828147,51.04489348376873],[2.290736081551413,51.04660873391578],[2.292110670690847,51.04790775046265],[2.294398569982155,51.048506419792],[2.297129492642346,51.04809150931559],[2.298881204881238,51.046654588816416],[2.29913362629236,51.04452206862306],[2.301624289812644,51.0436002510761],[2.30286045507552,51.04255094630106],[2.303172224105134,51.04130198697864],[2.302507076249641,51.040064042957574],[2.300994882013308,51.03916993382994],[2.298922997023973,51.03883039916525],[2.295096445808981,51.03994671098068],[2.291000938426595,51.04027840002801],[2.289582497464222,51.04123164396497],[2.289044270130487,51.04249386817452],[2.290660765828147,51.04489348376873]],[[2.322123006579605,51.043358875798226],[2.31926945569768,51.04235817131448],[2.316129225458766,51.042922518837166],[2.314541624283793,51.04472136647962],[2.315436768953513,51.04670103047301],[2.318290491755295,51.04770181526044],[2.321430999008116,51.04713741789981],[2.323018428263232,51.045338489953686],[2.322123006579605,51.043358875798226]]]}},{"type":"Feature","properties":{"cluster_id":1,"snapshot_index":3,"estimated_time_utc":"2026-09-24T12:53:00Z","observed_until_utc":"2026-09-24T12:53:00Z","target_time_utc":"2026-09-24T13:26:00Z","arrival_h":11.45,"hours_ago":72.75,"supported_detections_cumulative":27,"sources_cumulative":"MODIS_NRT, VIIRS_NOAA20_NRT, VIIRS_NOAA21_NRT, VIIRS_SNPP_NRT","last_source":"VIIRS_NOAA20_NRT","last_satellite":"N20","last_instrument":"VIIRS","detected_area_km2":4.265928540830383,"product_type":"cumulative_active_fire_detection_extent"},"geometry":{"type":"MultiLineString","coordinates":[[[2.294882602677864,51.02502674260967],[2.292272846971314,51.022203041094336],[2.287861007292523,51.02048850694766],[2.283656263982107,51.02020306202079],[2.278767045833293,51.02128618250644],[2.275846922507112,51.023094487425844],[2.27441558559947,51.02500045099151],[2.270761997794877,51.02515399897174],[2.268478640687071,51.0265675945303],[2.268520498639205,51.028765937836845],[2.266886090147457,51.02967328671183],[2.266165265635125,51.03112308811894],[2.267818400326227,51.0336027336766],[2.26695488456195,51.03556311535243],[2.267670544815882,51.03710186499568],[2.269143860986506,51.03795958620857],[2.271145751672545,51.03829920802275],[2.275023449438904,51.03729071573798],[2.278968204668239,51.03775844017967],[2.282052328913253,51.036810755996456],[2.287304238026152,51.038127491879465],[2.290507056240828,51.03772756537338],[2.291900467695507,51.036759810992294],[2.292405128940186,51.03553616315288],[2.290820965962397,51.03322172366519],[2.290885929320503,51.032342929269916],[2.293434421444919,51.03070487171614],[2.294807066230768,51.028931116628115],[2.295304026042572,51.026982464883936],[2.294882602677864,51.02502674260967]],[[2.299239421835189,51.04633826956915],[2.301060065668876,51.045807853457575],[2.302323350027872,51.0447714408248],[2.303725544624668,51.0402657772713],[2.302527502397768,51.03835082144098],[2.29953272174794,51.03753078368227],[2.296755984243426,51.038139690869095],[2.295219912132608,51.03992385525385],[2.292549494498192,51.03989348167011],[2.290660436464745,51.04043197148842],[2.289044270130487,51.04249386817452],[2.290628059414648,51.04480791935656],[2.290876825183817,51.0468573186433],[2.292744548815996,51.04817993863152],[2.296449879963955,51.04831560535712],[2.29807148871467,51.04757151956906],[2.299239421835189,51.04633826956915]],[[2.321151874113436,51.042794343259864],[2.31794956435072,51.04239185433238],[2.31523365028854,51.04353468869297],[2.314594989132049,51.04555345118923],[2.316407912820133,51.04726560376327],[2.319610523679201,51.04766812893764],[2.32232656277789,51.046525207292106],[2.322964922838031,51.04450640854896],[2.321151874113436,51.042794343259864]]]}},{"type":"Feature","properties":{"cluster_id":1,"snapshot_index":4,"estimated_time_utc":"2026-09-25T01:05:00Z","observed_until_utc":"2026-09-25T01:05:00Z","target_time_utc":"2026-09-25T01:26:00Z","arrival_h":23.65,"hours_ago":60.55,"supported_detections_cumulative":31,"sources_cumulative":"MODIS_NRT, VIIRS_NOAA20_NRT, VIIRS_NOAA21_NRT, VIIRS_SNPP_NRT","last_source":"VIIRS_NOAA20_NRT","last_satellite":"N20","last_instrument":"VIIRS","detected_area_km2":4.56604678902967,"product_type":"cumulative_active_fire_detection_extent"},"geometry":{"type":"MultiLineString","coordinates":[[[2.294542079796878,51.02440263853732],[2.292922345259037,51.02266322149296],[2.290615628529361,51.02132944513759],[2.286849111979584,51.02032027484454],[2.283725719796221,51.02019914827192],[2.280616368533216,51.02067148204821],[2.277922859256678,51.02167623924146],[2.275807648831258,51.02313083125622],[2.27441558559947,51.02500045099151],[2.271630833894258,51.02499329129441],[2.269742114962105,51.0255314784881],[2.268222019543031,51.02706940986417],[2.268520498639205,51.028765937836845],[2.266925375495034,51.0296369460622],[2.266185623459881,51.03090345107621],[2.266461391060492,51.03215578726613],[2.267796851646157,51.033518954327036],[2.266954237012361,51.035607094291414],[2.267875805821286,51.0372797861441],[2.271145751672545,51.03829920802275],[2.275023449438904,51.03729071573798],[2.278968204668239,51.03775844017967],[2.282052328913253,51.036810755996456],[2.287648941186232,51.03816173639656],[2.290789193798222,51.03759809861179],[2.292405128940186,51.03553616315288],[2.290820965962397,51.03322172366519],[2.290885929320503,51.032342929269916],[2.293473688227992,51.03066852279977],[2.295087959187498,51.02824982719316],[2.295265422959652,51.02632289669664],[2.294542079796878,51.02440263853732]],[[2.299975297313672,51.04620203677499],[2.302350617086219,51.044730958720066],[2.303712110697565,51.04000196819108],[2.302222134353375,51.038170265225396],[2.299114297996931,51.03753923846939],[2.296495347239742,51.03828598215683],[2.295237394174001,51.03984969303271],[2.292480955690341,51.03990167502308],[2.290606115238255,51.04045956587545],[2.289397019425174,51.04146827373614],[2.289057626996641,51.042757677764115],[2.290660765828147,51.04489348376873],[2.290755906274816,51.04874873187619],[2.292825699231606,51.050341009322125],[2.295600750704934,51.05061646994877],[2.297805165264012,51.04990402682154],[2.299010035500807,51.048539684858994],[2.299002550532144,51.0463612445279],[2.299975297313672,51.04620203677499]],[[2.320792849512867,51.0426585531695],[2.3172137944066,51.04252819355234],[2.314866275489459,51.043959073780606],[2.312987324293355,51.047528488489114],[2.313691090373013,51.04880314088316],[2.315541013442707,51.04977715708104],[2.318806357382848,51.049811786821856],[2.321154039065706,51.048380846258944],[2.323046572536283,51.04503114038776],[2.322366748170484,51.043573482467906],[2.320792849512867,51.0426585531695]]]}},{"type":"Feature","properties":{"cluster_id":1,"snapshot_index":5,"estimated_time_utc":"2026-09-25T04:21:00Z","observed_until_utc":"2026-09-25T04:21:00Z","target_time_utc":"2026-09-25T07:26:00Z","arrival_h":26.916666666666668,"hours_ago":57.28333333333333,"supported_detections_cumulative":61,"sources_cumulative":"MODIS_NRT, VIIRS_NOAA20_NRT, VIIRS_NOAA21_NRT, VIIRS_SNPP_NRT","last_source":"MODIS_NRT","last_satellite":"Aqua","last_instrument":"MODIS","detected_area_km2":6.401608230437407,"product_type":"cumulative_active_fire_detection_extent"},"geometry":{"type":"MultiLineString","coordinates":[[[2.291506105391717,51.02175384593885],[2.286849111979584,51.02032027484454],[2.281670610754055,51.02044037243735],[2.277143342127478,51.02211660004373],[2.27441558559947,51.02500045099151],[2.271562312154761,51.025001473395875],[2.26937737982954,51.02573611293416],[2.268207780212278,51.02711246483846],[2.268520498639205,51.028765937836845],[2.266925375495034,51.0296369460622],[2.266185623459881,51.03090345107621],[2.266461391060492,51.03215578726613],[2.267796851646157,51.033518954327036],[2.266968122519593,51.03582693023236],[2.268200357449757,51.03750980580157],[2.27121550649896,51.03829961395598],[2.275023449438904,51.03729071573798],[2.278968204668239,51.03775844017967],[2.281918010791145,51.03681637823611],[2.287718298388278,51.03816644191025],[2.291153927811014,51.037393405704805],[2.292384884890254,51.03575580280909],[2.291812942794766,51.03186831170086],[2.294442463364442,51.02954978991174],[2.295304026042572,51.026982464883936],[2.294515968793607,51.02436185606387],[2.291506105391717,51.02175384593885]],[[2.29058716977743,51.04818772779288],[2.291252129717443,51.04942571888422],[2.292825699231606,51.050341009322125],[2.294767009445947,51.050659168324124],[2.296612503240442,51.050414075073654],[2.300052130536632,51.05187897843356],[2.304061088727139,51.05240484835696],[2.307163817650879,51.05213883074101],[2.310010346543225,51.051316517534836],[2.313657529690211,51.04877087751055],[2.315605242258448,51.049794338984206],[2.318352126158809,51.04990528692197],[2.319748083022813,51.051360145305416],[2.322090029604082,51.05198649775321],[2.325476320128608,51.0512433675616],[2.326776344631145,51.049354991586256],[2.326443585050168,51.04780023761363],[2.325381419625526,51.04660621302047],[2.32530333136555,51.04449027061661],[2.323649448854996,51.04305904440954],[2.31794956435072,51.04239185433238],[2.315814310227279,51.04309645451113],[2.314649790114976,51.044364474282006],[2.313131121574632,51.04201108230768],[2.311003136673869,51.040504733000176],[2.3083268389353,51.03948082293064],[2.302443872666944,51.03829924152644],[2.299830192337786,51.03661948356593],[2.297472830989339,51.03614077885959],[2.295453623310585,51.03643665749131],[2.293894005957928,51.037297719842286],[2.293162284860909,51.03852063998627],[2.2933679171702,51.0398507118913],[2.289320584075784,51.0400442999029],[2.28688926302385,51.04170514857093],[2.286872634908096,51.04332011415555],[2.286064345548892,51.04464413077023],[2.286340689394029,51.045896395431555],[2.287936639986,51.04714506491109],[2.290618736283487,51.04759167824188],[2.29058716977743,51.04818772779288]]]}},{"type":"Feature","properties":{"cluster_id":1,"snapshot_index":6,"estimated_time_utc":"2026-09-25T13:21:00Z","observed_until_utc":"2026-09-25T13:21:00Z","target_time_utc":"2026-09-25T13:26:00Z","arrival_h":35.916666666666664,"hours_ago":48.28333333333333,"supported_detections_cumulative":73,"sources_cumulative":"MODIS_NRT, VIIRS_NOAA20_NRT, VIIRS_NOAA21_NRT, VIIRS_SNPP_NRT","last_source":"VIIRS_NOAA21_NRT","last_satellite":"N21","last_instrument":"VIIRS","detected_area_km2":6.63341458758836,"product_type":"cumulative_active_fire_detection_extent"},"geometry":{"type":"MultiLineString","coordinates":[[[2.274216136992971,51.02394612941814],[2.270635300934606,51.024036224158365],[2.268500018511266,51.02564649930649],[2.268139096245836,51.02785901080622],[2.266165265635125,51.03112308811894],[2.267796851646157,51.033518954327036],[2.266954237012361,51.035607094291414],[2.267875805821286,51.0372797861441],[2.271145751672545,51.03829920802275],[2.275023449438904,51.03729071573798],[2.278968204668239,51.03775844017967],[2.282052328913253,51.036810755996456],[2.287648941186232,51.03816173639656],[2.290789193798222,51.03759809861179],[2.292377425969675,51.035799531461294],[2.291812942794766,51.03186831170086],[2.294016869238317,51.030104345000524],[2.295247383403459,51.027597513145956],[2.294882602677864,51.02502674260967],[2.292966100793515,51.02269746831753],[2.28884189448548,51.02071847795342],[2.283656263982107,51.02020306202079],[2.278825378921776,51.02126208252488],[2.276480733177574,51.02256928390571],[2.274896900339883,51.0241734774593],[2.274216136992971,51.02394612941814]],[[2.300812292576703,51.03625247685667],[2.29817780394164,51.034719898373126],[2.294561020664523,51.035018446502264],[2.292632420090785,51.03697062128339],[2.2933679171702,51.0398507118913],[2.289320584075784,51.0400442999029],[2.287009793305971,51.04149867897607],[2.286064345548892,51.04464413077023],[2.286340689394029,51.045896395431555],[2.287936639986,51.04714506491109],[2.290618736283487,51.04759167824188],[2.290755906274816,51.04874873187619],[2.291820509264042,51.049870337364354],[2.294004383508887,51.05060748352058],[2.296612503240442,51.050414075073654],[2.299987904400842,51.05186178861428],[2.30308529445655,51.052369194054336],[2.306213632138465,51.05228326832814],[2.309167628598671,51.051628603769124],[2.311692805723301,51.05046159870263],[2.313657529690211,51.04877087751055],[2.315886808366313,51.050081381015545],[2.318585377209607,51.0503630671955],[2.321203064335165,51.05187029538236],[2.323340792815193,51.0519480859815],[2.325526078803243,51.051212535973924],[2.326776939501367,51.04931101332512],[2.325520785165919,51.04676547505961],[2.32672616163228,51.044617384736654],[2.325498017325712,51.04297890848778],[2.322969255631599,51.04220815621349],[2.31794956435072,51.04239185433238],[2.315814310227279,51.04309645451113],[2.314649790114976,51.044364474282006],[2.313626212774611,51.042542237070485],[2.311774984532024,51.04095062260671],[2.308391051976979,51.03949800881794],[2.302443872666944,51.03829924152644],[2.301347475103558,51.03781037837065],[2.300812292576703,51.03625247685667]]]}},{"type":"Feature","properties":{"cluster_id":1,"snapshot_index":7,"estimated_time_utc":"2026-09-25T13:55:00Z","observed_until_utc":"2026-09-25T13:55:00Z","target_time_utc":"2026-09-25T19:26:00Z","arrival_h":36.483333333333334,"hours_ago":47.71666666666667,"supported_detections_cumulative":75,"sources_cumulative":"MODIS_NRT, VIIRS_NOAA20_NRT, VIIRS_NOAA21_NRT, VIIRS_SNPP_NRT","last_source":"VIIRS_SNPP_NRT","last_satellite":"N","last_instrument":"VIIRS","detected_area_km2":6.633414587588354,"product_type":"cumulative_active_fire_detection_extent"},"geometry":{"type":"MultiLineString","coordinates":[[[2.273822221953964,51.023856953784865],[2.27134623503554,51.02385533594551],[2.269075642890706,51.02489699456247],[2.268139096245836,51.02785901080622],[2.266349663953361,51.030386435211625],[2.266327276744152,51.031905753001254],[2.267818400326227,51.0336027336766],[2.266954237012361,51.035607094291414],[2.267875805821286,51.0372797861441],[2.271145751672545,51.03829920802275],[2.275023449438904,51.03729071573798],[2.278968204668239,51.03775844017967],[2.282052328913253,51.036810755996456],[2.287648941186232,51.03816173639656],[2.290789193798222,51.03759809861179],[2.292377425969675,51.035799531461294],[2.291812942794766,51.03186831170086],[2.294016869238317,51.030104345000524],[2.295247383403459,51.027597513145956],[2.294882602677864,51.02502674260967],[2.292966100793515,51.02269746831753],[2.28884189448548,51.02071847795342],[2.283656263982107,51.02020306202079],[2.278825378921776,51.02126208252488],[2.276480733177574,51.02256928390571],[2.274896900339883,51.0241734774593],[2.273822221953964,51.023856953784865]],[[2.300633563821171,51.03601379521694],[2.297773529670655,51.03465140424372],[2.294561020664523,51.035018446502264],[2.292632420090785,51.03697062128339],[2.2933679171702,51.0398507118913],[2.289320584075784,51.0400442999029],[2.287009793305971,51.04149867897607],[2.286064345548892,51.04464413077023],[2.286340689394029,51.045896395431555],[2.287936639986,51.04714506491109],[2.290618736283487,51.04759167824188],[2.290755906274816,51.04874873187619],[2.291820509264042,51.049870337364354],[2.294004383508887,51.05060748352058],[2.296612503240442,51.050414075073654],[2.299987904400842,51.05186178861428],[2.30308529445655,51.052369194054336],[2.306213632138465,51.05228326832814],[2.309167628598671,51.051628603769124],[2.311692805723301,51.05046159870263],[2.313657529690211,51.04877087751055],[2.315886808366313,51.050081381015545],[2.318585377209607,51.0503630671955],[2.321203064335165,51.05187029538236],[2.323340792815193,51.0519480859815],[2.325526078803243,51.051212535973924],[2.326776939501367,51.04931101332512],[2.325520785165919,51.04676547505961],[2.32672616163228,51.044617384736654],[2.325498017325712,51.04297890848778],[2.322969255631599,51.04220815621349],[2.31794956435072,51.04239185433238],[2.315814310227279,51.04309645451113],[2.314649790114976,51.044364474282006],[2.313626212774611,51.042542237070485],[2.311774984532024,51.04095062260671],[2.308391051976979,51.03949800881794],[2.302443872666944,51.03829924152644],[2.301347475103558,51.03781037837065],[2.300633563821171,51.03601379521694]]]}},{"type":"Feature","properties":{"cluster_id":1,"snapshot_index":8,"estimated_time_utc":"2026-09-26T00:48:00Z","observed_until_utc":"2026-09-26T00:48:00Z","target_time_utc":"2026-09-26T01:26:00Z","arrival_h":47.36666666666667,"hours_ago":36.833333333333336,"supported_detections_cumulative":76,"sources_cumulative":"MODIS_NRT, VIIRS_NOAA20_NRT, VIIRS_NOAA21_NRT, VIIRS_SNPP_NRT","last_source":"VIIRS_NOAA20_NRT","last_satellite":"N20","last_instrument":"VIIRS","detected_area_km2":6.6978159823970875,"product_type":"cumulative_active_fire_detection_extent"},"geometry":{"type":"MultiLineString","coordinates":[[[2.273484614907006,51.023801533753684],[2.271016700719775,51.02392754141927],[2.269075642890706,51.02489699456247],[2.268139096245836,51.02785901080622],[2.266349663953361,51.030386435211625],[2.266327276744152,51.031905753001254],[2.267818400326227,51.0336027336766],[2.266954237012361,51.035607094291414],[2.267875805821286,51.0372797861441],[2.271145751672545,51.03829920802275],[2.274360733208793,51.03745177366422],[2.275816507779167,51.038504866365074],[2.278116127194993,51.03895920928686],[2.280838813957933,51.03837830642658],[2.282362440015898,51.03682943252413],[2.287648941186232,51.03816173639656],[2.290789193798222,51.03759809861179],[2.292377425969675,51.035799531461294],[2.291812942794766,51.03186831170086],[2.294016869238317,51.030104345000524],[2.295247383403459,51.027597513145956],[2.294882602677864,51.02502674260967],[2.292966100793515,51.02269746831753],[2.28884189448548,51.02071847795342],[2.283656263982107,51.02020306202079],[2.278767045833293,51.02128618250644],[2.276480733177574,51.02256928390571],[2.274896900339883,51.0241734774593],[2.273484614907006,51.023801533753684]],[[2.300418592645194,51.03578730797923],[2.297705240997169,51.034642440707316],[2.294502679076566,51.03504255328218],[2.292632420090785,51.03697062128339],[2.2933679171702,51.0398507118913],[2.289320584075784,51.0400442999029],[2.287009793305971,51.04149867897607],[2.286064345548892,51.04464413077023],[2.286340689394029,51.045896395431555],[2.287936639986,51.04714506491109],[2.290618736283487,51.04759167824188],[2.290755906274816,51.04874873187619],[2.291820509264042,51.049870337364354],[2.294004383508887,51.05060748352058],[2.296612503240442,51.050414075073654],[2.299987904400842,51.05186178861428],[2.30308529445655,51.052369194054336],[2.306213632138465,51.05228326832814],[2.309167628598671,51.051628603769124],[2.311692805723301,51.05046159870263],[2.313657529690211,51.04877087751055],[2.315886808366313,51.050081381015545],[2.318585377209607,51.0503630671955],[2.321203064335165,51.05187029538236],[2.323340792815193,51.0519480859815],[2.325526078803243,51.051212535973924],[2.326776939501367,51.04931101332512],[2.325520785165919,51.04676547505961],[2.32672616163228,51.044617384736654],[2.325498017325712,51.04297890848778],[2.322969255631599,51.04220815621349],[2.31794956435072,51.04239185433238],[2.315814310227279,51.04309645451113],[2.314649790114976,51.044364474282006],[2.313626212774611,51.042542237070485],[2.311774984532024,51.04095062260671],[2.308391051976979,51.03949800881794],[2.304986789221807,51.038979484598336],[2.301347475103558,51.03781037837065],[2.300418592645194,51.03578730797923]]]}},{"type":"Feature","properties":{"cluster_id":1,"snapshot_index":9,"estimated_time_utc":"2026-09-26T03:10:00Z","observed_until_utc":"2026-09-26T03:10:00Z","target_time_utc":"2026-09-26T07:26:00Z","arrival_h":49.733333333333334,"hours_ago":34.46666666666667,"supported_detections_cumulative":97,"sources_cumulative":"MODIS_NRT, VIIRS_NOAA20_NRT, VIIRS_NOAA21_NRT, VIIRS_SNPP_NRT","last_source":"VIIRS_NOAA21_NRT","last_satellite":"N21","last_instrument":"VIIRS","detected_area_km2":6.966493924386238,"product_type":"cumulative_active_fire_detection_extent"},"geometry":{"type":"LineString","coordinates":[[2.282816317027471,51.037130185463866],[2.284459877734056,51.03792678247568],[2.288248323324102,51.038586441885016],[2.29264492854702,51.03763501341025],[2.289562825401378,51.03982102424414],[2.286689127030165,51.04075825513776],[2.285673645588795,51.04249773194724],[2.28654550096927,51.046175876375706],[2.292825699231606,51.050341009322125],[2.294767009445947,51.050659168324124],[2.296612503240442,51.050414075073654],[2.300052130536632,51.05187897843356],[2.304061088727139,51.05240484835696],[2.307163817650879,51.05213883074101],[2.310010346543225,51.051316517534836],[2.313657529690211,51.04877087751055],[2.315527745566425,51.04994557743023],[2.318585377209607,51.0503630671955],[2.319801637372132,51.05138833756868],[2.321607510698347,51.051938711974444],[2.32445818108056,51.051702872201616],[2.326272388337195,51.05057875055425],[2.326762786076575,51.04909118885622],[2.325932556921293,51.0464572592687],[2.326732407722852,51.044661188317235],[2.325779076121739,51.04317454243968],[2.323786686459488,51.04231966242247],[2.320957950995807,51.04206366359481],[2.316770544539806,51.042657409563425],[2.314649790114976,51.044364474282006],[2.313131121574632,51.04201108230768],[2.311003136673869,51.040504733000176],[2.301347475103558,51.03781037837065],[2.300456830711695,51.035824091730575],[2.298331611235666,51.03475557347103],[2.296059376328334,51.03234529559607],[2.294459578668555,51.031583089475994],[2.292604234346963,51.031364394986085],[2.294442463364442,51.02954978991174],[2.29523992821872,51.0276412425423],[2.295124494793574,51.02566888989576],[2.294073885895249,51.02376361525265],[2.29067325989564,51.02135420766978],[2.285815950114966,51.020215401229805],[2.282620259867101,51.020296113610655],[2.279667773104865,51.02095018517384],[2.277143342127478,51.02211660004373],[2.274896900339883,51.0241734774593],[2.272235840756446,51.023749104973284],[2.269877856117859,51.024349064519384],[2.268520880336168,51.025604531674524],[2.268139096245836,51.02785901080622],[2.26619310464912,51.03085972364196],[2.266461391060492,51.03215578726613],[2.267818400326227,51.0336027336766],[2.267116922532542,51.03634577362209],[2.269143860986506,51.03795958620857],[2.27197930615885,51.03825666600699],[2.274360733208793,51.03745177366422],[2.276114162423075,51.03861969924997],[2.278604048804889,51.03894691388374],[2.281153821511856,51.03820445738291],[2.282362440015898,51.03682943252413],[2.282816317027471,51.037130185463866]]}},{"type":"Feature","properties":{"cluster_id":1,"snapshot_index":10,"estimated_time_utc":"2026-09-26T09:09:00Z","observed_until_utc":"2026-09-26T09:09:00Z","target_time_utc":"2026-09-26T13:26:00Z","arrival_h":55.71666666666667,"hours_ago":28.483333333333334,"supported_detections_cumulative":98,"sources_cumulative":"MODIS_NRT, VIIRS_NOAA20_NRT, VIIRS_NOAA21_NRT, VIIRS_SNPP_NRT","last_source":"MODIS_NRT","last_satellite":"Terra","last_instrument":"MODIS","detected_area_km2":7.677541298685759,"product_type":"cumulative_active_fire_detection_extent"},"geometry":{"type":"LineString","coordinates":[[2.282860078324605,51.0371644350235],[2.284524080528907,51.03794398064163],[2.288248323324102,51.038586441885016],[2.29264492854702,51.03763501341025],[2.289562825401378,51.03982102424414],[2.286689127030165,51.04075825513776],[2.285673645588795,51.04249773194724],[2.28654550096927,51.046175876375706],[2.292825699231606,51.050341009322125],[2.294767009445947,51.050659168324124],[2.296612503240442,51.050414075073654],[2.300052130536632,51.05187897843356],[2.304061088727139,51.05240484835696],[2.309105805799237,51.051648995510675],[2.313005629518114,51.04946820406325],[2.318585377209607,51.0503630671955],[2.320080195397376,51.05152091118843],[2.322020649899833,51.05198181137895],[2.324519997655784,51.051682472886014],[2.326272388337195,51.05057875055425],[2.326776939501367,51.04931101332512],[2.326237162357232,51.047321596824354],[2.327751779305346,51.04542838775007],[2.32824820763165,51.04343567849104],[2.327483708243037,51.040900099996065],[2.32586228613556,51.03916115539476],[2.322658900002363,51.03748571363821],[2.318682558956198,51.036710581497225],[2.315555221365045,51.03679682075733],[2.312663992701304,51.03743125766715],[2.308765096962807,51.03961208082271],[2.301347475103558,51.03781037837065],[2.300456830711695,51.035824091730575],[2.298331611235666,51.03475557347103],[2.296059376328334,51.03234529559607],[2.294459578668555,51.031583089475994],[2.292604234346963,51.031364394986085],[2.294442463364442,51.02954978991174],[2.29523992821872,51.0276412425423],[2.295124494793574,51.02566888989576],[2.294073885895249,51.02376361525265],[2.29067325989564,51.02135420766978],[2.285815950114966,51.020215401229805],[2.282620259867101,51.020296113610655],[2.279667773104865,51.02095018517384],[2.277143342127478,51.02211660004373],[2.274896900339883,51.0241734774593],[2.272235840756446,51.023749104973284],[2.269877856117859,51.024349064519384],[2.268520880336168,51.025604531674524],[2.268139096245836,51.02785901080622],[2.26619310464912,51.03085972364196],[2.266461391060492,51.03215578726613],[2.267818400326227,51.0336027336766],[2.267116922532542,51.03634577362209],[2.269143860986506,51.03795958620857],[2.27197930615885,51.03825666600699],[2.274360733208793,51.03745177366422],[2.276114162423075,51.03861969924997],[2.278604048804889,51.03894691388374],[2.281153821511856,51.03820445738291],[2.282362440015898,51.03682943252413],[2.282860078324605,51.0371644350235]]}},{"type":"Feature","properties":{"cluster_id":1,"snapshot_index":11,"estimated_time_utc":"2026-09-27T01:13:00Z","observed_until_utc":"2026-09-27T01:13:00Z","target_time_utc":"2026-09-27T01:26:00Z","arrival_h":71.78333333333333,"hours_ago":12.416666666666666,"supported_detections_cumulative":99,"sources_cumulative":"MODIS_NRT, VIIRS_NOAA20_NRT, VIIRS_NOAA21_NRT, VIIRS_SNPP_NRT","last_source":"VIIRS_NOAA21_NRT","last_satellite":"N21","last_instrument":"VIIRS","detected_area_km2":7.677541298685748,"product_type":"cumulative_active_fire_detection_extent"},"geometry":{"type":"LineString","coordinates":[[2.283092061278396,51.03732878634098],[2.288596693836809,51.03859921700373],[2.29264492854702,51.03763501341025],[2.289562825401378,51.03982102424414],[2.286689127030165,51.04075825513776],[2.285673645588795,51.04249773194724],[2.286722217813016,51.046365596326154],[2.293139880614825,51.05043685054576],[2.296612503240442,51.050414075073654],[2.300052130536632,51.05187897843356],[2.304130863585893,51.05240523594886],[2.309167628598671,51.051628603769124],[2.313005629518114,51.04946820406325],[2.318585377209607,51.0503630671955],[2.320080195397376,51.05152091118843],[2.322020649899833,51.05198181137895],[2.324519997655784,51.051682472886014],[2.326424309718391,51.050380678134225],[2.326237162357232,51.047321596824354],[2.327751779305346,51.04542838775007],[2.32824820763165,51.04343567849104],[2.327483708243037,51.040900099996065],[2.32586228613556,51.03916115539476],[2.322658900002363,51.03748571363821],[2.318682558956198,51.036710581497225],[2.315555221365045,51.03679682075733],[2.312663992701304,51.03743125766715],[2.308765096962807,51.03961208082271],[2.301347475103558,51.03781037837065],[2.300456830711695,51.035824091730575],[2.298331611235666,51.03475557347103],[2.296059376328334,51.03234529559607],[2.294459578668555,51.031583089475994],[2.292604234346963,51.031364394986085],[2.294442463364442,51.02954978991174],[2.29523992821872,51.0276412425423],[2.295124494793574,51.02566888989576],[2.294073885895249,51.02376361525265],[2.290615628529361,51.02132944513759],[2.285746618092081,51.02021069452683],[2.282620259867101,51.020296113610655],[2.279667773104865,51.02095018517384],[2.277143342127478,51.02211660004373],[2.274896900339883,51.0241734774593],[2.272235840756446,51.023749104973284],[2.269877856117859,51.024349064519384],[2.268520880336168,51.025604531674524],[2.268139096245836,51.02785901080622],[2.266185623459881,51.03090345107621],[2.266461391060492,51.03215578726613],[2.267818400326227,51.0336027336766],[2.267116922532542,51.03634577362209],[2.269143860986506,51.03795958620857],[2.27197930615885,51.03825666600699],[2.274360733208793,51.03745177366422],[2.276114162423075,51.03861969924997],[2.278534566432363,51.03895082467331],[2.280893138326929,51.038350716183444],[2.282362440015898,51.03682943252413],[2.283092061278396,51.03732878634098]]}},{"type":"Feature","properties":{"cluster_id":1,"snapshot_index":12,"estimated_time_utc":"2026-09-27T03:30:00Z","observed_until_utc":"2026-09-27T03:30:00Z","target_time_utc":"2026-09-27T07:26:00Z","arrival_h":74.06666666666666,"hours_ago":10.133333333333333,"supported_detections_cumulative":128,"sources_cumulative":"MODIS_NRT, VIIRS_NOAA20_NRT, VIIRS_NOAA21_NRT, VIIRS_SNPP_NRT","last_source":"VIIRS_SNPP_NRT","last_satellite":"N","last_instrument":"VIIRS","detected_area_km2":8.600476015278314,"product_type":"cumulative_active_fire_detection_extent"},"geometry":{"type":"MultiLineString","coordinates":[[[2.271624894304767,51.01347360072941],[2.269138703582807,51.01214010897468],[2.265885987165076,51.01230610534766],[2.263771914974883,51.013874362166],[2.264034918825201,51.01592628180931],[2.266521161892741,51.017259866840284],[2.269774199704958,51.01709385527538],[2.271888219549571,51.01552550518078],[2.271624894304767,51.01347360072941]],[[2.259369556315308,51.03204846233732],[2.256312721085699,51.03086836874907],[2.253087727997368,51.03147579723071],[2.249587544224043,51.03136730387523],[2.247238608920368,51.032796941823925],[2.247180794246649,51.03485517192802],[2.248439499464559,51.03594684563402],[2.250312305706741,51.03650725161348],[2.25388232305569,51.03593423709503],[2.257382837251091,51.0360426096043],[2.259900428755679,51.03432390391029],[2.259369556315308,51.03204846233732]],[[2.284524080528907,51.03794398064163],[2.287011005741401,51.03880894807535],[2.285272696108422,51.04009151330058],[2.284734371824475,51.041353721307196],[2.28624807651826,51.04384360549531],[2.286366804995408,51.04593717819623],[2.293139880614825,51.05043685054576],[2.296612503240442,51.050414075073654],[2.300052130536632,51.05187897843356],[2.304130863585893,51.05240523594886],[2.309167628598671,51.051628603769124],[2.313005629518114,51.04946820406325],[2.318585377209607,51.0503630671955],[2.320080195397376,51.05152091118843],[2.322020649899833,51.05198181137895],[2.324519997655784,51.051682472886014],[2.326424309718391,51.050380678134225],[2.326237162357232,51.047321596824354],[2.327751779305346,51.04542838775007],[2.32824820763165,51.04343567849104],[2.327483708243037,51.040900099996065],[2.32586228613556,51.03916115539476],[2.321779196804034,51.037217537116746],[2.317707061839387,51.03667504018143],[2.312663992701304,51.03743125766715],[2.308765096962807,51.03961208082271],[2.305402037583375,51.038999215914586],[2.305534528577097,51.03763698511225],[2.304368416727794,51.036259397089104],[2.302253309108972,51.03553137565103],[2.300169747843358,51.03557542945893],[2.298331611235666,51.03475557347103],[2.297686753221861,51.03362416591102],[2.295522067886869,51.03200039263819],[2.292604234346963,51.031364394986085],[2.294442463364442,51.02954978991174],[2.295247383403459,51.027597513145956],[2.294882602677864,51.02502674260967],[2.293540966630181,51.02319558057873],[2.289721128805043,51.02098689292765],[2.284701738203244,51.02017449732901],[2.281603699241617,51.02045275629006],[2.278825378921776,51.02126208252488],[2.276480733177574,51.02256928390571],[2.274896900339883,51.0241734774593],[2.272166379088848,51.0237530123254],[2.269617212347414,51.02449530310667],[2.268520880336168,51.025604531674524],[2.268139096245836,51.02785901080622],[2.266164617445837,51.031167067367946],[2.267818400326227,51.0336027336766],[2.267116922532542,51.03634577362209],[2.269143860986506,51.03795958620857],[2.27197930615885,51.03825666600699],[2.274360733208793,51.03745177366422],[2.276114162423075,51.03861969924997],[2.278604048804889,51.03894691388374],[2.281153821511856,51.03820445738291],[2.282362440015898,51.03682943252413],[2.284524080528907,51.03794398064163]],[[2.292746656754447,51.03796296011953],[2.292690010069118,51.03797156695164],[2.292718527008001,51.037889366376085],[2.292746656754447,51.03796296011953]]]}},{"type":"Feature","properties":{"cluster_id":1,"snapshot_index":13,"estimated_time_utc":"2026-09-27T13:18:00Z","observed_until_utc":"2026-09-27T13:18:00Z","target_time_utc":"2026-09-27T13:26:00Z","arrival_h":83.86666666666666,"hours_ago":0.3333333333333333,"supported_detections_cumulative":134,"sources_cumulative":"MODIS_NRT, VIIRS_NOAA20_NRT, VIIRS_NOAA21_NRT, VIIRS_SNPP_NRT","last_source":"VIIRS_SNPP_NRT","last_satellite":"N","last_instrument":"VIIRS","detected_area_km2":8.721918271808345,"product_type":"cumulative_active_fire_detection_extent"},"geometry":{"type":"MultiLineString","coordinates":[[[2.27089711752792,51.01283151967529],[2.267904392164398,51.012010692018386],[2.264868094559854,51.012765154313186],[2.263566678284863,51.014652998351906],[2.264762652357545,51.01656839957404],[2.267755599802035,51.01738929634714],[2.270792135554683,51.01663476959921],[2.272093329748706,51.0147468564443],[2.27089711752792,51.01283151967529]],[[2.258530061647144,51.031462986595955],[2.25582532469826,51.03085036604731],[2.253087727997368,51.03147579723071],[2.251155576996904,51.03118036767821],[2.249206040690993,51.03147592003344],[2.24709062925445,51.033043846848734],[2.247353046886885,51.03509573833069],[2.24871778094795,51.03607958117906],[2.250656972166801,51.03654159802913],[2.25388232305569,51.03593423709503],[2.255814674726425,51.036229622313925],[2.257764357936769,51.03593396933368],[2.259324557268527,51.03507335510859],[2.260057058769829,51.03385062598598],[2.259788929934758,51.03255455217845],[2.258530061647144,51.031462986595955]],[[2.269694820396816,51.02410156240511],[2.266424442415352,51.024491984684296],[2.264553492644172,51.02641966594478],[2.265026328464413,51.02799526663178],[2.267025952412879,51.029177227262174],[2.266164617445837,51.031167067367946],[2.267818400326227,51.0336027336766],[2.266975240718818,51.0353434797502],[2.267455718917653,51.03687532159269],[2.269977350296145,51.03818297176726],[2.272387112087049,51.038196995206],[2.274360733208793,51.03745177366422],[2.275816507779167,51.038504866365074],[2.278185883002743,51.03895961133743],[2.280893138326929,51.038350716183444],[2.282362440015898,51.03682943252413],[2.287011005741401,51.03880894807535],[2.284754651905502,51.041134084868816],[2.28624807651826,51.04384360549531],[2.286206438205005,51.04564638799792],[2.29213055503416,51.05004774371906],[2.294349177711056,51.0506417089079],[2.296612503240442,51.050414075073654],[2.300052130536632,51.05187897843356],[2.304061088727139,51.05240484835696],[2.309105805799237,51.051648995510675],[2.313005629518114,51.04946820406325],[2.318585377209607,51.0503630671955],[2.319801637372132,51.05138833756868],[2.321675827405415,51.0519476622271],[2.324076685231455,51.05181171284282],[2.325807408860222,51.05101703359159],[2.326756246637084,51.04957463188539],[2.326237162357232,51.047321596824354],[2.327751779305346,51.04542838775007],[2.32824820763165,51.04343567849104],[2.327805075023988,51.041481904074146],[2.32590607882599,51.03919538979615],[2.322658900002363,51.03748571363821],[2.317707061839387,51.03667504018143],[2.312663992701304,51.03743125766715],[2.308765096962807,51.03961208082271],[2.305402037583375,51.038999215914586],[2.305534528577097,51.03763698511225],[2.304368416727794,51.036259397089104],[2.302253309108972,51.03553137565103],[2.300169747843358,51.03557542945893],[2.298331611235666,51.03475557347103],[2.297686753221861,51.03362416591102],[2.295522067886869,51.03200039263819],[2.292604234346963,51.031364394986085],[2.294807066230768,51.028931116628115],[2.295265422959652,51.02632289669664],[2.294073885895249,51.02376361525265],[2.291452598932434,51.02172564023589],[2.286849111979584,51.02032027484454],[2.282688773315172,51.02028792539577],[2.277977167022229,51.02164864952228],[2.274896900339883,51.0241734774593],[2.272654153179162,51.02374073980128],[2.269694820396816,51.02410156240511]],[[2.292746656754447,51.03796296011953],[2.292690010069118,51.03797156695164],[2.292718527008001,51.037889366376085],[2.292746656754447,51.03796296011953]]]}},{"type":"Feature","properties":{"cluster_id":1,"snapshot_index":14,"estimated_time_utc":"2026-09-27T13:38:00Z","observed_until_utc":"2026-09-27T13:38:00Z","target_time_utc":"2026-09-27T13:38:00Z","arrival_h":84.2,"hours_ago":0.0,"supported_detections_cumulative":135,"sources_cumulative":"MODIS_NRT, VIIRS_NOAA20_NRT, VIIRS_NOAA21_NRT, VIIRS_SNPP_NRT","last_source":"VIIRS_NOAA20_NRT","last_satellite":"N20","last_instrument":"VIIRS","detected_area_km2":13.104741674202522,"product_type":"cumulative_active_fire_detection_extent"},"geometry":{"type":"MultiLineString","coordinates":[[[2.263647003032855,51.01522177430819],[2.263289616703145,51.01813681147959],[2.263976762045952,51.02033570154884],[2.26340557224464,51.02358621092902],[2.259776362346031,51.02485124836264],[2.258885956912127,51.027081605302605],[2.259726140342063,51.028229592813],[2.2612221633126,51.02898163339402],[2.261197316311826,51.030505586582],[2.262825930139051,51.03252519128401],[2.264744759234698,51.033682460921945],[2.265184741641578,51.03625163777868],[2.266487471747642,51.03804627112783],[2.268614004255435,51.03955338248948],[2.271924641856848,51.040725597122304],[2.27336667438142,51.04232915225349],[2.276585520107421,51.042953262987155],[2.278741637329934,51.04418011856627],[2.282027069133095,51.045110324036536],[2.284603934699379,51.04786679831876],[2.289796326478113,51.049739684054195],[2.290759405386106,51.05139460406053],[2.293156001187374,51.05231850523218],[2.295508525855139,51.05221765629039],[2.300560614087169,51.05306483758432],[2.304978257390701,51.05249185576202],[2.307861099867597,51.05314881317551],[2.310918301868946,51.05326037511877],[2.317323461951972,51.05176561747029],[2.322396514156905,51.05218671155364],[2.325987157987783,51.051874031750735],[2.328002762429103,51.05104073279346],[2.328934682260375,51.049825627644],[2.329597998902793,51.04592939487122],[2.328145438370483,51.04429295014523],[2.327457561602781,51.04085932547806],[2.324444975384711,51.03825217663967],[2.321714982083019,51.03720035803066],[2.317707061839387,51.03667504018143],[2.314538427526883,51.03695372668923],[2.311663071535167,51.037805468164485],[2.309956868877442,51.035866427591465],[2.307863220705381,51.034618880262215],[2.306834790957919,51.032782699333964],[2.305033025873257,51.03122233137224],[2.302480533876258,51.0300064609026],[2.299128590231024,51.02929038841026],[2.297429403604887,51.02600210861967],[2.292223980667353,51.022171663779524],[2.289007388516832,51.020769001109834],[2.286176194293253,51.01840411056978],[2.283512273375787,51.017368623603424],[2.279442178589912,51.016824865177085],[2.275649415794453,51.01723962407592],[2.27449601735168,51.013994784296145],[2.271607391385376,51.01279870111298],[2.269485191757097,51.01092034938859],[2.263614620331133,51.009710684664505],[2.260292014751302,51.010657485806775],[2.259304744143179,51.01208948119483],[2.259744988457912,51.01362615626787],[2.261166987938641,51.01463467436436],[2.263647003032855,51.01522177430819]],[[2.2557230767193,51.029501387826045],[2.250865592440815,51.02921035917007],[2.248495002749086,51.029661664592375],[2.246948769923475,51.03082692936845],[2.24566440379761,51.033676369103055],[2.246341847006629,51.0351344658769],[2.249519451418241,51.037656863292],[2.255884678244034,51.03869961162306],[2.259139485158892,51.03775255745746],[2.261279614727631,51.03581073227524],[2.261785670993253,51.03454322706468],[2.25989422876406,51.03047050249773],[2.2578597418291,51.02958029858003],[2.2557230767193,51.029501387826045]]]}}],"metadata":{"generated_at_utc":"2026-09-28T01:58:16.128509Z","product_type":"cumulative_active_fire_detection_extent","product_label":"Emprises cumulées des détections actives FIRMS","not_a_burn_perimeter":true,"not_a_continuous_fire_front":true,"not_an_arrival_time_interpolation":true,"snapshot_step_hours":6,"confidence_filter":{"VIIRS":["nominal","high"],"MODIS_minimum":30},"footprint_radius_m":{"VIIRS":300.0,"MODIS":750.0},"same_pass_neighbour_m":2000.0,"continuity_distance_m":3000.0,"clusters":[{"cluster_id":1,"first_supported_detection_utc":"2026-09-24T01:26:00Z","last_supported_detection_utc":"2026-09-27T13:38:00Z","pass_states":33,"published_snapshots":14,"final_detected_area_km2":8.721918271808327}]},"bbox":[2.2456644037976097,51.009710684664505,2.3295979989027926,51.05326037511877]}