{"type":"FeatureCollection","name":"detection_envelopes","crs":{"type":"name","properties":{"name":"urn:ogc:def:crs:OGC:1.3:CRS84"}},"features":[{"type":"Feature","properties":{"cluster_id":1,"snapshot_index":1,"estimated_time_utc":"2026-08-08T00:45:00Z","observed_until_utc":"2026-08-08T00:45:00Z","target_time_utc":"2026-08-08T00:45:00Z","arrival_h":0.0,"hours_ago":72.15,"supported_detections_cumulative":2,"sources_cumulative":"VIIRS_SNPP_NRT","last_source":"VIIRS_SNPP_NRT","last_satellite":"N","last_instrument":"VIIRS","detected_area_km2":0.5480622992615268,"product_type":"cumulative_active_fire_detection_extent"},"geometry":{"type":"LineString","coordinates":[[6.110035506702181,48.613091940027424],[6.111208373251663,48.61291904711328],[6.114337162912637,48.61364621928467],[6.116628576953997,48.61311902162534],[6.118233092370853,48.61134967114184],[6.117480891413927,48.60934622244807],[6.114415576703319,48.60825590342822],[6.110910642725949,48.6091042039705],[6.107565929563184,48.608365915507996],[6.104682636090575,48.60902909800549],[6.103301157804836,48.610879334784876],[6.104297274421683,48.61283542816353],[6.107087641013038,48.613751484856955],[6.110035506702181,48.613091940027424]]}},{"type":"Feature","properties":{"cluster_id":1,"snapshot_index":2,"estimated_time_utc":"2026-08-08T02:45:00Z","observed_until_utc":"2026-08-08T02:45:00Z","target_time_utc":"2026-08-08T06:45:00Z","arrival_h":2.0,"hours_ago":70.15,"supported_detections_cumulative":7,"sources_cumulative":"VIIRS_NOAA20_NRT, VIIRS_NOAA21_NRT, VIIRS_SNPP_NRT","last_source":"VIIRS_NOAA20_NRT","last_satellite":"N20","last_instrument":"VIIRS","detected_area_km2":0.9392865601884326,"product_type":"cumulative_active_fire_detection_extent"},"geometry":{"type":"LineString","coordinates":[[6.112402251162982,48.60685089305767],[6.108516848875307,48.60710120948107],[6.104682636090575,48.60902909800549],[6.10341552474266,48.61040040730194],[6.103527616799149,48.61196475145274],[6.105921088997414,48.613583158000736],[6.110124200924984,48.61404408265542],[6.112004075662488,48.61380854128066],[6.114065234628776,48.61529685156457],[6.117175012916825,48.61540115552282],[6.118820414791248,48.6146744152573],[6.119822860689157,48.613303185284686],[6.119642236434037,48.6119548539375],[6.118246538355458,48.61062131180346],[6.119497711996218,48.6092918748532],[6.119401928088203,48.60768485848686],[6.118306039533629,48.60659385518794],[6.116238388344529,48.60592911731528],[6.114205242514099,48.60604881184194],[6.112402251162982,48.60685089305767]]}},{"type":"Feature","properties":{"cluster_id":1,"snapshot_index":3,"estimated_time_utc":"2026-08-08T12:14:00Z","observed_until_utc":"2026-08-08T12:14:00Z","target_time_utc":"2026-08-08T12:45:00Z","arrival_h":11.483333333333333,"hours_ago":60.666666666666664,"supported_detections_cumulative":8,"sources_cumulative":"VIIRS_NOAA20_NRT, VIIRS_NOAA21_NRT, VIIRS_SNPP_NRT","last_source":"VIIRS_SNPP_NRT","last_satellite":"N","last_instrument":"VIIRS","detected_area_km2":0.9441901351354013,"product_type":"cumulative_active_fire_detection_extent"},"geometry":{"type":"LineString","coordinates":[[6.112287422963806,48.606895540618865],[6.108516848875307,48.60710120948107],[6.104682636090575,48.60902909800549],[6.10341552474266,48.61040040730194],[6.103527616799149,48.61196475145274],[6.105921088997414,48.613583158000736],[6.110857345782724,48.61402476334268],[6.114815748713438,48.615475733107516],[6.117175012916825,48.61540115552282],[6.118820414791248,48.6146744152573],[6.119822860689157,48.613303185284686],[6.119642236434037,48.6119548539375],[6.118246538355458,48.61062131180346],[6.119497711996218,48.6092918748532],[6.119401928088203,48.60768485848686],[6.118306039533629,48.60659385518794],[6.116238388344529,48.60592911731528],[6.114205242514099,48.60604881184194],[6.112287422963806,48.606895540618865]]}},{"type":"Feature","properties":{"cluster_id":1,"snapshot_index":4,"estimated_time_utc":"2026-08-09T00:45:00Z","observed_until_utc":"2026-08-09T00:45:00Z","target_time_utc":"2026-08-09T00:45:00Z","arrival_h":24.0,"hours_ago":48.15,"supported_detections_cumulative":10,"sources_cumulative":"VIIRS_NOAA20_NRT, VIIRS_NOAA21_NRT, VIIRS_SNPP_NRT","last_source":"VIIRS_NOAA20_NRT","last_satellite":"N20","last_instrument":"VIIRS","detected_area_km2":0.9768363009766602,"product_type":"cumulative_active_fire_detection_extent"},"geometry":{"type":"LineString","coordinates":[[6.107422336945764,48.60743850698173],[6.105064219273673,48.607814057538896],[6.103322094224515,48.60921719847005],[6.103396813158599,48.611668412042235],[6.104574458778552,48.61302594539816],[6.106365360753792,48.61367566641872],[6.110857345782724,48.61402476334268],[6.115141501404103,48.61552086510707],[6.117112163813958,48.615415615944286],[6.118775269023283,48.61470681316946],[6.119876125803784,48.61277555660791],[6.118257821923851,48.61070556306768],[6.119632607118974,48.608726212844104],[6.118354892419336,48.60662379024633],[6.115044900561785,48.605915022164176],[6.112040792104326,48.606961442161314],[6.109599279374811,48.60689104911702],[6.107422336945764,48.60743850698173]]}},{"type":"Feature","properties":{"cluster_id":1,"snapshot_index":5,"estimated_time_utc":"2026-08-09T02:09:00Z","observed_until_utc":"2026-08-09T02:09:00Z","target_time_utc":"2026-08-09T06:45:00Z","arrival_h":25.4,"hours_ago":46.75,"supported_detections_cumulative":13,"sources_cumulative":"VIIRS_NOAA20_NRT, VIIRS_NOAA21_NRT, VIIRS_SNPP_NRT","last_source":"VIIRS_SNPP_NRT","last_satellite":"N","last_instrument":"VIIRS","detected_area_km2":1.0097443872971799,"product_type":"cumulative_active_fire_detection_extent"},"geometry":{"type":"LineString","coordinates":[[6.1105832288649,48.60673837736666],[6.106835579842783,48.60682872900967],[6.103926656325619,48.608484477506664],[6.103087316505081,48.60999336142245],[6.103833787057312,48.61240509763625],[6.105921088997414,48.613583158000736],[6.110857345782724,48.61402476334268],[6.114751375755724,48.61546460319492],[6.117839070787575,48.615198057422326],[6.119261652259617,48.6142877323185],[6.119869038829016,48.61304023854423],[6.119517843934716,48.61175019303843],[6.118246538355458,48.61062131180346],[6.119582531426357,48.60903319493482],[6.119095654519124,48.60724455062997],[6.117722963890282,48.60630127701474],[6.115841896170158,48.60589848433318],[6.112557499252303,48.60601232194105],[6.1105832288649,48.60673837736666]]}},{"type":"Feature","properties":{"cluster_id":1,"snapshot_index":6,"estimated_time_utc":"2026-08-10T02:09:00Z","observed_until_utc":"2026-08-10T02:09:00Z","target_time_utc":"2026-08-10T06:45:00Z","arrival_h":49.4,"hours_ago":22.75,"supported_detections_cumulative":18,"sources_cumulative":"VIIRS_NOAA20_NRT, VIIRS_NOAA21_NRT, VIIRS_SNPP_NRT","last_source":"VIIRS_NOAA20_NRT","last_satellite":"N20","last_instrument":"VIIRS","detected_area_km2":1.2720555681704884,"product_type":"cumulative_active_fire_detection_extent"},"geometry":{"type":"LineString","coordinates":[[6.116875607202338,48.60569461465165],[6.115094523555136,48.60460314236791],[6.112432210031468,48.60441201327356],[6.110385356450225,48.60519304010416],[6.109009549476447,48.6067286754283],[6.107217752309148,48.606752279476815],[6.105522689919908,48.607339114071195],[6.103127085987042,48.60972995401844],[6.103412344195925,48.611711303238884],[6.104297274421683,48.61283542816353],[6.105983501874338,48.61359842262965],[6.110857345782724,48.61402476334268],[6.114065234628776,48.61529685156457],[6.115937249947065,48.61555621333461],[6.118174920257013,48.61505492087009],[6.120135616427538,48.61349401586469],[6.122688036130021,48.612580554779214],[6.124022719193072,48.610993044597066],[6.123535672393772,48.60920442133264],[6.121814186032659,48.60813229150205],[6.11964402069005,48.60786565838667],[6.118722080874493,48.60662427313803],[6.116875607202338,48.60569461465165]]}},{"type":"Feature","properties":{"cluster_id":1,"snapshot_index":7,"estimated_time_utc":"2026-08-11T00:54:00Z","observed_until_utc":"2026-08-11T00:54:00Z","target_time_utc":"2026-08-11T00:54:00Z","arrival_h":72.15,"hours_ago":0.0,"supported_detections_cumulative":19,"sources_cumulative":"VIIRS_NOAA20_NRT, VIIRS_NOAA21_NRT, VIIRS_SNPP_NRT","last_source":"VIIRS_NOAA21_NRT","last_satellite":"N21","last_instrument":"VIIRS","detected_area_km2":1.2771798045479337,"product_type":"cumulative_active_fire_detection_extent"},"geometry":{"type":"LineString","coordinates":[[6.118065605577642,48.606124579890775],[6.115154372579001,48.604622385447364],[6.112825029502404,48.60436500896962],[6.110622896372624,48.60503853061131],[6.109009549476447,48.6067286754283],[6.105835754617059,48.60717487079279],[6.103205597444863,48.60947039984222],[6.104049588777262,48.6126278123641],[6.105921088997414,48.613583158000736],[6.110857345782724,48.61402476334268],[6.114815748713438,48.615475733107516],[6.118174920257013,48.61505492087009],[6.120135616427538,48.61349401586469],[6.123020427513132,48.61236431253065],[6.124075939637271,48.61046541303921],[6.123027861052016,48.60874119975437],[6.121448148757837,48.60802666550419],[6.11964402069005,48.60786565838667],[6.118065605577642,48.606124579890775]]}}],"metadata":{"generated_at_utc":"2026-08-11T04:06:24.205766Z","product_type":"cumulative_active_fire_detection_extent","product_label":"Emprises cumulées des détections actives FIRMS","not_a_burn_perimeter":true,"not_a_continuous_fire_front":true,"not_an_arrival_time_interpolation":true,"snapshot_step_hours":6,"confidence_filter":{"VIIRS":["nominal","high"],"MODIS_minimum":30},"footprint_radius_m":{"VIIRS":300.0,"MODIS":750.0},"same_pass_neighbour_m":2000.0,"continuity_distance_m":3000.0,"clusters":[{"cluster_id":1,"first_supported_detection_utc":"2026-08-08T00:45:00Z","last_supported_detection_utc":"2026-08-11T00:54:00Z","pass_states":12,"published_snapshots":7,"final_detected_area_km2":1.1558275814321095}]},"bbox":[6.103087316505081,48.60436500896962,6.124075939637271,48.61555621333461]}