{"type":"FeatureCollection","name":"fire_progression_arrival_v1","features":[{"type":"Feature","properties":{"category":"arrival_step","arrival_snapshot_index":1,"first_detected_utc":"2026-08-22T01:24:00+00:00","first_detected_local":"2026-08-22T03:24:00+02:00","area_km2":2.5,"label":"Première détection FIRMS","model_version":"fire_progression_arrival_v1"},"geometry":{"type":"Polygon","coordinates":[[[6.110936715590988,48.617294154729876],[6.110803133279125,48.61504713115007],[6.104025388664295,48.61522407744034],[6.1033591009123285,48.60398885862478],[6.11013539367294,48.60381194866237],[6.110001880132006,48.60156489927222],[6.120165797872443,48.60129882208287],[6.120299746846802,48.603545860546554],[6.127075924839805,48.603367986360006],[6.127747293952351,48.61460307768217],[6.12096966417899,48.614780988394216],[6.121103682147863,48.6170280010445],[6.110936715590988,48.617294154729876]],[[6.107014024141134,48.60839454502283],[6.1104024551306875,48.60830603456082],[6.110268918672009,48.60605899375977],[6.106880632854718,48.606147500587184],[6.107014024141134,48.60839454502283]]]}},{"type":"Feature","properties":{"category":"arrival_step","arrival_snapshot_index":2,"first_detected_utc":"2026-08-22T01:43:00+00:00","first_detected_local":"2026-08-22T03:43:00+02:00","area_km2":0.312,"label":"Première détection FIRMS","model_version":"fire_progression_arrival_v1"},"geometry":{"type":"Polygon","coordinates":[[[6.1033591009123285,48.60398885862478],[6.103225877667717,48.60174180197008],[6.106613884621983,48.60165339883096],[6.106480527672718,48.59940634151757],[6.116644044419783,48.599140564498384],[6.116777836769651,48.601387610897696],[6.110001880132006,48.60156489927222],[6.11013539367294,48.60381194866237],[6.1033591009123285,48.60398885862478]]]}},{"type":"Feature","properties":{"category":"arrival_step","arrival_snapshot_index":4,"first_detected_utc":"2026-08-22T03:04:00+00:00","first_detected_local":"2026-08-22T05:04:00+02:00","area_km2":0.25,"label":"Première détection FIRMS","model_version":"fire_progression_arrival_v1"},"geometry":{"type":"Polygon","coordinates":[[[6.120299746846802,48.603545860546554],[6.120165797872443,48.60129882208287],[6.116777836769651,48.601387610897696],[6.116644044419783,48.599140564498384],[6.123419664871771,48.59896289774677],[6.123553747481327,48.60120993685026],[6.126941685583887,48.601120955200386],[6.127075924839805,48.603367986360006],[6.120299746846802,48.603545860546554]]]}},{"type":"Feature","properties":{"category":"arrival_step","arrival_snapshot_index":5,"first_detected_utc":"2026-08-23T00:30:00+00:00","first_detected_local":"2026-08-23T02:30:00+02:00","area_km2":0.375,"label":"Première détection FIRMS","model_version":"fire_progression_arrival_v1"},"geometry":{"type":"Polygon","coordinates":[[[6.100503363976338,48.61306536713601],[6.100237127828461,48.60857127665191],[6.096848662530184,48.608659497818024],[6.096715706769388,48.606412442502325],[6.100104026890988,48.60632422495894],[6.099837859281621,48.60183010868909],[6.103225877667717,48.60174180197008],[6.103892108238474,48.612977042283575],[6.100503363976338,48.61306536713601]]]}},{"type":"Feature","properties":{"category":"firms_extent_snapshot","snapshot_index":1,"pass_time_utc":"2026-08-22T01:24:00+00:00","dt_local":"2026-08-22T03:24:00+02:00","label":"Emprise FIRMS cumulée à ce passage","interpretation":"Enveloppe des détections FIRMS, pas une surface brûlée","cumulative":true,"point_count":2,"extent_method":"cumulative_detection_extent_smoothed_landmasked_web_v1","local_cluster_link_m":10000.0,"model_version":"fire_progression_arrival_v1"},"geometry":{"type":"Polygon","coordinates":[[[6.106675630225882,48.61219615887406],[6.108041683166677,48.61410721948631],[6.111215190758759,48.61476790994176],[6.114793535995335,48.61379845094494],[6.118337429370611,48.61406589624311],[6.120038422189161,48.613794836927575],[6.1217703267179004,48.612730990124035],[6.122298343415985,48.61105459275904],[6.120714124618716,48.609219098321034],[6.117784479801239,48.60869211069092],[6.114206538895883,48.609661663641056],[6.1090367111790185,48.609640704636156],[6.107271698370534,48.61068096604826],[6.106675630225882,48.61219615887406]]]}},{"type":"Feature","properties":{"category":"historical_support","snapshot_index":1,"pass_time_utc":"2026-08-22T01:24:00+00:00","dt_local":"2026-08-22T03:24:00+02:00","area_km2":2.5,"label":"Isoline temporelle","coherence_level":"indisponible","coherence_fraction":0.0,"projection_displayed":false,"model_version":"fire_progression_arrival_v1"},"geometry":{"type":"Polygon","coordinates":[[[6.110936715590988,48.617294154729876],[6.110803133279125,48.61504713115007],[6.104025388664295,48.61522407744034],[6.1033591009123285,48.60398885862478],[6.11013539367294,48.60381194866237],[6.110001880132006,48.60156489927222],[6.120165797872443,48.60129882208287],[6.120299746846802,48.603545860546554],[6.127075924839805,48.603367986360006],[6.127747293952351,48.61460307768217],[6.12096966417899,48.614780988394216],[6.121103682147863,48.6170280010445],[6.110936715590988,48.617294154729876]],[[6.107014024141134,48.60839454502283],[6.1104024551306875,48.60830603456082],[6.110268918672009,48.60605899375977],[6.106880632854718,48.606147500587184],[6.107014024141134,48.60839454502283]]]}},{"type":"Feature","properties":{"category":"observed_front","snapshot_index":1,"pass_time_utc":"2026-08-22T01:24:00+00:00","dt_local":"2026-08-22T03:24:00+02:00","area_km2":2.5,"label":"Activité observée","coherence_level":"indisponible","coherence_fraction":0.0,"projection_displayed":false,"model_version":"fire_progression_arrival_v1"},"geometry":{"type":"Polygon","coordinates":[[[6.110936715590988,48.617294154729876],[6.110803133279125,48.61504713115007],[6.104025388664295,48.61522407744034],[6.1033591009123285,48.60398885862478],[6.11013539367294,48.60381194866237],[6.110001880132006,48.60156489927222],[6.120165797872443,48.60129882208287],[6.120299746846802,48.603545860546554],[6.127075924839805,48.603367986360006],[6.127747293952351,48.61460307768217],[6.12096966417899,48.614780988394216],[6.121103682147863,48.6170280010445],[6.110936715590988,48.617294154729876]],[[6.107014024141134,48.60839454502283],[6.1104024551306875,48.60830603456082],[6.110268918672009,48.60605899375977],[6.106880632854718,48.606147500587184],[6.107014024141134,48.60839454502283]]]}},{"type":"Feature","properties":{"category":"historical_support","snapshot_index":2,"pass_time_utc":"2026-08-22T01:43:00+00:00","dt_local":"2026-08-22T03:43:00+02:00","area_km2":2.812,"label":"Isoline temporelle","coherence_level":"indisponible","coherence_fraction":0.0,"projection_displayed":false,"model_version":"fire_progression_arrival_v1"},"geometry":{"type":"Polygon","coordinates":[[[6.110936715590988,48.617294154729876],[6.110803133279125,48.61504713115007],[6.104025388664295,48.61522407744034],[6.103225877667717,48.60174180197008],[6.106613884621983,48.60165339883096],[6.106480527672718,48.59940634151757],[6.116644044419783,48.599140564498384],[6.116777836769651,48.601387610897696],[6.120165797872443,48.60129882208287],[6.120299746846802,48.603545860546554],[6.127075924839805,48.603367986360006],[6.127747293952351,48.61460307768217],[6.12096966417899,48.614780988394216],[6.121103682147863,48.6170280010445],[6.110936715590988,48.617294154729876]],[[6.107014024141134,48.60839454502283],[6.1104024551306875,48.60830603456082],[6.110268918672009,48.60605899375977],[6.106880632854718,48.606147500587184],[6.107014024141134,48.60839454502283]]]}},{"type":"Feature","properties":{"category":"observed_front","snapshot_index":2,"pass_time_utc":"2026-08-22T01:43:00+00:00","dt_local":"2026-08-22T03:43:00+02:00","area_km2":2.438,"label":"Activité observée","coherence_level":"indisponible","coherence_fraction":0.0,"projection_displayed":false,"model_version":"fire_progression_arrival_v1"},"geometry":{"type":"Polygon","coordinates":[[[6.104025388664295,48.61522407744034],[6.103225877667717,48.60174180197008],[6.106613884621983,48.60165339883096],[6.106480527672718,48.59940634151757],[6.116644044419783,48.599140564498384],[6.116777836769651,48.601387610897696],[6.120165797872443,48.60129882208287],[6.120299746846802,48.603545860546554],[6.123687841597206,48.603456971663896],[6.123821947220889,48.60570400218408],[6.127210175615944,48.60561501322602],[6.127478711734811,48.610109054062825],[6.124090192997588,48.61019805032979],[6.124358484823275,48.6146920812587],[6.104025388664295,48.61522407744034]],[[6.107014024141134,48.60839454502283],[6.1104024551306875,48.60830603456082],[6.110268918672009,48.60605899375977],[6.106880632854718,48.606147500587184],[6.107014024141134,48.60839454502283]]]}},{"type":"Feature","properties":{"category":"historical_support","snapshot_index":3,"pass_time_utc":"2026-08-22T02:28:00+00:00","dt_local":"2026-08-22T04:28:00+02:00","area_km2":2.812,"label":"Isoline temporelle","coherence_level":"indisponible","coherence_fraction":0.0,"projection_displayed":false,"model_version":"fire_progression_arrival_v1"},"geometry":{"type":"Polygon","coordinates":[[[6.110936715590988,48.617294154729876],[6.110803133279125,48.61504713115007],[6.104025388664295,48.61522407744034],[6.103225877667717,48.60174180197008],[6.106613884621983,48.60165339883096],[6.106480527672718,48.59940634151757],[6.116644044419783,48.599140564498384],[6.116777836769651,48.601387610897696],[6.120165797872443,48.60129882208287],[6.120299746846802,48.603545860546554],[6.127075924839805,48.603367986360006],[6.127747293952351,48.61460307768217],[6.12096966417899,48.614780988394216],[6.121103682147863,48.6170280010445],[6.110936715590988,48.617294154729876]],[[6.107014024141134,48.60839454502283],[6.1104024551306875,48.60830603456082],[6.110268918672009,48.60605899375977],[6.106880632854718,48.606147500587184],[6.107014024141134,48.60839454502283]]]}},{"type":"Feature","properties":{"category":"observed_front","snapshot_index":3,"pass_time_utc":"2026-08-22T02:28:00+00:00","dt_local":"2026-08-22T04:28:00+02:00","area_km2":2.062,"label":"Activité observée","coherence_level":"indisponible","coherence_fraction":0.0,"projection_displayed":false,"model_version":"fire_progression_arrival_v1"},"geometry":{"type":"Polygon","coordinates":[[[6.1074142666982505,48.61513565251687],[6.107280841061427,48.612888620991264],[6.103892108238474,48.612977042283575],[6.103225877667717,48.60174180197008],[6.106613884621983,48.60165339883096],[6.106480527672718,48.59940634151757],[6.116644044419783,48.599140564498384],[6.116777836769651,48.601387610897696],[6.120165797872443,48.60129882208287],[6.120299746846802,48.603545860546554],[6.123687841597206,48.603456971663896],[6.124090192997588,48.61019805032979],[6.12070166274812,48.610286950163655],[6.120835657712902,48.61253397143275],[6.117446970770931,48.61262277847984],[6.117580832031919,48.614869799088275],[6.1074142666982505,48.61513565251687]],[[6.107014024141134,48.60839454502283],[6.1104024551306875,48.60830603456082],[6.110268918672009,48.60605899375977],[6.106880632854718,48.606147500587184],[6.107014024141134,48.60839454502283]]]}},{"type":"Feature","properties":{"category":"firms_extent_snapshot","snapshot_index":4,"pass_time_utc":"2026-08-22T03:04:00+00:00","dt_local":"2026-08-22T05:04:00+02:00","label":"Emprise FIRMS cumulée à ce passage","interpretation":"Enveloppe des détections FIRMS, pas une surface brûlée","cumulative":true,"point_count":9,"extent_method":"cumulative_detection_extent_smoothed_landmasked_web_v1","local_cluster_link_m":10000.0,"model_version":"fire_progression_arrival_v1"},"geometry":{"type":"MultiPolygon","coordinates":[[[[6.108352862788163,48.61427288336954],[6.110418153614714,48.614777924811925],[6.115983467854107,48.61481154620987],[6.121451919803784,48.61304052885624],[6.123110264027086,48.6089978936089],[6.113411931884157,48.60755218188987],[6.110701231103265,48.60762306653103],[6.108382743476965,48.608583856471576],[6.107387548566565,48.607384376999164],[6.107069024964604,48.607478081171394],[6.105800316669465,48.60848313286407],[6.105395816249337,48.60976611540142],[6.107046245433249,48.61321944809552],[6.108352862788163,48.61427288336954]]],[[[6.122028028738019,48.60755151477929],[6.1178301908616834,48.607661565893565],[6.114137146593876,48.605398480311386],[6.1134423903615245,48.60560291934277],[6.110337574794314,48.60651647318697],[6.12311970196008,48.608974884359014],[6.123138776637014,48.608928381101876],[6.122028028738019,48.60755151477929]]],[[[6.117514180680505,48.605262973960244],[6.115496577769331,48.60499843752761],[6.114983086505396,48.60514954628226],[6.11745120079448,48.60699633266772],[6.121879379052803,48.607367244476286],[6.1215339840835785,48.6069390773904],[6.117514180680505,48.605262973960244]]]]}},{"type":"Feature","properties":{"category":"historical_support","snapshot_index":4,"pass_time_utc":"2026-08-22T03:04:00+00:00","dt_local":"2026-08-22T05:04:00+02:00","area_km2":3.062,"label":"Isoline temporelle","coherence_level":"indisponible","coherence_fraction":0.0,"projection_displayed":false,"model_version":"fire_progression_arrival_v1"},"geometry":{"type":"Polygon","coordinates":[[[6.110936715590988,48.617294154729876],[6.110803133279125,48.61504713115007],[6.104025388664295,48.61522407744034],[6.103225877667717,48.60174180197008],[6.106613884621983,48.60165339883096],[6.106480527672718,48.59940634151757],[6.123419664871771,48.59896289774677],[6.123553747481327,48.60120993685026],[6.126941685583887,48.601120955200386],[6.127747293952351,48.61460307768217],[6.12096966417899,48.614780988394216],[6.121103682147863,48.6170280010445],[6.110936715590988,48.617294154729876]],[[6.107014024141134,48.60839454502283],[6.1104024551306875,48.60830603456082],[6.110268918672009,48.60605899375977],[6.106880632854718,48.606147500587184],[6.107014024141134,48.60839454502283]]]}},{"type":"Feature","properties":{"category":"observed_front","snapshot_index":4,"pass_time_utc":"2026-08-22T03:04:00+00:00","dt_local":"2026-08-22T05:04:00+02:00","area_km2":2.562,"label":"Activité observée","coherence_level":"indisponible","coherence_fraction":0.0,"projection_displayed":false,"model_version":"fire_progression_arrival_v1"},"geometry":{"type":"Polygon","coordinates":[[[6.1074142666982505,48.61513565251687],[6.107280841061427,48.612888620991264],[6.103892108238474,48.612977042283575],[6.1033591009123285,48.60398885862478],[6.1067472530154925,48.603900451855374],[6.106613884621983,48.60165339883096],[6.110001880132006,48.60156489927222],[6.109868378047732,48.5993178455929],[6.123419664871771,48.59896289774677],[6.123553747481327,48.60120993685026],[6.126941685583887,48.601120955200386],[6.127612997080505,48.612356068026486],[6.120835657712902,48.61253397143275],[6.12096966417899,48.614780988394216],[6.1074142666982505,48.61513565251687]],[[6.107014024141134,48.60839454502283],[6.1104024551306875,48.60830603456082],[6.110268918672009,48.60605899375977],[6.106880632854718,48.606147500587184],[6.107014024141134,48.60839454502283]]]}},{"type":"Feature","properties":{"category":"historical_support","snapshot_index":5,"pass_time_utc":"2026-08-23T00:30:00+00:00","dt_local":"2026-08-23T02:30:00+02:00","area_km2":3.438,"label":"Isoline temporelle","coherence_level":"indisponible","coherence_fraction":0.0,"projection_displayed":false,"model_version":"fire_progression_arrival_v1"},"geometry":{"type":"Polygon","coordinates":[[[6.110936715590988,48.617294154729876],[6.110803133279125,48.61504713115007],[6.104025388664295,48.61522407744034],[6.103892108238474,48.612977042283575],[6.100503363976338,48.61306536713601],[6.100237127828461,48.60857127665191],[6.096848662530184,48.608659497818024],[6.096715706769388,48.606412442502325],[6.100104026890988,48.60632422495894],[6.099837859281621,48.60183010868909],[6.106613884621983,48.60165339883096],[6.106480527672718,48.59940634151757],[6.123419664871771,48.59896289774677],[6.123553747481327,48.60120993685026],[6.126941685583887,48.601120955200386],[6.127747293952351,48.61460307768217],[6.12096966417899,48.614780988394216],[6.121103682147863,48.6170280010445],[6.110936715590988,48.617294154729876]],[[6.107014024141134,48.60839454502283],[6.1104024551306875,48.60830603456082],[6.110268918672009,48.60605899375977],[6.106880632854718,48.606147500587184],[6.107014024141134,48.60839454502283]]]}},{"type":"Feature","properties":{"category":"observed_front","snapshot_index":5,"pass_time_utc":"2026-08-23T00:30:00+00:00","dt_local":"2026-08-23T02:30:00+02:00","area_km2":2.5,"label":"Activité observée","coherence_level":"indisponible","coherence_fraction":0.0,"projection_displayed":false,"model_version":"fire_progression_arrival_v1"},"geometry":{"type":"Polygon","coordinates":[[[6.104025388664295,48.61522407744034],[6.103892108238474,48.612977042283575],[6.100503363976338,48.61306536713601],[6.100237127828461,48.60857127665191],[6.096848662530184,48.608659497818024],[6.096715706769388,48.606412442502325],[6.100104026890988,48.60632422495894],[6.099837859281621,48.60183010868909],[6.106613884621983,48.60165339883096],[6.106480527672718,48.59940634151757],[6.116644044419783,48.599140564498384],[6.116777836769651,48.601387610897696],[6.120165797872443,48.60129882208287],[6.120299746846802,48.603545860546554],[6.123687841597206,48.603456971663896],[6.124090192997588,48.61019805032979],[6.12070166274812,48.610286950163655],[6.120835657712902,48.61253397143275],[6.117446970770931,48.61262277847984],[6.117580832031919,48.614869799088275],[6.104025388664295,48.61522407744034]],[[6.107014024141134,48.60839454502283],[6.1104024551306875,48.60830603456082],[6.110268918672009,48.60605899375977],[6.106880632854718,48.606147500587184],[6.107014024141134,48.60839454502283]]]}},{"type":"Feature","properties":{"category":"firms_extent_snapshot","snapshot_index":6,"pass_time_utc":"2026-08-23T01:05:00+00:00","dt_local":"2026-08-23T03:05:00+02:00","label":"Emprise FIRMS cumulée à ce passage","interpretation":"Enveloppe des détections FIRMS, pas une surface brûlée","cumulative":true,"point_count":14,"extent_method":"cumulative_detection_extent_smoothed_landmasked_web_v1","local_cluster_link_m":10000.0,"model_version":"fire_progression_arrival_v1"},"geometry":{"type":"MultiPolygon","coordinates":[[[[6.110186616090516,48.61476129918292],[6.117443683049357,48.61456919446993],[6.120962595642795,48.61338573544798],[6.122932234164329,48.612022557415365],[6.123668463175664,48.610806562093],[6.122848764489908,48.60890610840827],[6.113411931884157,48.60755218188987],[6.110701231103265,48.60762306653103],[6.108382743476965,48.608583856471576],[6.106920649038621,48.60682161436914],[6.11029562504693,48.606508402263806],[6.122824828130456,48.6088506102738],[6.122261897215472,48.60754537928392],[6.1178301908616834,48.607661565893565],[6.114162268972934,48.605226572241065],[6.11132802896615,48.60633834002334],[6.106695845412894,48.606696448425836],[6.105170260329856,48.60768861989646],[6.104615862015217,48.60915608883298],[6.107402282452524,48.61363019093924],[6.110186616090516,48.61476129918292]]],[[[6.114989743000466,48.605113240174106],[6.11745120079448,48.60699633266772],[6.121062888017561,48.606901667339706],[6.116293025899323,48.605018659481956],[6.114989743000466,48.605113240174106]]]]}},{"type":"Feature","properties":{"category":"historical_support","snapshot_index":6,"pass_time_utc":"2026-08-23T01:05:00+00:00","dt_local":"2026-08-23T03:05:00+02:00","area_km2":3.438,"label":"Isoline temporelle","coherence_level":"indisponible","coherence_fraction":0.0,"projection_displayed":false,"model_version":"fire_progression_arrival_v1"},"geometry":{"type":"Polygon","coordinates":[[[6.110936715590988,48.617294154729876],[6.110803133279125,48.61504713115007],[6.104025388664295,48.61522407744034],[6.103892108238474,48.612977042283575],[6.100503363976338,48.61306536713601],[6.100237127828461,48.60857127665191],[6.096848662530184,48.608659497818024],[6.096715706769388,48.606412442502325],[6.100104026890988,48.60632422495894],[6.099837859281621,48.60183010868909],[6.106613884621983,48.60165339883096],[6.106480527672718,48.59940634151757],[6.123419664871771,48.59896289774677],[6.123553747481327,48.60120993685026],[6.126941685583887,48.601120955200386],[6.127747293952351,48.61460307768217],[6.12096966417899,48.614780988394216],[6.121103682147863,48.6170280010445],[6.110936715590988,48.617294154729876]],[[6.107014024141134,48.60839454502283],[6.1104024551306875,48.60830603456082],[6.110268918672009,48.60605899375977],[6.106880632854718,48.606147500587184],[6.107014024141134,48.60839454502283]]]}},{"type":"Feature","properties":{"category":"observed_front","snapshot_index":6,"pass_time_utc":"2026-08-23T01:05:00+00:00","dt_local":"2026-08-23T03:05:00+02:00","area_km2":2.5,"label":"Activité observée","coherence_level":"indisponible","coherence_fraction":0.0,"projection_displayed":false,"model_version":"fire_progression_arrival_v1"},"geometry":{"type":"Polygon","coordinates":[[[6.110936715590988,48.617294154729876],[6.110803133279125,48.61504713115007],[6.104025388664295,48.61522407744034],[6.1033591009123285,48.60398885862478],[6.11013539367294,48.60381194866237],[6.110001880132006,48.60156489927222],[6.120165797872443,48.60129882208287],[6.120299746846802,48.603545860546554],[6.127075924839805,48.603367986360006],[6.127747293952351,48.61460307768217],[6.12096966417899,48.614780988394216],[6.121103682147863,48.6170280010445],[6.110936715590988,48.617294154729876]],[[6.107014024141134,48.60839454502283],[6.1104024551306875,48.60830603456082],[6.110268918672009,48.60605899375977],[6.106880632854718,48.606147500587184],[6.107014024141134,48.60839454502283]]]}},{"type":"Feature","properties":{"category":"historical_support","snapshot_index":7,"pass_time_utc":"2026-08-23T01:26:00+00:00","dt_local":"2026-08-23T03:26:00+02:00","area_km2":3.438,"label":"Isoline temporelle","coherence_level":"indisponible","coherence_fraction":0.0,"projection_displayed":false,"model_version":"fire_progression_arrival_v1"},"geometry":{"type":"Polygon","coordinates":[[[6.110936715590988,48.617294154729876],[6.110803133279125,48.61504713115007],[6.104025388664295,48.61522407744034],[6.103892108238474,48.612977042283575],[6.100503363976338,48.61306536713601],[6.100237127828461,48.60857127665191],[6.096848662530184,48.608659497818024],[6.096715706769388,48.606412442502325],[6.100104026890988,48.60632422495894],[6.099837859281621,48.60183010868909],[6.106613884621983,48.60165339883096],[6.106480527672718,48.59940634151757],[6.123419664871771,48.59896289774677],[6.123553747481327,48.60120993685026],[6.126941685583887,48.601120955200386],[6.127747293952351,48.61460307768217],[6.12096966417899,48.614780988394216],[6.121103682147863,48.6170280010445],[6.110936715590988,48.617294154729876]],[[6.107014024141134,48.60839454502283],[6.1104024551306875,48.60830603456082],[6.110268918672009,48.60605899375977],[6.106880632854718,48.606147500587184],[6.107014024141134,48.60839454502283]]]}},{"type":"Feature","properties":{"category":"observed_front","snapshot_index":7,"pass_time_utc":"2026-08-23T01:26:00+00:00","dt_local":"2026-08-23T03:26:00+02:00","area_km2":2.375,"label":"Activité observée","coherence_level":"indisponible","coherence_fraction":0.0,"projection_displayed":false,"model_version":"fire_progression_arrival_v1"},"geometry":{"type":"Polygon","coordinates":[[[6.110936715590988,48.617294154729876],[6.110803133279125,48.61504713115007],[6.104025388664295,48.61522407744034],[6.103892108238474,48.612977042283575],[6.100503363976338,48.61306536713601],[6.099970937375865,48.60407716897012],[6.1067472530154925,48.603900451855374],[6.106613884621983,48.60165339883096],[6.116777836769651,48.601387610897696],[6.116911640601011,48.60363465300749],[6.123687841597206,48.603456971663896],[6.124358484823275,48.6146920812587],[6.117580832031919,48.614869799088275],[6.117714704783268,48.61711681538568],[6.110936715590988,48.617294154729876]],[[6.107014024141134,48.60839454502283],[6.1104024551306875,48.60830603456082],[6.110268918672009,48.60605899375977],[6.106880632854718,48.606147500587184],[6.107014024141134,48.60839454502283]]]}},{"type":"Feature","properties":{"category":"historical_support","snapshot_index":8,"pass_time_utc":"2026-08-23T02:11:00+00:00","dt_local":"2026-08-23T04:11:00+02:00","area_km2":3.438,"label":"Isoline temporelle","coherence_level":"indisponible","coherence_fraction":0.0,"projection_displayed":false,"model_version":"fire_progression_arrival_v1"},"geometry":{"type":"Polygon","coordinates":[[[6.110936715590988,48.617294154729876],[6.110803133279125,48.61504713115007],[6.104025388664295,48.61522407744034],[6.103892108238474,48.612977042283575],[6.100503363976338,48.61306536713601],[6.100237127828461,48.60857127665191],[6.096848662530184,48.608659497818024],[6.096715706769388,48.606412442502325],[6.100104026890988,48.60632422495894],[6.099837859281621,48.60183010868909],[6.106613884621983,48.60165339883096],[6.106480527672718,48.59940634151757],[6.123419664871771,48.59896289774677],[6.123553747481327,48.60120993685026],[6.126941685583887,48.601120955200386],[6.127747293952351,48.61460307768217],[6.12096966417899,48.614780988394216],[6.121103682147863,48.6170280010445],[6.110936715590988,48.617294154729876]],[[6.107014024141134,48.60839454502283],[6.1104024551306875,48.60830603456082],[6.110268918672009,48.60605899375977],[6.106880632854718,48.606147500587184],[6.107014024141134,48.60839454502283]]]}},{"type":"Feature","properties":{"category":"observed_front","snapshot_index":8,"pass_time_utc":"2026-08-23T02:11:00+00:00","dt_local":"2026-08-23T04:11:00+02:00","area_km2":2.438,"label":"Activité observée","coherence_level":"indisponible","coherence_fraction":0.0,"projection_displayed":false,"model_version":"fire_progression_arrival_v1"},"geometry":{"type":"Polygon","coordinates":[[[6.110803133279125,48.61504713115007],[6.11066956243277,48.61280010325956],[6.107280841061427,48.612888620991264],[6.107014024141134,48.60839454502283],[6.103625581702918,48.60848295905334],[6.1033591009123285,48.60398885862478],[6.1067472530154925,48.603900451855374],[6.106613884621983,48.60165339883096],[6.110001880132006,48.60156489927222],[6.109868378047732,48.5993178455929],[6.123419664871771,48.59896289774677],[6.123553747481327,48.60120993685026],[6.126941685583887,48.601120955200386],[6.127612997080505,48.612356068026486],[6.124224333153568,48.612445067948144],[6.124358484823275,48.6146920812587],[6.110803133279125,48.61504713115007]],[[6.107014024141134,48.60839454502283],[6.1104024551306875,48.60830603456082],[6.110268918672009,48.60605899375977],[6.106880632854718,48.606147500587184],[6.107014024141134,48.60839454502283]]]}},{"type":"Feature","properties":{"category":"historical_support","snapshot_index":9,"pass_time_utc":"2026-08-23T02:45:00+00:00","dt_local":"2026-08-23T04:45:00+02:00","area_km2":3.438,"label":"Isoline temporelle","coherence_level":"indisponible","coherence_fraction":0.0,"projection_displayed":false,"model_version":"fire_progression_arrival_v1"},"geometry":{"type":"Polygon","coordinates":[[[6.110936715590988,48.617294154729876],[6.110803133279125,48.61504713115007],[6.104025388664295,48.61522407744034],[6.103892108238474,48.612977042283575],[6.100503363976338,48.61306536713601],[6.100237127828461,48.60857127665191],[6.096848662530184,48.608659497818024],[6.096715706769388,48.606412442502325],[6.100104026890988,48.60632422495894],[6.099837859281621,48.60183010868909],[6.106613884621983,48.60165339883096],[6.106480527672718,48.59940634151757],[6.123419664871771,48.59896289774677],[6.123553747481327,48.60120993685026],[6.126941685583887,48.601120955200386],[6.127747293952351,48.61460307768217],[6.12096966417899,48.614780988394216],[6.121103682147863,48.6170280010445],[6.110936715590988,48.617294154729876]],[[6.107014024141134,48.60839454502283],[6.1104024551306875,48.60830603456082],[6.110268918672009,48.60605899375977],[6.106880632854718,48.606147500587184],[6.107014024141134,48.60839454502283]]]}},{"type":"Feature","properties":{"category":"observed_front","snapshot_index":9,"pass_time_utc":"2026-08-23T02:45:00+00:00","dt_local":"2026-08-23T04:45:00+02:00","area_km2":2.25,"label":"Activité observée","coherence_level":"indisponible","coherence_fraction":0.0,"projection_displayed":false,"model_version":"fire_progression_arrival_v1"},"geometry":{"type":"Polygon","coordinates":[[[6.110803133279125,48.61504713115007],[6.11066956243277,48.61280010325956],[6.107280841061427,48.612888620991264],[6.107147426876212,48.61064158515871],[6.1037588392518405,48.61073000282005],[6.1033591009123285,48.60398885862478],[6.1067472530154925,48.603900451855374],[6.106613884621983,48.60165339883096],[6.110001880132006,48.60156489927222],[6.109868378047732,48.5993178455929],[6.120031860391992,48.599051779329486],[6.120165797872443,48.60129882208287],[6.123553747481327,48.60120993685026],[6.123687841597206,48.603456971663896],[6.127075924839805,48.603367986360006],[6.127478711734811,48.610109054062825],[6.124090192997588,48.61019805032979],[6.124224333153568,48.612445067948144],[6.120835657712902,48.61253397143275],[6.12096966417899,48.614780988394216],[6.110803133279125,48.61504713115007]],[[6.107014024141134,48.60839454502283],[6.1104024551306875,48.60830603456082],[6.110268918672009,48.60605899375977],[6.106880632854718,48.606147500587184],[6.107014024141134,48.60839454502283]]]}},{"type":"Feature","properties":{"category":"firms_extent_snapshot","snapshot_index":10,"pass_time_utc":"2026-08-23T03:06:00+00:00","dt_local":"2026-08-23T05:06:00+02:00","label":"Emprise FIRMS cumulée à ce passage","interpretation":"Enveloppe des détections FIRMS, pas une surface brûlée","cumulative":true,"point_count":21,"extent_method":"cumulative_detection_extent_smoothed_landmasked_web_v1","local_cluster_link_m":10000.0,"model_version":"fire_progression_arrival_v1"},"geometry":{"type":"MultiPolygon","coordinates":[[[[6.106982470542628,48.61420054643401],[6.110418153614714,48.614777924811925],[6.116298088720136,48.61479166602697],[6.121393405367703,48.61360808234295],[6.123334557572551,48.61156623697875],[6.123668869918068,48.61006974905362],[6.12318733696008,48.60895466904022],[6.113411931884157,48.60755218188987],[6.110701231103265,48.60762306653103],[6.108382743476965,48.608583856471576],[6.106920649038621,48.60682161436914],[6.11029562504693,48.606508402263806],[6.1231702789597575,48.608915167110915],[6.1227365232503,48.607910679479396],[6.122327552546948,48.60754365674585],[6.1178301908616834,48.607661565893565],[6.11406922423545,48.60550169592877],[6.111585628451796,48.60628212591552],[6.10781148021783,48.60641583699487],[6.105978100970759,48.6070339786359],[6.104725438725078,48.608422866654536],[6.1043256580678795,48.61177607870277],[6.105099464336058,48.613255522847396],[6.106982470542628,48.61420054643401]]],[[[6.118526856514503,48.60485931959418],[6.116561948228522,48.604718321562274],[6.11501338139731,48.605204989917894],[6.11745120079448,48.60699633266772],[6.1215966084985896,48.60688766876119],[6.120159569497418,48.6055979316549],[6.118526856514503,48.60485931959418]]]]}},{"type":"Feature","properties":{"category":"historical_support","snapshot_index":10,"pass_time_utc":"2026-08-23T03:06:00+00:00","dt_local":"2026-08-23T05:06:00+02:00","area_km2":3.438,"label":"Isoline temporelle","coherence_level":"indisponible","coherence_fraction":0.0,"projection_displayed":false,"model_version":"fire_progression_arrival_v1"},"geometry":{"type":"Polygon","coordinates":[[[6.110936715590988,48.617294154729876],[6.110803133279125,48.61504713115007],[6.104025388664295,48.61522407744034],[6.103892108238474,48.612977042283575],[6.100503363976338,48.61306536713601],[6.100237127828461,48.60857127665191],[6.096848662530184,48.608659497818024],[6.096715706769388,48.606412442502325],[6.100104026890988,48.60632422495894],[6.099837859281621,48.60183010868909],[6.106613884621983,48.60165339883096],[6.106480527672718,48.59940634151757],[6.123419664871771,48.59896289774677],[6.123553747481327,48.60120993685026],[6.126941685583887,48.601120955200386],[6.127747293952351,48.61460307768217],[6.12096966417899,48.614780988394216],[6.121103682147863,48.6170280010445],[6.110936715590988,48.617294154729876]],[[6.107014024141134,48.60839454502283],[6.1104024551306875,48.60830603456082],[6.110268918672009,48.60605899375977],[6.106880632854718,48.606147500587184],[6.107014024141134,48.60839454502283]]]}},{"type":"Feature","properties":{"category":"observed_front","snapshot_index":10,"pass_time_utc":"2026-08-23T03:06:00+00:00","dt_local":"2026-08-23T05:06:00+02:00","area_km2":2.0,"label":"Activité observée","coherence_level":"indisponible","coherence_fraction":0.0,"projection_displayed":false,"model_version":"fire_progression_arrival_v1"},"geometry":{"type":"Polygon","coordinates":[[[6.114325715926834,48.61720553328096],[6.11419198839449,48.61495851334038],[6.110803133279125,48.61504713115007],[6.11066956243277,48.61280010325956],[6.107280841061427,48.612888620991264],[6.107014024141134,48.60839454502283],[6.1104024551306875,48.60830603456082],[6.11013539367294,48.60381194866237],[6.113523522872253,48.603723349046255],[6.1133898641853675,48.6014763032943],[6.123553747481327,48.60120993685026],[6.123687841597206,48.603456971663896],[6.127075924839805,48.603367986360006],[6.127747293952351,48.61460307768217],[6.12096966417899,48.614780988394216],[6.121103682147863,48.6170280010445],[6.114325715926834,48.61720553328096]]]}},{"type":"Feature","properties":{"category":"firms_extent_snapshot","snapshot_index":11,"pass_time_utc":"2026-08-23T11:55:00+00:00","dt_local":"2026-08-23T13:55:00+02:00","label":"Emprise FIRMS cumulée à ce passage","interpretation":"Enveloppe des détections FIRMS, pas une surface brûlée","cumulative":true,"point_count":22,"extent_method":"cumulative_detection_extent_smoothed_landmasked_web_v1","local_cluster_link_m":10000.0,"model_version":"fire_progression_arrival_v1"},"geometry":{"type":"MultiPolygon","coordinates":[[[[6.105171077108893,48.6181582725143],[6.108823619848079,48.61931921209146],[6.113604880993919,48.61934991835714],[6.116525976818082,48.618569484857105],[6.1194217839792655,48.61684997072502],[6.123704573292114,48.61167622539681],[6.123982185186485,48.609973575892916],[6.123377696590249,48.608929647693735],[6.113411931884157,48.60755218188987],[6.110701231103265,48.60762306653103],[6.108382743476965,48.608583856471576],[6.106943875965022,48.60684961054812],[6.103785281985617,48.608243328603905],[6.101766683321354,48.610445904778324],[6.101145850679352,48.613045265351175],[6.102109106202057,48.61565379840918],[6.105171077108893,48.6181582725143]]],[[[6.1178301908616834,48.607661565893565],[6.113590356517061,48.6048468703126],[6.1122711046990155,48.60449862877443],[6.110379483184529,48.60533348022191],[6.107030398017906,48.60681143076285],[6.11029562504693,48.606508402263806],[6.123349946895023,48.608881723959286],[6.1225714711902866,48.60753725696039],[6.1178301908616834,48.607661565893565]]],[[[6.120893955074645,48.60575908849537],[6.1181460596302335,48.60478005714668],[6.114012010955928,48.604507007247925],[6.11745120079448,48.60699633266772],[6.122186402965015,48.606872196666096],[6.122133134250981,48.60678019357349],[6.120893955074645,48.60575908849537]]]]}},{"type":"Feature","properties":{"category":"historical_support","snapshot_index":11,"pass_time_utc":"2026-08-23T11:55:00+00:00","dt_local":"2026-08-23T13:55:00+02:00","area_km2":3.438,"label":"Isoline temporelle","coherence_level":"indisponible","coherence_fraction":0.0,"projection_displayed":false,"model_version":"fire_progression_arrival_v1"},"geometry":{"type":"Polygon","coordinates":[[[6.110936715590988,48.617294154729876],[6.110803133279125,48.61504713115007],[6.104025388664295,48.61522407744034],[6.103892108238474,48.612977042283575],[6.100503363976338,48.61306536713601],[6.100237127828461,48.60857127665191],[6.096848662530184,48.608659497818024],[6.096715706769388,48.606412442502325],[6.100104026890988,48.60632422495894],[6.099837859281621,48.60183010868909],[6.106613884621983,48.60165339883096],[6.106480527672718,48.59940634151757],[6.123419664871771,48.59896289774677],[6.123553747481327,48.60120993685026],[6.126941685583887,48.601120955200386],[6.127747293952351,48.61460307768217],[6.12096966417899,48.614780988394216],[6.121103682147863,48.6170280010445],[6.110936715590988,48.617294154729876]],[[6.107014024141134,48.60839454502283],[6.1104024551306875,48.60830603456082],[6.110268918672009,48.60605899375977],[6.106880632854718,48.606147500587184],[6.107014024141134,48.60839454502283]]]}},{"type":"Feature","properties":{"category":"observed_front","snapshot_index":11,"pass_time_utc":"2026-08-23T11:55:00+00:00","dt_local":"2026-08-23T13:55:00+02:00","area_km2":2.188,"label":"Activité observée","coherence_level":"indisponible","coherence_fraction":0.0,"projection_displayed":false,"model_version":"fire_progression_arrival_v1"},"geometry":{"type":"Polygon","coordinates":[[[6.110936715590988,48.617294154729876],[6.110803133279125,48.61504713115007],[6.104025388664295,48.61522407744034],[6.103892108238474,48.612977042283575],[6.100503363976338,48.61306536713601],[6.100104026890988,48.60632422495894],[6.1034923355902375,48.60623591098705],[6.1033591009123285,48.60398885862478],[6.1067472530154925,48.603900451855374],[6.106613884621983,48.60165339883096],[6.116777836769651,48.601387610897696],[6.116911640601011,48.60363465300749],[6.120299746846802,48.603545860546554],[6.12043370731655,48.60579289471696],[6.123821947220889,48.60570400218408],[6.124224333153568,48.612445067948144],[6.120835657712902,48.61253397143275],[6.12096966417899,48.614780988394216],[6.117580832031919,48.614869799088275],[6.117714704783268,48.61711681538568],[6.110936715590988,48.617294154729876]],[[6.107014024141134,48.60839454502283],[6.1104024551306875,48.60830603456082],[6.110268918672009,48.60605899375977],[6.106880632854718,48.606147500587184],[6.107014024141134,48.60839454502283]]]}}]}