{"type":"FeatureCollection","name":"detection_envelopes","crs":{"type":"name","properties":{"name":"urn:ogc:def:crs:OGC:1.3:CRS84"}},"features":[{"type":"Feature","properties":{"cluster_id":1,"snapshot_index":1,"estimated_time_utc":"2026-08-05T01:07:00Z","observed_until_utc":"2026-08-05T01:07:00Z","target_time_utc":"2026-08-05T01:07:00Z","arrival_h":0.0,"hours_ago":115.05,"supported_detections_cumulative":3,"sources_cumulative":"VIIRS_NOAA21_NRT","last_source":"VIIRS_NOAA21_NRT","last_satellite":"N21","last_instrument":"VIIRS","detected_area_km2":0.5982869694451523,"product_type":"cumulative_active_fire_detection_extent"},"geometry":{"type":"LineString","coordinates":[[5.47226226560119,44.54054549241775],[5.473142974430503,44.54259743818897],[5.474728147507265,44.54367977537301],[5.476948225315352,44.543944140803916],[5.479202715576095,44.54310199213511],[5.480158535736159,44.54169154768592],[5.479392591999209,44.539274039765246],[5.480463525542327,44.537027337107894],[5.479251320777254,44.53510702650319],[5.47654079476534,44.53439241651379],[5.473917661078144,44.53525794934002],[5.471167466914531,44.53787893665767],[5.471234188450705,44.53940325406912],[5.47226226560119,44.54054549241775]]}},{"type":"Feature","properties":{"cluster_id":1,"snapshot_index":2,"estimated_time_utc":"2026-08-05T02:04:00Z","observed_until_utc":"2026-08-05T02:04:00Z","target_time_utc":"2026-08-05T07:07:00Z","arrival_h":0.95,"hours_ago":114.1,"supported_detections_cumulative":5,"sources_cumulative":"VIIRS_NOAA20_NRT, VIIRS_NOAA21_NRT, VIIRS_SNPP_NRT","last_source":"VIIRS_NOAA20_NRT","last_satellite":"N20","last_instrument":"VIIRS","detected_area_km2":0.6625071967939501,"product_type":"cumulative_active_fire_detection_extent"},"geometry":{"type":"LineString","coordinates":[[5.472416655782904,44.54067037974106],[5.473142974430503,44.54259743818897],[5.474728147507265,44.54367977537301],[5.476948225315352,44.543944140803916],[5.479202715576095,44.54310199213511],[5.481509128933167,44.5410398698818],[5.482063693482806,44.53956728235026],[5.479251320777254,44.53510702650319],[5.477340309040371,44.53443067783615],[5.475510903151962,44.53452541382545],[5.472047649581627,44.53672790126133],[5.471048297052801,44.53866659400717],[5.472416655782904,44.54067037974106]]}},{"type":"Feature","properties":{"cluster_id":1,"snapshot_index":3,"estimated_time_utc":"2026-08-07T01:05:00Z","observed_until_utc":"2026-08-07T01:05:00Z","target_time_utc":"2026-08-07T01:07:00Z","arrival_h":47.96666666666667,"hours_ago":67.08333333333333,"supported_detections_cumulative":7,"sources_cumulative":"VIIRS_NOAA20_NRT, VIIRS_NOAA21_NRT, VIIRS_SNPP_NRT","last_source":"VIIRS_SNPP_NRT","last_satellite":"N","last_instrument":"VIIRS","detected_area_km2":1.1708109731772423,"product_type":"cumulative_active_fire_detection_extent"},"geometry":{"type":"MultiLineString","coordinates":[[[5.472536203054417,44.54081348479154],[5.473002274946577,44.542400860498596],[5.47440606844311,44.5435488704919],[5.476517519397813,44.54396897567676],[5.478483235004115,44.543532760402705],[5.47789594436142,44.545042704327486],[5.478413675927114,44.54634585704336],[5.479968259316375,44.54738985983401],[5.48212729220183,44.547659826004555],[5.483890039495393,44.547163553851405],[5.485067236524549,44.546157310753834],[5.485256009791478,44.54413640504151],[5.483489447085569,44.542617096572286],[5.486322880253663,44.54175181229723],[5.487296906913634,44.5395928610145],[5.486602942283799,44.538332332563414],[5.484912910044776,44.53740242736699],[5.483031499021946,44.537245894652266],[5.481128576818834,44.537850623758715],[5.479296311535909,44.53513724676718],[5.476233051364725,44.534410163223924],[5.474182072895442,44.535072414912996],[5.47130022166241,44.537584866416424],[5.471149828473815,44.539190821618874],[5.472536203054417,44.54081348479154]],[[5.479649175984427,44.5426799250711],[5.480711395460103,44.541699440024686],[5.481730642344968,44.54228290178759],[5.480787539473871,44.542355098029205],[5.479649175984427,44.5426799250711]]]}},{"type":"Feature","properties":{"cluster_id":1,"snapshot_index":4,"estimated_time_utc":"2026-08-07T01:26:00Z","observed_until_utc":"2026-08-07T01:26:00Z","target_time_utc":"2026-08-07T07:07:00Z","arrival_h":48.31666666666667,"hours_ago":66.73333333333333,"supported_detections_cumulative":9,"sources_cumulative":"VIIRS_NOAA20_NRT, VIIRS_NOAA21_NRT, VIIRS_SNPP_NRT","last_source":"VIIRS_NOAA20_NRT","last_satellite":"N20","last_instrument":"VIIRS","detected_area_km2":1.4031959321168814,"product_type":"cumulative_active_fire_detection_extent"},"geometry":{"type":"MultiLineString","coordinates":[[[5.472581578705908,44.540890355465514],[5.473568235790549,44.54303055709731],[5.475124360806956,44.54380307924082],[5.477008738277959,44.543936327071776],[5.477616552595608,44.546177507478724],[5.480658396105259,44.54758097485699],[5.483195423883467,44.54744949714369],[5.484954791162954,44.546306028876934],[5.488105608621996,44.54633942817351],[5.490217058734861,44.54459318296932],[5.489668965378819,44.542318160539466],[5.486886079970541,44.5411798355711],[5.487296906913634,44.5395928610145],[5.486370656204426,44.53812596009717],[5.483832444558066,44.53722787166242],[5.481128576818834,44.537850623758715],[5.480434601461406,44.53741111134862],[5.479742982143338,44.535502524130585],[5.47770159874097,44.534489072812214],[5.474780568016353,44.53476123565085],[5.471601179419167,44.537149936543855],[5.471135898416926,44.539147814947434],[5.472581578705908,44.540890355465514]],[[5.480459477004635,44.54183928375016],[5.480711395460103,44.541699440024686],[5.480984861058664,44.541900558172735],[5.480318577122143,44.54190406864336],[5.480459477004635,44.54183928375016]]]}},{"type":"Feature","properties":{"cluster_id":1,"snapshot_index":5,"estimated_time_utc":"2026-08-08T14:33:00Z","observed_until_utc":"2026-08-08T14:33:00Z","target_time_utc":"2026-08-08T19:07:00Z","arrival_h":85.43333333333334,"hours_ago":29.616666666666667,"supported_detections_cumulative":11,"sources_cumulative":"MODIS_NRT, VIIRS_NOAA20_NRT, VIIRS_NOAA21_NRT, VIIRS_SNPP_NRT","last_source":"MODIS_NRT","last_satellite":"Aqua","last_instrument":"MODIS","detected_area_km2":3.1753629356367226,"product_type":"cumulative_active_fire_detection_extent"},"geometry":{"type":"MultiLineString","coordinates":[[[5.475900554255331,44.52392670785027],[5.475057728614875,44.521362686169425],[5.47290768351008,44.51922455895344],[5.469777803272962,44.51783777174245],[5.466144500447644,44.51741338899443],[5.462560735127278,44.51801599735089],[5.459571935637554,44.51955388566407],[5.457633060084394,44.52179298931899],[5.45703936798569,44.52439248641458],[5.457881420929953,44.52695664888136],[5.460031191523648,44.52909507571733],[5.463161456239654,44.53048214586907],[5.466795577311337,44.530906629135735],[5.470323865527368,44.530322041212166],[5.474021839729563,44.528682111230296],[5.475573240547961,44.525937828611866],[5.475900554255331,44.52392670785027]],[[5.472655706268401,44.5411342638021],[5.473608870976286,44.54306378825199],[5.475124360806956,44.54380307924082],[5.477008738277959,44.543936327071776],[5.477616552595608,44.546177507478724],[5.480658396105259,44.54758097485699],[5.483195423883467,44.54744949714369],[5.484954791162954,44.546306028876934],[5.488105608621996,44.54633942817351],[5.490217058734861,44.54459318296932],[5.489668965378819,44.542318160539466],[5.486886079970541,44.5411798355711],[5.487296906913634,44.5395928610145],[5.486370656204426,44.53812596009717],[5.483832444558066,44.53722787166242],[5.481128576818834,44.537850623758715],[5.480434601461406,44.53741111134862],[5.479742982143338,44.535502524130585],[5.47770159874097,44.534489072812214],[5.474780568016353,44.53476123565085],[5.471450811917498,44.53734281262025],[5.471135898416926,44.539147814947434],[5.472655706268401,44.5411342638021]],[[5.480729164583258,44.541713969170864],[5.480984861058664,44.541900558172735],[5.480318577122143,44.54190406864336],[5.480711395460103,44.541699440024686],[5.480729164583258,44.541713969170864]]]}},{"type":"Feature","properties":{"cluster_id":1,"snapshot_index":6,"estimated_time_utc":"2026-08-09T02:11:00Z","observed_until_utc":"2026-08-09T02:11:00Z","target_time_utc":"2026-08-09T07:07:00Z","arrival_h":97.06666666666666,"hours_ago":17.983333333333334,"supported_detections_cumulative":15,"sources_cumulative":"MODIS_NRT, VIIRS_NOAA20_NRT, VIIRS_NOAA21_NRT, VIIRS_SNPP_NRT","last_source":"VIIRS_SNPP_NRT","last_satellite":"N","last_instrument":"VIIRS","detected_area_km2":3.292894637322913,"product_type":"cumulative_active_fire_detection_extent"},"geometry":{"type":"MultiLineString","coordinates":[[[5.475669555792725,44.52265800940736],[5.474165728531045,44.52025379486937],[5.471490527062026,44.51844426424437],[5.468051216064698,44.51750483377447],[5.464371260005069,44.51757847758395],[5.461010712091632,44.51865398789924],[5.458481060607279,44.520567679088735],[5.457167432476909,44.52302827740981],[5.457269955108113,44.52566122473616],[5.458773207160828,44.52806567488555],[5.461448456878141,44.52987552104821],[5.464888411317841,44.5308151621443],[5.468569229094104,44.53074150066757],[5.473159018989106,44.52917881772973],[5.47589556202435,44.52759748106921],[5.476480864073642,44.526043349795174],[5.475669555792725,44.52265800940736]],[[5.472682918906314,44.541596770408866],[5.474152403426812,44.54342294104459],[5.477008738277959,44.543936327071776],[5.477083892902957,44.545433446170705],[5.478108298902142,44.54657301420134],[5.48181947824999,44.54767758838542],[5.483580061653332,44.54730865503854],[5.484954791162954,44.546306028876934],[5.48740261713563,44.546504829151864],[5.48931091966958,44.5457339233443],[5.490233106396738,44.544550555104585],[5.490020301916639,44.54275892120391],[5.490781837249034,44.541022860584235],[5.490296614149348,44.53980214980741],[5.489033336251242,44.53885090078506],[5.486704615818777,44.53844141744995],[5.48420001860682,44.537260634309824],[5.481128576818834,44.537850623758715],[5.480434601461406,44.53741111134862],[5.47951073276953,44.53529613747463],[5.47654079476534,44.53439241651379],[5.474228532509176,44.53504335394202],[5.47130022166241,44.537584866416424],[5.471149828473815,44.539190821618874],[5.472682918906314,44.541596770408866]],[[5.480891015886661,44.541894929032274],[5.480582281180476,44.54189102692468],[5.480318577122143,44.54190406864336],[5.480711395460103,44.541699440024686],[5.480891015886661,44.541894929032274]]]}},{"type":"Feature","properties":{"cluster_id":1,"snapshot_index":7,"estimated_time_utc":"2026-08-09T12:57:00Z","observed_until_utc":"2026-08-09T12:57:00Z","target_time_utc":"2026-08-09T13:07:00Z","arrival_h":107.83333333333333,"hours_ago":7.216666666666667,"supported_detections_cumulative":17,"sources_cumulative":"MODIS_NRT, VIIRS_NOAA20_NRT, VIIRS_NOAA21_NRT, VIIRS_SNPP_NRT","last_source":"VIIRS_NOAA21_NRT","last_satellite":"N21","last_instrument":"VIIRS","detected_area_km2":3.5751650995377213,"product_type":"cumulative_active_fire_detection_extent"},"geometry":{"type":"MultiLineString","coordinates":[[[5.475399671335298,44.52197833818463],[5.473552868482201,44.51969974057848],[5.470628005546468,44.5181001584198],[5.467070317310421,44.517423047492485],[5.463421267239249,44.51777145776237],[5.460236209636962,44.51909236488677],[5.457999947683603,44.52118473217017],[5.457052981005283,44.523730081766324],[5.457539639012707,44.52634094132231],[5.459386012997418,44.528619813181116],[5.462311102278831,44.53021970030988],[5.465869539484408,44.53089696827737],[5.469519422412761,44.530548475125705],[5.47487874101976,44.52835938099234],[5.476105917285104,44.52732757722106],[5.476456056290988,44.5258232307923],[5.475399671335298,44.52197833818463]],[[5.472844040413283,44.54211330730541],[5.474458443230875,44.54357223442181],[5.477008738277959,44.543936327071776],[5.477103656396536,44.54547526825834],[5.478343506150093,44.5467161103945],[5.480364510090528,44.54751314508652],[5.48212729220183,44.547659826004555],[5.483839814793543,44.54718922221901],[5.484954791162954,44.546306028876934],[5.48740261713563,44.546504829151864],[5.489353172506471,44.54570173918885],[5.490298655392349,44.54433475284969],[5.490020301916639,44.54275892120391],[5.490756967144478,44.54080274342519],[5.489335937446524,44.53900371193665],[5.486704615818777,44.53844141744995],[5.484912910044776,44.53740242736699],[5.483031499021946,44.537245894652266],[5.481128576818834,44.537850623758715],[5.479296311535909,44.53513724676718],[5.476233051364725,44.534410163223924],[5.474182072895442,44.535072414912996],[5.471183527046568,44.53783631168142],[5.471149828473815,44.539190821618874],[5.472581578705908,44.540890355465514],[5.472844040413283,44.54211330730541]],[[5.480459477004635,44.54183928375016],[5.480711395460103,44.541699440024686],[5.480984861058664,44.541900558172735],[5.480318577122143,44.54190406864336],[5.480459477004635,44.54183928375016]],[[5.463854577279289,44.54410254962641],[5.462194546911563,44.54241138942408],[5.459348679947534,44.5420549700995],[5.456983876933727,44.5432420548179],[5.456485346066827,44.54527732755826],[5.458145289697359,44.54696857559754],[5.460991396706348,44.54732502666088],[5.46335628645735,44.54613785410553],[5.463854577279289,44.54410254962641]]]}},{"type":"Feature","properties":{"cluster_id":1,"snapshot_index":8,"estimated_time_utc":"2026-08-09T15:12:00Z","observed_until_utc":"2026-08-09T15:12:00Z","target_time_utc":"2026-08-09T19:07:00Z","arrival_h":110.08333333333333,"hours_ago":4.966666666666667,"supported_detections_cumulative":20,"sources_cumulative":"MODIS_NRT, VIIRS_NOAA20_NRT, VIIRS_NOAA21_NRT, VIIRS_SNPP_NRT","last_source":"MODIS_NRT","last_satellite":"Aqua","last_instrument":"MODIS","detected_area_km2":4.750933046305478,"product_type":"cumulative_active_fire_detection_extent"},"geometry":{"type":"MultiLineString","coordinates":[[[5.474633093620429,44.52077397582308],[5.472200516322916,44.5187969060171],[5.468895755705323,44.51763626519918],[5.465221817204393,44.51746869622121],[5.461737839130532,44.51831970124303],[5.458974077572057,44.52005976435365],[5.457351266383061,44.52242404466204],[5.45711657822397,44.525052656126995],[5.458305927803734,44.527545425191576],[5.460738395496747,44.52952280847065],[5.464043683951126,44.530683699326715],[5.467718478530506,44.530851308438926],[5.471203139445318,44.53000011013733],[5.475171024925686,44.52819667232587],[5.476361793271542,44.52683100899077],[5.475669555792725,44.52265800940736],[5.474633093620429,44.52077397582308]],[[5.497655605206034,44.53711418587124],[5.495735530826596,44.535570362624135],[5.492851626917215,44.53544974059859],[5.490693066084064,44.53682297084406],[5.490524282947963,44.53888569929435],[5.4924443275842,44.540429615299175],[5.495328484928788,44.54055024821078],[5.497487075505139,44.53917692520762],[5.497655605206034,44.53711418587124]],[[5.507765467429159,44.53744385923888],[5.505845105502439,44.53590021162243],[5.502961163175812,44.535779853672715],[5.500802835552284,44.537153281763864],[5.500634420687278,44.539216025936426],[5.502554752935347,44.54075976631341],[5.50543894870775,44.540880135125455],[5.50759730600993,44.539506614273755],[5.507765467429159,44.53744385923888]],[[5.487547812184729,44.538054004050906],[5.486021121656303,44.535657025197956],[5.483328326689386,44.53386032695848],[5.479879367909151,44.532937372016114],[5.476199176836706,44.533028626931596],[5.472847842513653,44.534120203715005],[5.470335452346805,44.53604597136797],[5.469044507886455,44.53851281756014],[5.469171684890491,44.54114523229741],[5.470661925105063,44.543506529017094],[5.473338287348656,44.54531609863092],[5.477793615402848,44.54633749185345],[5.480364510090528,44.54751314508652],[5.482552542570085,44.547604897765055],[5.484954791162954,44.546306028876934],[5.486729709873278,44.54656758049628],[5.488436728192944,44.546220595601184],[5.490122246979851,44.54480335125499],[5.490680120299109,44.54049865064457],[5.489830606719193,44.53933587080116],[5.487656026766871,44.53847015538385],[5.487547812184729,44.538054004050906]],[[5.463457452290458,44.54336294689402],[5.461182495723366,44.54208921604057],[5.45831449883813,44.542338930719815],[5.456533320120935,44.54396582730455],[5.456882393198947,44.546016955949966],[5.459157411008532,44.54729077747027],[5.462025655672464,44.54704104038128],[5.463806773147162,44.54541405312967],[5.463457452290458,44.54336294689402]]]}},{"type":"Feature","properties":{"cluster_id":1,"snapshot_index":9,"estimated_time_utc":"2026-08-09T20:10:00Z","observed_until_utc":"2026-08-09T20:10:00Z","target_time_utc":"2026-08-09T20:10:00Z","arrival_h":115.05,"hours_ago":0.0,"supported_detections_cumulative":22,"sources_cumulative":"MODIS_NRT, VIIRS_NOAA20_NRT, VIIRS_NOAA21_NRT, VIIRS_SNPP_NRT","last_source":"MODIS_NRT","last_satellite":"Terra","last_instrument":"MODIS","detected_area_km2":6.0540263419847395,"product_type":"cumulative_active_fire_detection_extent"},"geometry":{"type":"MultiLineString","coordinates":[[[5.47412985766291,44.52021787579808],[5.471438176796934,44.51842089915173],[5.467990354850588,44.51749757873276],[5.46431115038646,44.51758843672792],[5.460960502342111,44.51867964555412],[5.458448393669319,44.52060513021635],[5.457157283000213,44.5230718214669],[5.457283871282312,44.525704232914556],[5.45880907324671,44.528101599065494],[5.462255794794395,44.530200114256],[5.465869539484408,44.53089696827737],[5.470323865527368,44.530322041212166],[5.47492895305068,44.52833371690163],[5.476105917285104,44.52732757722106],[5.476480864073642,44.526043349795174],[5.475419425376335,44.52202016016504],[5.47412985766291,44.52021787579808]],[[5.495452393870448,44.53548229928648],[5.49217981983955,44.53567153576781],[5.490870730303863,44.53659049873355],[5.490316469791688,44.538061288203465],[5.489636664165224,44.53814154622273],[5.486398340818953,44.53533373894435],[5.482517866456833,44.53353967143945],[5.478959063185482,44.53286293940636],[5.475367558187893,44.53319761246147],[5.472169898901418,44.534503943625815],[5.469914384253962,44.53658606067847],[5.468944442634985,44.53912704650339],[5.469407900067815,44.54174009384974],[5.470661925105063,44.543506529017094],[5.472627957554052,44.54496346027552],[5.475801363456405,44.546330249126186],[5.480658396105259,44.54758097485699],[5.483195423883467,44.54744949714369],[5.484954791162954,44.546306028876934],[5.48781827449446,44.546420338644865],[5.489909334343067,44.545138788421674],[5.491781938262424,44.54688696395476],[5.49485621656092,44.54825754685357],[5.497623138509732,44.548687190294466],[5.501215496647256,44.54835179102394],[5.504459721827717,44.547015537277254],[5.507039993613044,44.544355081513494],[5.50763627236734,44.542420457299876],[5.507225136315978,44.53994355470035],[5.507928548656959,44.53875060934572],[5.507785250845656,44.53748567569319],[5.506760410945068,44.536346387360865],[5.50515075298187,44.535717351269064],[5.502481976895605,44.53592870225844],[5.498816719094962,44.53521282527973],[5.495452393870448,44.53548229928648]],[[5.463223857367023,44.543102975996725],[5.46076028777178,44.54202350771619],[5.457950975022633,44.54250597157873],[5.45644141564136,44.54426777678419],[5.457115970980835,44.54627694057603],[5.459579656478742,44.547356492067074],[5.462389196629508,44.54687398579358],[5.463898640108116,44.54511209737759],[5.463223857367023,44.543102975996725]]]}}],"metadata":{"generated_at_utc":"2026-08-09T23:46:15.728812Z","product_type":"cumulative_active_fire_detection_extent","product_label":"Emprises cumulées des détections actives FIRMS","not_a_burn_perimeter":true,"not_a_continuous_fire_front":true,"not_an_arrival_time_interpolation":true,"snapshot_step_hours":6,"confidence_filter":{"VIIRS":["nominal","high"],"MODIS_minimum":30},"footprint_radius_m":{"VIIRS":300.0,"MODIS":750.0},"same_pass_neighbour_m":2000.0,"continuity_distance_m":3000.0,"clusters":[{"cluster_id":1,"first_supported_detection_utc":"2026-08-05T01:07:00Z","last_supported_detection_utc":"2026-08-09T20:10:00Z","pass_states":15,"published_snapshots":9,"final_detected_area_km2":6.0540263419847395}]},"bbox":[5.45644141564136,44.51741338899443,5.507928548656959,44.548687190294466]}