{"type":"FeatureCollection","name":"fire_progression_arrival_v1","features":[{"type":"Feature","properties":{"category":"arrival_step","arrival_snapshot_index":1,"first_detected_utc":"2026-08-10T00:30:00+00:00","first_detected_local":"2026-08-10T02:30:00+02:00","area_km2":3.625,"label":"Première détection FIRMS","model_version":"fire_progression_arrival_v1"},"geometry":{"type":"Polygon","coordinates":[[[5.477544761224034,44.55429376793865],[5.477446022445111,44.55204428626182],[5.474300122077838,44.55211484203704],[5.474201516371997,44.54986535947665],[5.47105573335416,44.54993582276083],[5.470661889812621,44.540937901024606],[5.473807172103007,44.54086744922929],[5.473708605669662,44.538617976682744],[5.476853754951384,44.538547438162716],[5.4767550712236295,44.53629797050443],[5.4956250506145965,44.5358728752039],[5.495724485199146,44.53812232553298],[5.498869579240481,44.53805115984631],[5.498969146895807,44.540300609286255],[5.5021143581543575,44.540229351100976],[5.502313767589486,44.54472825019304],[5.4991683060040915,44.54479951418816],[5.499267897458947,44.54704896964346],[5.49612230276013,44.54712014693527],[5.496221776960804,44.54936960729058],[5.489930313416426,44.54951169883973],[5.490029545141913,44.55176116698273],[5.483737799567883,44.55190290585723],[5.483836788775522,44.5541523817705],[5.477544761224034,44.55429376793865]]]}},{"type":"Feature","properties":{"category":"arrival_step","arrival_snapshot_index":2,"first_detected_utc":"2026-08-10T01:13:00+00:00","first_detected_local":"2026-08-10T03:13:00+02:00","area_km2":1.062,"label":"Première détection FIRMS","model_version":"fire_progression_arrival_v1"},"geometry":{"type":"Polygon","coordinates":[[[5.490029545141913,44.55176116698273],[5.489930313416426,44.54951169883973],[5.496221776960804,44.54936960729058],[5.49612230276013,44.54712014693527],[5.499267897458947,44.54704896964346],[5.4991683060040915,44.54479951418816],[5.502313767589486,44.54472825019304],[5.5021143581543575,44.540229351100976],[5.498969146895807,44.540300609286255],[5.498869579240481,44.53805115984631],[5.495724485199146,44.53812232553298],[5.4956250506145965,44.5358728752039],[5.48619009642655,44.53608582601632],[5.486091045156696,44.53383636902186],[5.498670467722727,44.53355226700524],[5.498770019516438,44.5358017124182],[5.501914980487944,44.53573046004228],[5.502014665350536,44.53797990456578],[5.505159743519361,44.53790855969176],[5.50555906304141,44.546906346234856],[5.502413484222691,44.546977702743206],[5.502513208800922,44.549227157291675],[5.4993674968488735,44.54929842709718],[5.49946710417482,44.551547886545976],[5.490029545141913,44.55176116698273]]]}},{"type":"Feature","properties":{"category":"arrival_step","arrival_snapshot_index":3,"first_detected_utc":"2026-08-10T01:49:00+00:00","first_detected_local":"2026-08-10T03:49:00+02:00","area_km2":0.312,"label":"Première détection FIRMS","model_version":"fire_progression_arrival_v1"},"geometry":{"type":"Polygon","coordinates":[[[5.483045095902852,44.53615663043774],[5.482847251509447,44.531657712695456],[5.49542620520571,44.53137398059493],[5.495525623950432,44.533623426890095],[5.486091045156696,44.53383636902186],[5.48619009642655,44.53608582601632],[5.483045095902852,44.53615663043774]]]}},{"type":"Feature","properties":{"category":"arrival_step","arrival_snapshot_index":5,"first_detected_utc":"2026-08-10T11:36:00+00:00","first_detected_local":"2026-08-10T13:36:00+02:00","area_km2":0.875,"label":"Première détection FIRMS","model_version":"fire_progression_arrival_v1"},"geometry":{"type":"Polygon","coordinates":[[[5.502014665350536,44.53797990456578],[5.501914980487944,44.53573046004228],[5.498770019516438,44.5358017124182],[5.498670467722727,44.53355226700524],[5.495525623950432,44.533623426890095],[5.49542620520571,44.53137398059493],[5.485992001776443,44.531586914046414],[5.4858929662848475,44.52933746109334],[5.4890375835507,44.52926657574966],[5.488938430844276,44.5270171277118],[5.49837185991413,44.52680394289081],[5.498471387922521,44.529053382238196],[5.501615973538068,44.5289821385754],[5.501715634582659,44.53123157704375],[5.504860337368528,44.53116024089413],[5.505159743519361,44.53790855969176],[5.502014665350536,44.53797990456578]]]}},{"type":"Feature","properties":{"category":"arrival_step","arrival_snapshot_index":7,"first_detected_utc":"2026-08-11T00:56:00+00:00","first_detected_local":"2026-08-11T02:56:00+02:00","area_km2":0.688,"label":"Première détection FIRMS","model_version":"fire_progression_arrival_v1"},"geometry":{"type":"Polygon","coordinates":[[[5.4902280323151285,44.55626010924174],[5.490128784774498,44.55401063711786],[5.486982790724054,44.554081554254566],[5.48688367630347,44.55183208122855],[5.49946710417482,44.551547886545976],[5.4993674968488735,44.54929842709718],[5.502513208800922,44.549227157291675],[5.502413484222691,44.546977702743206],[5.50555906304141,44.546906346234856],[5.5057587705285105,44.55140525150883],[5.502612941325128,44.551476613835106],[5.502712681796258,44.55372607237012],[5.499566719437737,44.55379734798649],[5.4996663426385695,44.55604681141539],[5.4902280323151285,44.55626010924174]]]}},{"type":"Feature","properties":{"category":"arrival_step","arrival_snapshot_index":9,"first_detected_utc":"2026-08-11T01:52:00+00:00","first_detected_local":"2026-08-11T03:52:00+02:00","area_km2":1.875,"label":"Première détection FIRMS","model_version":"fire_progression_arrival_v1"},"geometry":{"type":"Polygon","coordinates":[[[5.467123382192732,44.53201036216424],[5.467025097395807,44.52976089194986],[5.4607357450357,44.52990131891071],[5.460637718285976,44.52765184499845],[5.457493155499701,44.527721921247256],[5.4573952616582275,44.52547244650847],[5.460539699343469,44.525402373116236],[5.46044168820725,44.523152903267416],[5.463585992996047,44.523082743159186],[5.463487864584966,44.520833278207064],[5.466632036479186,44.520763031390345],[5.466533790813127,44.518513571341686],[5.469677829814636,44.51844323782399],[5.469579466913481,44.51619378268551],[5.475867271292505,44.51605285270307],[5.475965884307787,44.518302302096544],[5.479109899779548,44.518231699887494],[5.479504930703974,44.52722950634295],[5.47636041491018,44.527300120065085],[5.476459067200785,44.52954957963915],[5.470169761838769,44.5296905440952],[5.470268171753818,44.53194001144182],[5.467123382192732,44.53201036216424]]]}},{"type":"Feature","properties":{"category":"arrival_step","arrival_snapshot_index":10,"first_detected_utc":"2026-08-12T00:37:00+00:00","first_detected_local":"2026-08-12T02:37:00+02:00","area_km2":0.5,"label":"Première détection FIRMS","model_version":"fire_progression_arrival_v1"},"geometry":{"type":"Polygon","coordinates":[[[5.50555906304141,44.546906346234856],[5.50505993351917,44.535659118076524],[5.508204878600165,44.535587686521254],[5.508304813737005,44.53783712522456],[5.511449875993522,44.53776560116457],[5.511750104641401,44.54451392058232],[5.508604666918093,44.54458545338977],[5.50870463390515,44.54683490011874],[5.50555906304141,44.546906346234856]]]}},{"type":"Feature","properties":{"category":"firms_extent_snapshot","snapshot_index":1,"pass_time_utc":"2026-08-10T00:30:00+00:00","dt_local":"2026-08-10T02:30:00+02:00","label":"Emprise FIRMS cumulée à ce passage","interpretation":"Enveloppe des détections FIRMS, pas une surface brûlée","cumulative":true,"point_count":5,"extent_method":"cumulative_detection_extent_smoothed_landmasked_web_v1","local_cluster_link_m":10000.0,"model_version":"fire_progression_arrival_v1"},"geometry":{"type":"Polygon","coordinates":[[[5.4740471879804256,44.546544626288224],[5.475202189308031,44.549042336639566],[5.474756344989786,44.551269458071936],[5.475122833509601,44.5524004336049],[5.476787450000915,44.553633678019075],[5.479017755966475,44.55391672442622],[5.481521910167532,44.55288607962115],[5.48265307834296,44.55035120441107],[5.483929428745171,44.54927451353523],[5.486040376051314,44.54879787237319],[5.489812750150917,44.54913956295989],[5.493647733658792,44.54722438181868],[5.497734015297287,44.54686996073273],[5.499527585569132,44.545655389996135],[5.499922758724875,44.544060579896],[5.498968285109152,44.54259179249069],[5.496874764025574,44.541757587919925],[5.494697210386682,44.54192853925212],[5.492381927559187,44.543218954255586],[5.490501651597748,44.543601247904135],[5.488606016852747,44.5432599432084],[5.485985467151166,44.54179563088526],[5.484092063452379,44.54162331076549],[5.482449249379303,44.54207287027656],[5.480069761277572,44.543545195858215],[5.475625556762107,44.544263713595356],[5.4744369267692585,44.54526280370198],[5.4740471879804256,44.546544626288224]]]}},{"type":"Feature","properties":{"category":"historical_support","snapshot_index":1,"pass_time_utc":"2026-08-10T00:30:00+00:00","dt_local":"2026-08-10T02:30:00+02:00","area_km2":3.625,"label":"Isoline temporelle","coherence_level":"indisponible","coherence_fraction":0.0,"projection_displayed":false,"model_version":"fire_progression_arrival_v1"},"geometry":{"type":"Polygon","coordinates":[[[5.477544761224034,44.55429376793865],[5.477446022445111,44.55204428626182],[5.474300122077838,44.55211484203704],[5.474201516371997,44.54986535947665],[5.47105573335416,44.54993582276083],[5.470661889812621,44.540937901024606],[5.473807172103007,44.54086744922929],[5.473708605669662,44.538617976682744],[5.476853754951384,44.538547438162716],[5.4767550712236295,44.53629797050443],[5.4956250506145965,44.5358728752039],[5.495724485199146,44.53812232553298],[5.498869579240481,44.53805115984631],[5.498969146895807,44.540300609286255],[5.5021143581543575,44.540229351100976],[5.502313767589486,44.54472825019304],[5.4991683060040915,44.54479951418816],[5.499267897458947,44.54704896964346],[5.49612230276013,44.54712014693527],[5.496221776960804,44.54936960729058],[5.489930313416426,44.54951169883973],[5.490029545141913,44.55176116698273],[5.483737799567883,44.55190290585723],[5.483836788775522,44.5541523817705],[5.477544761224034,44.55429376793865]]]}},{"type":"Feature","properties":{"category":"observed_front","snapshot_index":1,"pass_time_utc":"2026-08-10T00:30:00+00:00","dt_local":"2026-08-10T02:30:00+02:00","area_km2":3.625,"label":"Activité observée","coherence_level":"indisponible","coherence_fraction":0.0,"projection_displayed":false,"model_version":"fire_progression_arrival_v1"},"geometry":{"type":"Polygon","coordinates":[[[5.477544761224034,44.55429376793865],[5.477446022445111,44.55204428626182],[5.474300122077838,44.55211484203704],[5.474201516371997,44.54986535947665],[5.47105573335416,44.54993582276083],[5.470661889812621,44.540937901024606],[5.473807172103007,44.54086744922929],[5.473708605669662,44.538617976682744],[5.476853754951384,44.538547438162716],[5.4767550712236295,44.53629797050443],[5.4956250506145965,44.5358728752039],[5.495724485199146,44.53812232553298],[5.498869579240481,44.53805115984631],[5.498969146895807,44.540300609286255],[5.5021143581543575,44.540229351100976],[5.502313767589486,44.54472825019304],[5.4991683060040915,44.54479951418816],[5.499267897458947,44.54704896964346],[5.49612230276013,44.54712014693527],[5.496221776960804,44.54936960729058],[5.489930313416426,44.54951169883973],[5.490029545141913,44.55176116698273],[5.483737799567883,44.55190290585723],[5.483836788775522,44.5541523817705],[5.477544761224034,44.55429376793865]]]}},{"type":"Feature","properties":{"category":"historical_support","snapshot_index":2,"pass_time_utc":"2026-08-10T01:13:00+00:00","dt_local":"2026-08-10T03:13:00+02:00","area_km2":4.688,"label":"Isoline temporelle","coherence_level":"indisponible","coherence_fraction":0.0,"projection_displayed":false,"model_version":"fire_progression_arrival_v1"},"geometry":{"type":"Polygon","coordinates":[[[5.477544761224034,44.55429376793865],[5.477446022445111,44.55204428626182],[5.474300122077838,44.55211484203704],[5.474201516371997,44.54986535947665],[5.47105573335416,44.54993582276083],[5.470661889812621,44.540937901024606],[5.473807172103007,44.54086744922929],[5.473708605669662,44.538617976682744],[5.476853754951384,44.538547438162716],[5.4767550712236295,44.53629797050443],[5.48619009642655,44.53608582601632],[5.486091045156696,44.53383636902186],[5.498670467722727,44.53355226700524],[5.498770019516438,44.5358017124182],[5.501914980487944,44.53573046004228],[5.502014665350536,44.53797990456578],[5.505159743519361,44.53790855969176],[5.50555906304141,44.546906346234856],[5.502413484222691,44.546977702743206],[5.502513208800922,44.549227157291675],[5.4993674968488735,44.54929842709718],[5.49946710417482,44.551547886545976],[5.483737799567883,44.55190290585723],[5.483836788775522,44.5541523817705],[5.477544761224034,44.55429376793865]]]}},{"type":"Feature","properties":{"category":"observed_front","snapshot_index":2,"pass_time_utc":"2026-08-10T01:13:00+00:00","dt_local":"2026-08-10T03:13:00+02:00","area_km2":3.125,"label":"Activité observée","coherence_level":"indisponible","coherence_fraction":0.0,"projection_displayed":false,"model_version":"fire_progression_arrival_v1"},"geometry":{"type":"Polygon","coordinates":[[[5.48688367630347,44.55183208122855],[5.486784569780028,44.549582610194754],[5.483638818247429,44.54965343193631],[5.48344087926431,44.54515449008493],[5.480295370223463,44.545225216446084],[5.4800977131159625,44.540726276838214],[5.48324297181863,44.54065555624314],[5.483045095902852,44.53615663043774],[5.48619009642655,44.53608582601632],[5.486091045156696,44.53383636902186],[5.498670467722727,44.53355226700524],[5.498770019516438,44.5358017124182],[5.501914980487944,44.53573046004228],[5.502014665350536,44.53797990456578],[5.505159743519361,44.53790855969176],[5.50555906304141,44.546906346234856],[5.502413484222691,44.546977702743206],[5.502513208800922,44.549227157291675],[5.4993674968488735,44.54929842709718],[5.49946710417482,44.551547886545976],[5.48688367630347,44.55183208122855]]]}},{"type":"Feature","properties":{"category":"historical_support","snapshot_index":3,"pass_time_utc":"2026-08-10T01:49:00+00:00","dt_local":"2026-08-10T03:49:00+02:00","area_km2":5.0,"label":"Isoline temporelle","coherence_level":"indisponible","coherence_fraction":0.0,"projection_displayed":false,"model_version":"fire_progression_arrival_v1"},"geometry":{"type":"Polygon","coordinates":[[[5.477544761224034,44.55429376793865],[5.477446022445111,44.55204428626182],[5.474300122077838,44.55211484203704],[5.474201516371997,44.54986535947665],[5.47105573335416,44.54993582276083],[5.470661889812621,44.540937901024606],[5.473807172103007,44.54086744922929],[5.473708605669662,44.538617976682744],[5.476853754951384,44.538547438162716],[5.4767550712236295,44.53629797050443],[5.483045095902852,44.53615663043774],[5.482847251509447,44.531657712695456],[5.49542620520571,44.53137398059493],[5.495525623950432,44.533623426890095],[5.498670467722727,44.53355226700524],[5.498770019516438,44.5358017124182],[5.501914980487944,44.53573046004228],[5.502014665350536,44.53797990456578],[5.505159743519361,44.53790855969176],[5.50555906304141,44.546906346234856],[5.502413484222691,44.546977702743206],[5.502513208800922,44.549227157291675],[5.4993674968488735,44.54929842709718],[5.49946710417482,44.551547886545976],[5.483737799567883,44.55190290585723],[5.483836788775522,44.5541523817705],[5.477544761224034,44.55429376793865]]]}},{"type":"Feature","properties":{"category":"observed_front","snapshot_index":3,"pass_time_utc":"2026-08-10T01:49:00+00:00","dt_local":"2026-08-10T03:49:00+02:00","area_km2":3.312,"label":"Activité observée","coherence_level":"indisponible","coherence_fraction":0.0,"projection_displayed":false,"model_version":"fire_progression_arrival_v1"},"geometry":{"type":"Polygon","coordinates":[[[5.490029545141913,44.55176116698273],[5.489930313416426,44.54951169883973],[5.483638818247429,44.54965343193631],[5.48344087926431,44.54515449008493],[5.480295370223463,44.545225216446084],[5.479900087498562,44.536227345267214],[5.483045095902852,44.53615663043774],[5.482847251509447,44.531657712695456],[5.49542620520571,44.53137398059493],[5.495525623950432,44.533623426890095],[5.498670467722727,44.53355226700524],[5.498770019516438,44.5358017124182],[5.501914980487944,44.53573046004228],[5.5021143581543575,44.540229351100976],[5.505259561470729,44.54015800331856],[5.505459221230804,44.54465689659345],[5.502313767589486,44.54472825019304],[5.502513208800922,44.549227157291675],[5.496221776960804,44.54936960729058],[5.496321259087544,44.55161906964109],[5.490029545141913,44.55176116698273]]]}},{"type":"Feature","properties":{"category":"firms_extent_snapshot","snapshot_index":4,"pass_time_utc":"2026-08-10T02:11:00+00:00","dt_local":"2026-08-10T04:11:00+02:00","label":"Emprise FIRMS cumulée à ce passage","interpretation":"Enveloppe des détections FIRMS, pas une surface brûlée","cumulative":true,"point_count":29,"extent_method":"cumulative_detection_extent_smoothed_landmasked_web_v1","local_cluster_link_m":10000.0,"model_version":"fire_progression_arrival_v1"},"geometry":{"type":"Polygon","coordinates":[[[5.4740471879804256,44.546544626288224],[5.475202189308031,44.549042336639566],[5.474953680780159,44.55210420325738],[5.475890728275127,44.55316889968806],[5.477268336888412,44.55378329611254],[5.479017755966475,44.55391672442622],[5.4807865098717885,44.55340305206126],[5.483130343696986,44.550198165233006],[5.485436139964356,44.549271749443456],[5.4880263742757265,44.549653994302695],[5.4915190185601555,44.552003457019325],[5.496193088659029,44.55187951664785],[5.498092317849422,44.55109743100462],[5.502541321139974,44.546843507339034],[5.502828346200808,44.5450594126132],[5.502056661118868,44.54145983529506],[5.500440988851513,44.539809582741555],[5.497089823696302,44.539144420280735],[5.495703208734173,44.538393019621346],[5.4949225596413696,44.537284922512136],[5.494635064971311,44.53532528085578],[5.4936430141836565,44.53422199924514],[5.492041024043165,44.53358346691919],[5.490207387295102,44.533560460782944],[5.488117232374305,44.534501282134244],[5.48674335378314,44.537018782659096],[5.48415742384073,44.53880171549498],[5.482673008265548,44.54187773868862],[5.480069761277572,44.543545195858215],[5.475563881201948,44.544296893516936],[5.4744369267692585,44.54526280370198],[5.4740471879804256,44.546544626288224]]]}},{"type":"Feature","properties":{"category":"historical_support","snapshot_index":4,"pass_time_utc":"2026-08-10T02:11:00+00:00","dt_local":"2026-08-10T04:11:00+02:00","area_km2":5.0,"label":"Isoline temporelle","coherence_level":"indisponible","coherence_fraction":0.0,"projection_displayed":false,"model_version":"fire_progression_arrival_v1"},"geometry":{"type":"Polygon","coordinates":[[[5.477544761224034,44.55429376793865],[5.477446022445111,44.55204428626182],[5.474300122077838,44.55211484203704],[5.474201516371997,44.54986535947665],[5.47105573335416,44.54993582276083],[5.470661889812621,44.540937901024606],[5.473807172103007,44.54086744922929],[5.473708605669662,44.538617976682744],[5.476853754951384,44.538547438162716],[5.4767550712236295,44.53629797050443],[5.483045095902852,44.53615663043774],[5.482847251509447,44.531657712695456],[5.49542620520571,44.53137398059493],[5.495525623950432,44.533623426890095],[5.498670467722727,44.53355226700524],[5.498770019516438,44.5358017124182],[5.501914980487944,44.53573046004228],[5.502014665350536,44.53797990456578],[5.505159743519361,44.53790855969176],[5.50555906304141,44.546906346234856],[5.502413484222691,44.546977702743206],[5.502513208800922,44.549227157291675],[5.4993674968488735,44.54929842709718],[5.49946710417482,44.551547886545976],[5.483737799567883,44.55190290585723],[5.483836788775522,44.5541523817705],[5.477544761224034,44.55429376793865]]]}},{"type":"Feature","properties":{"category":"observed_front","snapshot_index":4,"pass_time_utc":"2026-08-10T02:11:00+00:00","dt_local":"2026-08-10T04:11:00+02:00","area_km2":2.938,"label":"Activité observée","coherence_level":"indisponible","coherence_fraction":0.0,"projection_displayed":false,"model_version":"fire_progression_arrival_v1"},"geometry":{"type":"Polygon","coordinates":[[[5.483737799567883,44.55190290585723],[5.483638818247429,44.54965343193631],[5.480493058828588,44.54972416406404],[5.4799988963714705,44.53847681004644],[5.483144029919973,44.53840609233421],[5.483045095902852,44.53615663043774],[5.489335089059704,44.53601493200329],[5.48923591265747,44.53376547789875],[5.492380772258698,44.533694497188044],[5.492480073792369,44.53594394839904],[5.498770019516438,44.5358017124182],[5.498869579240481,44.53805115984631],[5.502014665350536,44.53797990456578],[5.502214058900358,44.54247879964451],[5.505359387374226,44.542407448953576],[5.505459221230804,44.54465689659345],[5.502313767589486,44.54472825019304],[5.502513208800922,44.549227157291675],[5.4993674968488735,44.54929842709718],[5.49946710417482,44.551547886545976],[5.483737799567883,44.55190290585723]]]}},{"type":"Feature","properties":{"category":"historical_support","snapshot_index":5,"pass_time_utc":"2026-08-10T11:36:00+00:00","dt_local":"2026-08-10T13:36:00+02:00","area_km2":5.875,"label":"Isoline temporelle","coherence_level":"indisponible","coherence_fraction":0.0,"projection_displayed":false,"model_version":"fire_progression_arrival_v1"},"geometry":{"type":"Polygon","coordinates":[[[5.477544761224034,44.55429376793865],[5.477446022445111,44.55204428626182],[5.474300122077838,44.55211484203704],[5.474201516371997,44.54986535947665],[5.47105573335416,44.54993582276083],[5.470661889812621,44.540937901024606],[5.473807172103007,44.54086744922929],[5.473708605669662,44.538617976682744],[5.476853754951384,44.538547438162716],[5.4767550712236295,44.53629797050443],[5.483045095902852,44.53615663043774],[5.482847251509447,44.531657712695456],[5.485992001776443,44.531586914046414],[5.4858929662848475,44.52933746109334],[5.4890375835507,44.52926657574966],[5.488938430844276,44.5270171277118],[5.49837185991413,44.52680394289081],[5.498471387922521,44.529053382238196],[5.501615973538068,44.5289821385754],[5.501715634582659,44.53123157704375],[5.504860337368528,44.53116024089413],[5.50555906304141,44.546906346234856],[5.502413484222691,44.546977702743206],[5.502513208800922,44.549227157291675],[5.4993674968488735,44.54929842709718],[5.49946710417482,44.551547886545976],[5.483737799567883,44.55190290585723],[5.483836788775522,44.5541523817705],[5.477544761224034,44.55429376793865]]]}},{"type":"Feature","properties":{"category":"observed_front","snapshot_index":5,"pass_time_utc":"2026-08-10T11:36:00+00:00","dt_local":"2026-08-10T13:36:00+02:00","area_km2":2.312,"label":"Activité observée","coherence_level":"indisponible","coherence_fraction":0.0,"projection_displayed":false,"model_version":"fire_progression_arrival_v1"},"geometry":{"type":"Polygon","coordinates":[[[5.489632665673118,44.54276330639678],[5.489533465566583,44.54051384625564],[5.48638822263882,44.54058474604885],[5.486289155586943,44.53833528502641],[5.483144029919973,44.53840609233421],[5.482847251509447,44.531657712695456],[5.485992001776443,44.531586914046414],[5.4858929662848475,44.52933746109334],[5.4890375835507,44.52926657574966],[5.488938430844276,44.5270171277118],[5.49837185991413,44.52680394289081],[5.498471387922521,44.529053382238196],[5.501615973538068,44.5289821385754],[5.501715634582659,44.53123157704375],[5.504860337368528,44.53116024089413],[5.505159743519361,44.53790855969176],[5.502014665350536,44.53797990456578],[5.5021143581543575,44.540229351100976],[5.498969146895807,44.540300609286255],[5.4990687224833605,44.542550060734655],[5.489632665673118,44.54276330639678]]]}},{"type":"Feature","properties":{"category":"firms_extent_snapshot","snapshot_index":6,"pass_time_utc":"2026-08-10T11:53:00+00:00","dt_local":"2026-08-10T13:53:00+02:00","label":"Emprise FIRMS cumulée à ce passage","interpretation":"Enveloppe des détections FIRMS, pas une surface brûlée","cumulative":true,"point_count":31,"extent_method":"cumulative_detection_extent_smoothed_landmasked_web_v1","local_cluster_link_m":10000.0,"model_version":"fire_progression_arrival_v1"},"geometry":{"type":"Polygon","coordinates":[[[5.4740471879804256,44.546544626288224],[5.475202189308031,44.549042336639566],[5.474953680780159,44.55210420325738],[5.475890728275127,44.55316889968806],[5.477268336888412,44.55378329611254],[5.479017755966475,44.55391672442622],[5.4807865098717885,44.55340305206126],[5.483130343696986,44.550198165233006],[5.485436139964356,44.549271749443456],[5.4880263742757265,44.549653994302695],[5.4915190185601555,44.552003457019325],[5.496193088659029,44.55187951664785],[5.498092317849422,44.55109743100462],[5.502541321139974,44.546843507339034],[5.502828346200808,44.5450594126132],[5.502056661118868,44.54145983529506],[5.500905479118341,44.540065049858235],[5.497211398100532,44.53839149500174],[5.495302984237616,44.5348319599065],[5.492320649060013,44.53364656487294],[5.490207387295102,44.533560460782944],[5.488117232374305,44.534501282134244],[5.48674335378314,44.537018782659096],[5.48415742384073,44.53880171549498],[5.482673008265548,44.54187773868862],[5.480069761277572,44.543545195858215],[5.475563881201948,44.544296893516936],[5.4744369267692585,44.54526280370198],[5.4740471879804256,44.546544626288224]]]}},{"type":"Feature","properties":{"category":"historical_support","snapshot_index":6,"pass_time_utc":"2026-08-10T11:53:00+00:00","dt_local":"2026-08-10T13:53:00+02:00","area_km2":5.875,"label":"Isoline temporelle","coherence_level":"indisponible","coherence_fraction":0.0,"projection_displayed":false,"model_version":"fire_progression_arrival_v1"},"geometry":{"type":"Polygon","coordinates":[[[5.477544761224034,44.55429376793865],[5.477446022445111,44.55204428626182],[5.474300122077838,44.55211484203704],[5.474201516371997,44.54986535947665],[5.47105573335416,44.54993582276083],[5.470661889812621,44.540937901024606],[5.473807172103007,44.54086744922929],[5.473708605669662,44.538617976682744],[5.476853754951384,44.538547438162716],[5.4767550712236295,44.53629797050443],[5.483045095902852,44.53615663043774],[5.482847251509447,44.531657712695456],[5.485992001776443,44.531586914046414],[5.4858929662848475,44.52933746109334],[5.4890375835507,44.52926657574966],[5.488938430844276,44.5270171277118],[5.49837185991413,44.52680394289081],[5.498471387922521,44.529053382238196],[5.501615973538068,44.5289821385754],[5.501715634582659,44.53123157704375],[5.504860337368528,44.53116024089413],[5.50555906304141,44.546906346234856],[5.502413484222691,44.546977702743206],[5.502513208800922,44.549227157291675],[5.4993674968488735,44.54929842709718],[5.49946710417482,44.551547886545976],[5.483737799567883,44.55190290585723],[5.483836788775522,44.5541523817705],[5.477544761224034,44.55429376793865]]]}},{"type":"Feature","properties":{"category":"observed_front","snapshot_index":6,"pass_time_utc":"2026-08-10T11:53:00+00:00","dt_local":"2026-08-10T13:53:00+02:00","area_km2":2.312,"label":"Activité observée","coherence_level":"indisponible","coherence_fraction":0.0,"projection_displayed":false,"model_version":"fire_progression_arrival_v1"},"geometry":{"type":"Polygon","coordinates":[[[5.489632665673118,44.54276330639678],[5.489533465566583,44.54051384625564],[5.48638822263882,44.54058474604885],[5.486289155586943,44.53833528502641],[5.483144029919973,44.53840609233421],[5.482847251509447,44.531657712695456],[5.485992001776443,44.531586914046414],[5.4858929662848475,44.52933746109334],[5.4890375835507,44.52926657574966],[5.488938430844276,44.5270171277118],[5.49837185991413,44.52680394289081],[5.498471387922521,44.529053382238196],[5.501615973538068,44.5289821385754],[5.501715634582659,44.53123157704375],[5.504860337368528,44.53116024089413],[5.505159743519361,44.53790855969176],[5.502014665350536,44.53797990456578],[5.5021143581543575,44.540229351100976],[5.498969146895807,44.540300609286255],[5.4990687224833605,44.542550060734655],[5.489632665673118,44.54276330639678]]]}},{"type":"Feature","properties":{"category":"historical_support","snapshot_index":7,"pass_time_utc":"2026-08-11T00:56:00+00:00","dt_local":"2026-08-11T02:56:00+02:00","area_km2":6.562,"label":"Isoline temporelle","coherence_level":"indisponible","coherence_fraction":0.0,"projection_displayed":false,"model_version":"fire_progression_arrival_v1"},"geometry":{"type":"Polygon","coordinates":[[[5.4902280323151285,44.55626010924174],[5.490128784774498,44.55401063711786],[5.486982790724054,44.554081554254566],[5.48688367630347,44.55183208122855],[5.483737799567883,44.55190290585723],[5.483836788775522,44.5541523817705],[5.477544761224034,44.55429376793865],[5.477446022445111,44.55204428626182],[5.474300122077838,44.55211484203704],[5.474201516371997,44.54986535947665],[5.47105573335416,44.54993582276083],[5.470661889812621,44.540937901024606],[5.473807172103007,44.54086744922929],[5.473708605669662,44.538617976682744],[5.476853754951384,44.538547438162716],[5.4767550712236295,44.53629797050443],[5.483045095902852,44.53615663043774],[5.482847251509447,44.531657712695456],[5.485992001776443,44.531586914046414],[5.4858929662848475,44.52933746109334],[5.4890375835507,44.52926657574966],[5.488938430844276,44.5270171277118],[5.49837185991413,44.52680394289081],[5.498471387922521,44.529053382238196],[5.501615973538068,44.5289821385754],[5.501715634582659,44.53123157704375],[5.504860337368528,44.53116024089413],[5.5057587705285105,44.55140525150883],[5.502612941325128,44.551476613835106],[5.502712681796258,44.55372607237012],[5.499566719437737,44.55379734798649],[5.4996663426385695,44.55604681141539],[5.4902280323151285,44.55626010924174]]]}},{"type":"Feature","properties":{"category":"observed_front","snapshot_index":7,"pass_time_utc":"2026-08-11T00:56:00+00:00","dt_local":"2026-08-11T02:56:00+02:00","area_km2":2.312,"label":"Activité observée","coherence_level":"indisponible","coherence_fraction":0.0,"projection_displayed":false,"model_version":"fire_progression_arrival_v1"},"geometry":{"type":"Polygon","coordinates":[[[5.4902280323151285,44.55626010924174],[5.490128784774498,44.55401063711786],[5.486982790724054,44.554081554254566],[5.48688367630347,44.55183208122855],[5.483737799567883,44.55190290585723],[5.48344087926431,44.54515449008493],[5.486586380420799,44.54508367411725],[5.486487297583125,44.54283420908023],[5.489632665673118,44.54276330639678],[5.489533465566583,44.54051384625564],[5.498969146895807,44.540300609286255],[5.4990687224833605,44.542550060734655],[5.502214058900358,44.54247879964451],[5.502313767589486,44.54472825019304],[5.505459221230804,44.54465689659345],[5.5057587705285105,44.55140525150883],[5.502612941325128,44.551476613835106],[5.502712681796258,44.55372607237012],[5.499566719437737,44.55379734798649],[5.4996663426385695,44.55604681141539],[5.4902280323151285,44.55626010924174]]]}},{"type":"Feature","properties":{"category":"historical_support","snapshot_index":8,"pass_time_utc":"2026-08-11T01:32:00+00:00","dt_local":"2026-08-11T03:32:00+02:00","area_km2":6.562,"label":"Isoline temporelle","coherence_level":"indisponible","coherence_fraction":0.0,"projection_displayed":false,"model_version":"fire_progression_arrival_v1"},"geometry":{"type":"Polygon","coordinates":[[[5.4902280323151285,44.55626010924174],[5.490128784774498,44.55401063711786],[5.486982790724054,44.554081554254566],[5.48688367630347,44.55183208122855],[5.483737799567883,44.55190290585723],[5.483836788775522,44.5541523817705],[5.477544761224034,44.55429376793865],[5.477446022445111,44.55204428626182],[5.474300122077838,44.55211484203704],[5.474201516371997,44.54986535947665],[5.47105573335416,44.54993582276083],[5.470661889812621,44.540937901024606],[5.473807172103007,44.54086744922929],[5.473708605669662,44.538617976682744],[5.476853754951384,44.538547438162716],[5.4767550712236295,44.53629797050443],[5.483045095902852,44.53615663043774],[5.482847251509447,44.531657712695456],[5.485992001776443,44.531586914046414],[5.4858929662848475,44.52933746109334],[5.4890375835507,44.52926657574966],[5.488938430844276,44.5270171277118],[5.49837185991413,44.52680394289081],[5.498471387922521,44.529053382238196],[5.501615973538068,44.5289821385754],[5.501715634582659,44.53123157704375],[5.504860337368528,44.53116024089413],[5.5057587705285105,44.55140525150883],[5.502612941325128,44.551476613835106],[5.502712681796258,44.55372607237012],[5.499566719437737,44.55379734798649],[5.4996663426385695,44.55604681141539],[5.4902280323151285,44.55626010924174]]]}},{"type":"Feature","properties":{"category":"firms_extent_snapshot","snapshot_index":9,"pass_time_utc":"2026-08-11T01:52:00+00:00","dt_local":"2026-08-11T03:52:00+02:00","label":"Emprise FIRMS cumulée à ce passage","interpretation":"Enveloppe des détections FIRMS, pas une surface brûlée","cumulative":true,"point_count":37,"extent_method":"cumulative_detection_extent_smoothed_landmasked_web_v1","local_cluster_link_m":10000.0,"model_version":"fire_progression_arrival_v1"},"geometry":{"type":"MultiPolygon","coordinates":[[[[5.4740471879804256,44.546544626288224],[5.475202189308031,44.549042336639566],[5.474953680780159,44.55210420325738],[5.475890728275127,44.55316889968806],[5.477268336888412,44.55378329611254],[5.480152985779575,44.55367627557141],[5.482864119266398,44.5515968076791],[5.484915944309592,44.55099196254327],[5.486865585740621,44.55123447519279],[5.490697107473697,44.553050491128595],[5.496893125338314,44.55214951153204],[5.499032329412472,44.551165604002534],[5.500250096571308,44.54887348764477],[5.502566802611526,44.54679140832862],[5.502828346200808,44.5450594126132],[5.502056661118868,44.54145983529506],[5.500905479118341,44.540065049858235],[5.497211398100532,44.53839149500174],[5.495302984237616,44.5348319599065],[5.492320649060013,44.53364656487294],[5.490207387295102,44.533560460782944],[5.488117232374305,44.534501282134244],[5.48674335378314,44.537018782659096],[5.48415742384073,44.53880171549498],[5.482673008265548,44.54187773868862],[5.480069761277572,44.543545195858215],[5.475563881201948,44.544296893516936],[5.4744369267692585,44.54526280370198],[5.4740471879804256,44.546544626288224]]],[[[5.463148494151364,44.526744253181185],[5.463649317622463,44.5280061437804],[5.464922588047948,44.528950135862104],[5.466667615087678,44.52935327834206],[5.468541778752665,44.52909642135002],[5.472531722486681,44.525777347998364],[5.472921874999801,44.52455073386959],[5.472555611222148,44.52341976411619],[5.469904206030959,44.52172507809295],[5.46694835916196,44.52181358401351],[5.465224365656647,44.52300368266477],[5.463148494151364,44.526744253181185]]]]}},{"type":"Feature","properties":{"category":"historical_support","snapshot_index":9,"pass_time_utc":"2026-08-11T01:52:00+00:00","dt_local":"2026-08-11T03:52:00+02:00","area_km2":8.438,"label":"Isoline temporelle","coherence_level":"indisponible","coherence_fraction":0.0,"projection_displayed":false,"model_version":"fire_progression_arrival_v1"},"geometry":{"type":"MultiPolygon","coordinates":[[[[5.470268171753818,44.53194001144182],[5.470169761838769,44.5296905440952],[5.476459067200785,44.52954957963915],[5.47636041491018,44.527300120065085],[5.479504930703974,44.52722950634295],[5.479109899779548,44.518231699887494],[5.475965884307787,44.518302302096544],[5.475867271292505,44.51605285270307],[5.469579466913481,44.51619378268551],[5.469677829814636,44.51844323782399],[5.466533790813127,44.518513571341686],[5.466632036479186,44.520763031390345],[5.463487864584966,44.520833278207064],[5.463585992996047,44.523082743159186],[5.46044168820725,44.523152903267416],[5.460539699343469,44.525402373116236],[5.4573952616582275,44.52547244650847],[5.457493155499701,44.527721921247256],[5.460637718285976,44.52765184499845],[5.4607357450357,44.52990131891071],[5.467025097395807,44.52976089194986],[5.467123382192732,44.53201036216424],[5.470268171753818,44.53194001144182]]],[[[5.4996663426385695,44.55604681141539],[5.499566719437737,44.55379734798649],[5.502712681796258,44.55372607237012],[5.502612941325128,44.551476613835106],[5.5057587705285105,44.55140525150883],[5.504860337368528,44.53116024089413],[5.501715634582659,44.53123157704375],[5.501615973538068,44.5289821385754],[5.498471387922521,44.529053382238196],[5.49837185991413,44.52680394289081],[5.488938430844276,44.5270171277118],[5.4890375835507,44.52926657574966],[5.4858929662848475,44.52933746109334],[5.485992001776443,44.531586914046414],[5.482847251509447,44.531657712695456],[5.483045095902852,44.53615663043774],[5.4767550712236295,44.53629797050443],[5.476853754951384,44.538547438162716],[5.473708605669662,44.538617976682744],[5.473807172103007,44.54086744922929],[5.470661889812621,44.540937901024606],[5.47105573335416,44.54993582276083],[5.474201516371997,44.54986535947665],[5.474300122077838,44.55211484203704],[5.477446022445111,44.55204428626182],[5.477544761224034,44.55429376793865],[5.483836788775522,44.5541523817705],[5.483737799567883,44.55190290585723],[5.48688367630347,44.55183208122855],[5.486982790724054,44.554081554254566],[5.490128784774498,44.55401063711786],[5.4902280323151285,44.55626010924174],[5.4996663426385695,44.55604681141539]]]]}},{"type":"Feature","properties":{"category":"observed_front","snapshot_index":9,"pass_time_utc":"2026-08-11T01:52:00+00:00","dt_local":"2026-08-11T03:52:00+02:00","area_km2":4.875,"label":"Activité observée","coherence_level":"indisponible","coherence_fraction":0.0,"projection_displayed":false,"model_version":"fire_progression_arrival_v1"},"geometry":{"type":"MultiPolygon","coordinates":[[[[5.470268171753818,44.53194001144182],[5.470169761838769,44.5296905440952],[5.476459067200785,44.52954957963915],[5.47636041491018,44.527300120065085],[5.479504930703974,44.52722950634295],[5.479109899779548,44.518231699887494],[5.475965884307787,44.518302302096544],[5.475867271292505,44.51605285270307],[5.469579466913481,44.51619378268551],[5.4694811118447,44.51394432959347],[5.466337322950183,44.51401465737726],[5.466435552970437,44.51626411333621],[5.460147701626983,44.51640450595476],[5.4602456893499385,44.51865396968333],[5.457101626908139,44.51872403450661],[5.457493155499701,44.527721921247256],[5.460637718285976,44.52765184499845],[5.4607357450357,44.52990131891071],[5.467025097395807,44.52976089194986],[5.467123382192732,44.53201036216424],[5.470268171753818,44.53194001144182]]],[[[5.4996663426385695,44.55604681141539],[5.499566719437737,44.55379734798649],[5.502712681796258,44.55372607237012],[5.502513208800922,44.549227157291675],[5.505658912806996,44.54915579787443],[5.50555906304141,44.546906346234856],[5.502413484222691,44.546977702743206],[5.502214058900358,44.54247879964451],[5.4990687224833605,44.542550060734655],[5.498969146895807,44.540300609286255],[5.48638822263882,44.54058474604885],[5.486487297583125,44.54283420908023],[5.483341921599761,44.542905022161165],[5.483539844813219,44.5474039600111],[5.4803942105883525,44.54747468925547],[5.480493058828588,44.54972416406404],[5.483638818247429,44.54965343193631],[5.483737799567883,44.55190290585723],[5.48688367630347,44.55183208122855],[5.486982790724054,44.554081554254566],[5.490128784774498,44.55401063711786],[5.4902280323151285,44.55626010924174],[5.4996663426385695,44.55604681141539]]]]}},{"type":"Feature","properties":{"category":"firms_extent_snapshot","snapshot_index":10,"pass_time_utc":"2026-08-12T00:37:00+00:00","dt_local":"2026-08-12T02:37:00+02:00","label":"Emprise FIRMS cumulée à ce passage","interpretation":"Enveloppe des détections FIRMS, pas une surface brûlée","cumulative":true,"point_count":38,"extent_method":"cumulative_detection_extent_smoothed_landmasked_web_v1","local_cluster_link_m":10000.0,"model_version":"fire_progression_arrival_v1"},"geometry":{"type":"MultiPolygon","coordinates":[[[[5.456397279900684,44.54477402315496],[5.457867419760755,44.54682892818512],[5.461021381912289,44.547319783152375],[5.463206591104696,44.54629202282093],[5.464875976176685,44.54337357284653],[5.461432229972641,44.54214690883002],[5.459318697381765,44.54206021314236],[5.457179146580793,44.543043347521156],[5.456397279900684,44.54477402315496]]],[[[5.4680487625283405,44.542486288446234],[5.4700224928101875,44.54305003628995],[5.473618904761522,44.54578446461998],[5.475202189308031,44.549042336639566],[5.474871711835108,44.55190283109889],[5.476532189419301,44.55353036926915],[5.478278059040693,44.55393333231143],[5.480012323570443,44.553721687349736],[5.483062407953389,44.55148765277999],[5.485165737861726,44.550981286961175],[5.487088644368768,44.55131558098138],[5.489636350579618,44.55282280469919],[5.491804624351065,44.55304818600614],[5.49823544152915,44.551715885358746],[5.500630952528206,44.548818143732205],[5.50570256151297,44.54606493950757],[5.507516677884364,44.54311066157582],[5.507930432407291,44.537925772580806],[5.507039959880399,44.53655222215563],[5.505105468283156,44.53571032179592],[5.496386414225784,44.535140117247515],[5.4913112522925465,44.53349665833227],[5.4873479831134,44.53458933968105],[5.485635170849114,44.53464800889114],[5.480888735649002,44.533097623356014],[5.475609551861429,44.53237760746965],[5.474449383799276,44.53145247610365],[5.473991285709162,44.53025365436938],[5.4743322258442735,44.529035020188864],[5.476474888860248,44.526330277326494],[5.475036618484319,44.521333183271956],[5.473520698205249,44.51967589177172],[5.470723763510743,44.51813588181199],[5.468020723027015,44.5175014743459],[5.465176229169313,44.517474580442894],[5.461764769747794,44.518308930138446],[5.4589931985096465,44.52004244005992],[5.457359666259855,44.522402804080826],[5.457104910106597,44.52497584185875],[5.458290871927327,44.52752615661127],[5.460776453103679,44.529541713254986],[5.464088959503198,44.53069074562749],[5.469620514843547,44.53100788875822],[5.47171099394956,44.532444532830645],[5.471912992146744,44.53418039713848],[5.469505906309387,44.537265466469016],[5.468920174943306,44.541275973814095],[5.4680487625283405,44.542486288446234]]]]}},{"type":"Feature","properties":{"category":"historical_support","snapshot_index":10,"pass_time_utc":"2026-08-12T00:37:00+00:00","dt_local":"2026-08-12T02:37:00+02:00","area_km2":8.938,"label":"Isoline temporelle","coherence_level":"indisponible","coherence_fraction":0.0,"projection_displayed":false,"model_version":"fire_progression_arrival_v1"},"geometry":{"type":"MultiPolygon","coordinates":[[[[5.470268171753818,44.53194001144182],[5.470169761838769,44.5296905440952],[5.476459067200785,44.52954957963915],[5.47636041491018,44.527300120065085],[5.479504930703974,44.52722950634295],[5.479109899779548,44.518231699887494],[5.475965884307787,44.518302302096544],[5.475867271292505,44.51605285270307],[5.469579466913481,44.51619378268551],[5.469677829814636,44.51844323782399],[5.466533790813127,44.518513571341686],[5.466632036479186,44.520763031390345],[5.463487864584966,44.520833278207064],[5.463585992996047,44.523082743159186],[5.46044168820725,44.523152903267416],[5.460539699343469,44.525402373116236],[5.4573952616582275,44.52547244650847],[5.457493155499701,44.527721921247256],[5.460637718285976,44.52765184499845],[5.4607357450357,44.52990131891071],[5.467025097395807,44.52976089194986],[5.467123382192732,44.53201036216424],[5.470268171753818,44.53194001144182]]],[[[5.4996663426385695,44.55604681141539],[5.499566719437737,44.55379734798649],[5.502712681796258,44.55372607237012],[5.502612941325128,44.551476613835106],[5.5057587705285105,44.55140525150883],[5.50555906304141,44.546906346234856],[5.50870463390515,44.54683490011874],[5.508604666918093,44.54458545338977],[5.511750104641401,44.54451392058232],[5.511449875993522,44.53776560116457],[5.508304813737005,44.53783712522456],[5.508204878600165,44.535587686521254],[5.50505993351917,44.535659118076524],[5.504860337368528,44.53116024089413],[5.501715634582659,44.53123157704375],[5.501615973538068,44.5289821385754],[5.498471387922521,44.529053382238196],[5.49837185991413,44.52680394289081],[5.488938430844276,44.5270171277118],[5.4890375835507,44.52926657574966],[5.4858929662848475,44.52933746109334],[5.485992001776443,44.531586914046414],[5.482847251509447,44.531657712695456],[5.483045095902852,44.53615663043774],[5.4767550712236295,44.53629797050443],[5.476853754951384,44.538547438162716],[5.473708605669662,44.538617976682744],[5.473807172103007,44.54086744922929],[5.470661889812621,44.540937901024606],[5.47105573335416,44.54993582276083],[5.474201516371997,44.54986535947665],[5.474300122077838,44.55211484203704],[5.477446022445111,44.55204428626182],[5.477544761224034,44.55429376793865],[5.483836788775522,44.5541523817705],[5.483737799567883,44.55190290585723],[5.48688367630347,44.55183208122855],[5.486982790724054,44.554081554254566],[5.490128784774498,44.55401063711786],[5.4902280323151285,44.55626010924174],[5.4996663426385695,44.55604681141539]]]]}},{"type":"Feature","properties":{"category":"observed_front","snapshot_index":10,"pass_time_utc":"2026-08-12T00:37:00+00:00","dt_local":"2026-08-12T02:37:00+02:00","area_km2":2.312,"label":"Activité observée","coherence_level":"indisponible","coherence_fraction":0.0,"projection_displayed":false,"model_version":"fire_progression_arrival_v1"},"geometry":{"type":"Polygon","coordinates":[[[5.496221776960804,44.54936960729058],[5.49612230276013,44.54712014693527],[5.492976700136195,44.547191234618296],[5.492877359040882,44.54494177336369],[5.489731873682973,44.54501276854339],[5.489434273362427,44.53826438812337],[5.492579383236478,44.538193401625456],[5.492480073792369,44.53594394839904],[5.4956250506145965,44.5358728752039],[5.495525623950432,44.533623426890095],[5.504960131469209,44.533409678476204],[5.50505993351917,44.535659118076524],[5.508204878600165,44.535587686521254],[5.508304813737005,44.53783712522456],[5.511449875993522,44.53776560116457],[5.511750104641401,44.54451392058232],[5.508604666918093,44.54458545338977],[5.50870463390515,44.54683490011874],[5.50555906304141,44.546906346234856],[5.505658912806996,44.54915579787443],[5.496221776960804,44.54936960729058]]]}}]}