{"type":"FeatureCollection","name":"detection_envelopes","crs":{"type":"name","properties":{"name":"urn:ogc:def:crs:OGC:1.3:CRS84"}},"features":[{"type":"Feature","properties":{"cluster_id":1,"snapshot_index":1,"estimated_time_utc":"2026-10-02T00:37:00Z","observed_until_utc":"2026-10-02T00:37:00Z","target_time_utc":"2026-10-02T00:37:00Z","arrival_h":0.0,"hours_ago":74.38333333333334,"supported_detections_cumulative":2,"sources_cumulative":"VIIRS_NOAA20_NRT","last_source":"VIIRS_NOAA20_NRT","last_satellite":"N20","last_instrument":"VIIRS","detected_area_km2":0.5869465368402808,"product_type":"cumulative_active_fire_detection_extent"},"geometry":{"type":"LineString","coordinates":[[5.952133389615179,49.50553762718212],[5.953577850174793,49.50618218704163],[5.952755355148398,49.50850284987777],[5.954099740565508,49.51037069773936],[5.957078774893398,49.51107239570447],[5.959947213469228,49.51019685600714],[5.960982047549575,49.50878463352713],[5.960481462209495,49.50704041431626],[5.958733332242235,49.505966859542745],[5.955420143120519,49.50535903711068],[5.955125335415183,49.50469851014576],[5.955992780840749,49.502991674728634],[5.955607292907414,49.50170618937378],[5.954000027249974,49.50054311323149],[5.951671528511059,49.50015757164616],[5.948803509027344,49.50103292532738],[5.947725787771642,49.50297267912752],[5.949069845914756,49.50484059419757],[5.952133389615179,49.50553762718212]]}},{"type":"Feature","properties":{"cluster_id":1,"snapshot_index":2,"estimated_time_utc":"2026-10-02T01:56:00Z","observed_until_utc":"2026-10-02T01:56:00Z","target_time_utc":"2026-10-02T06:37:00Z","arrival_h":1.3166666666666667,"hours_ago":73.06666666666666,"supported_detections_cumulative":4,"sources_cumulative":"VIIRS_NOAA20_NRT, VIIRS_NOAA21_NRT, VIIRS_SNPP_NRT","last_source":"VIIRS_SNPP_NRT","last_satellite":"N","last_instrument":"VIIRS","detected_area_km2":0.9573632224124398,"product_type":"cumulative_active_fire_detection_extent"},"geometry":{"type":"MultiLineString","coordinates":[[[5.963994828655827,49.50179726412925],[5.962729199435742,49.500179123922905],[5.960107214279728,49.499448488277096],[5.957172090089441,49.50010753215637],[5.955761846550281,49.5019517402171],[5.954390787063607,49.50071749390024],[5.952481650918521,49.50018535719453],[5.950165366259723,49.500391107662224],[5.948544751049133,49.50123678414463],[5.947768496503394,49.50244505599036],[5.948084326795173,49.50395363374178],[5.949719780742396,49.50515684310101],[5.953405520130177,49.50593935278689],[5.952793745867566,49.50876616054762],[5.954412828643873,49.51053920521958],[5.957483151919861,49.5110473815301],[5.960205971328168,49.50999297488087],[5.961631863264622,49.50640461266303],[5.961165286908189,49.50470300605671],[5.963396983108002,49.50357101955986],[5.963994828655827,49.50179726412925]],[[5.955870950042286,49.503514038840564],[5.955940858818589,49.50329832280402],[5.955988211274332,49.503038392445134],[5.956264861615042,49.50343695949786],[5.955870950042286,49.503514038840564]]]}},{"type":"Feature","properties":{"cluster_id":1,"snapshot_index":3,"estimated_time_utc":"2026-10-03T02:43:00Z","observed_until_utc":"2026-10-03T02:43:00Z","target_time_utc":"2026-10-03T06:37:00Z","arrival_h":26.1,"hours_ago":48.28333333333333,"supported_detections_cumulative":14,"sources_cumulative":"VIIRS_NOAA20_NRT, VIIRS_NOAA21_NRT, VIIRS_SNPP_NRT","last_source":"VIIRS_NOAA21_NRT","last_satellite":"N21","last_instrument":"VIIRS","detected_area_km2":1.6871989002720678,"product_type":"cumulative_active_fire_detection_extent"},"geometry":{"type":"MultiLineString","coordinates":[[[5.956973366732906,49.49989576948541],[5.953779733117207,49.5004642564186],[5.952077637535121,49.500158504791884],[5.950103858524346,49.50040948262352],[5.948317917735628,49.50145617902484],[5.947723262075627,49.502928637440824],[5.948527147436759,49.50444784609635],[5.950581153769058,49.50541103776442],[5.951144158237233,49.507143725126305],[5.952755012917907,49.508336962019996],[5.953556945299169,49.5099779745595],[5.955046494732153,49.51079310597545],[5.957011138604178,49.51107404575944],[5.959947213469228,49.51019685600714],[5.960990092815197,49.50801230566032],[5.964111154032023,49.507169067382485],[5.965236909766732,49.50524090637393],[5.964106592815065,49.5025982992326],[5.964403410009088,49.50083686574348],[5.963209142488827,49.49947911116427],[5.959843855012811,49.49876664369916],[5.956973366732906,49.49989576948541]],[[5.897721619938998,49.52261534591447],[5.894137308370035,49.52279038633523],[5.892094832816611,49.524087300524485],[5.891925780923618,49.526147144786144],[5.894043863984159,49.52768146858165],[5.896420177702159,49.52791762936026],[5.899434011783367,49.526886529061805],[5.902504576678826,49.52683569588527],[5.904925386885846,49.52544241915122],[5.905115937459038,49.52342422976635],[5.90333319284358,49.52197406290481],[5.900599616533967,49.52161238303772],[5.897721619938998,49.52261534591447]]]}},{"type":"Feature","properties":{"cluster_id":1,"snapshot_index":4,"estimated_time_utc":"2026-10-03T11:45:00Z","observed_until_utc":"2026-10-03T11:45:00Z","target_time_utc":"2026-10-03T12:37:00Z","arrival_h":35.13333333333333,"hours_ago":39.25,"supported_detections_cumulative":15,"sources_cumulative":"VIIRS_NOAA20_NRT, VIIRS_NOAA21_NRT, VIIRS_SNPP_NRT","last_source":"VIIRS_NOAA20_NRT","last_satellite":"N20","last_instrument":"VIIRS","detected_area_km2":7.173598251738174,"product_type":"cumulative_active_fire_detection_extent"},"geometry":{"type":"MultiLineString","coordinates":[[[6.011956683377522,49.47037562410281],[6.012909012289278,49.469222176791234],[6.013201190022547,49.46706522435559],[6.012154189937042,49.4631823836236],[6.010925645257324,49.46183795716186],[6.007105124081913,49.4609019093214],[6.003248974377066,49.460787535752736],[6.001382696060195,49.4611418974935],[5.99835404658559,49.46253409786594],[5.996388864811864,49.466124343389666],[5.997638824962104,49.46793164627389],[5.99761190370479,49.46978060156998],[5.999343609781553,49.471301824265886],[6.004958165287198,49.47248324765589],[6.007932906427432,49.47124274546557],[6.010218501731367,49.47111468358791],[6.011956683377522,49.47037562410281]],[[5.961047400425008,49.496535437493],[5.953781527484101,49.4955453368547],[5.951465456991794,49.49575111321414],[5.946931667699839,49.498061996336496],[5.944473080307304,49.50109274518681],[5.942438993286547,49.50046239164025],[5.940370099464627,49.50057901726603],[5.938693850234493,49.501302671022586],[5.937669279133117,49.50267119948936],[5.938158323756914,49.50445903666799],[5.939966804327442,49.505552204142965],[5.942675105463036,49.50574701939543],[5.944817532962444,49.504928596954436],[5.947132974438486,49.50732655413157],[5.947349676194222,49.509642395508436],[5.949045287474202,49.51202896988157],[5.951956984189512,49.513788198404995],[5.955738795413091,49.51471098964343],[5.958776023805403,49.51474046825187],[5.961695566599251,49.5141945588762],[5.965684533765019,49.51210722190006],[5.969011560808741,49.51108197653357],[5.97176734705467,49.50915981370014],[5.973183553651773,49.50669722856443],[5.97304474568962,49.504069172785165],[5.971332593536999,49.50164004148858],[5.968420921891117,49.4998812545382],[5.965350961047506,49.49905652158565],[5.961047400425008,49.496535437493]],[[5.897163133934245,49.52267196999281],[5.894906937707064,49.522622680581186],[5.893062677685371,49.523245336737126],[5.891835398161302,49.524541377439036],[5.891809501967153,49.525893717100594],[5.892986864640479,49.527209254153114],[5.895074792416684,49.52789851679078],[5.896618767151536,49.529032720878355],[5.899809213548165,49.52936709851292],[5.901876252675187,49.52856828240909],[5.902957902805428,49.52671668009231],[5.904732376551206,49.52567516216486],[5.905210254302197,49.5236359708404],[5.90398306281496,49.52229055089068],[5.901881373691936,49.52162268490532],[5.899875554035809,49.521724282592565],[5.897163133934245,49.52267196999281]],[[5.932849525465097,49.52483615908924],[5.929402977788556,49.52346473299487],[5.92541266723727,49.52305616712906],[5.921485868115047,49.52367264073134],[5.91822019956571,49.525220332777664],[5.916112760846135,49.527463686937594],[5.915484493008879,49.53006123437941],[5.916431258473452,49.532617543277325],[5.91880912130753,49.53474340728218],[5.922256142671439,49.53611511710202],[5.926247442132716,49.536523780836],[5.930175166097475,49.53590716191475],[5.933441153661663,49.534359166488166],[5.93554811869385,49.532115528602766],[5.936175397621141,49.529517883292776],[5.935227707314053,49.526961719713846],[5.932849525465097,49.52483615908924]]]}},{"type":"Feature","properties":{"cluster_id":1,"snapshot_index":5,"estimated_time_utc":"2026-10-05T03:00:00Z","observed_until_utc":"2026-10-05T03:00:00Z","target_time_utc":"2026-10-05T03:00:00Z","arrival_h":74.38333333333334,"hours_ago":0.0,"supported_detections_cumulative":19,"sources_cumulative":"VIIRS_NOAA20_NRT, VIIRS_NOAA21_NRT, VIIRS_SNPP_NRT","last_source":"VIIRS_NOAA20_NRT","last_satellite":"N20","last_instrument":"VIIRS","detected_area_km2":7.306556979410426,"product_type":"cumulative_active_fire_detection_extent"},"geometry":{"type":"MultiLineString","coordinates":[[[6.011956683377522,49.47037562410281],[6.012909012289278,49.469222176791234],[6.013201190022547,49.46706522435559],[6.012154189937042,49.4631823836236],[6.010925645257324,49.46183795716186],[6.007105124081913,49.4609019093214],[6.003248974377066,49.460787535752736],[6.001382696060195,49.4611418974935],[5.99835404658559,49.46253409786594],[5.996388864811864,49.466124343389666],[5.997638824962104,49.46793164627389],[5.99761190370479,49.46978060156998],[5.999343609781553,49.471301824265886],[6.004958165287198,49.47248324765589],[6.007932906427432,49.47124274546557],[6.010218501731367,49.47111468358791],[6.011956683377522,49.47037562410281]],[[5.966040584190407,49.498727985130664],[5.965550624846202,49.49694024918566],[5.96336726447737,49.49574540834856],[5.961034043845312,49.49565310611374],[5.958651188422684,49.49645285785112],[5.952168671128819,49.49559324660139],[5.946931667699839,49.498061996336496],[5.944473080307304,49.50109274518681],[5.941629679604418,49.50042591529967],[5.939032755302033,49.501087127773864],[5.937858595643412,49.50220267259643],[5.937731807644779,49.50376525487636],[5.938909838313214,49.50508037833215],[5.940729699103345,49.50573202774442],[5.943066051450666,49.505675316064554],[5.944817532962444,49.504928596954436],[5.947132974438486,49.50732655413157],[5.948016967937885,49.51089005828539],[5.951174847674385,49.51343922999529],[5.955738795413091,49.51471098964343],[5.959840972413218,49.51461089507799],[5.962656859938227,49.513869262897344],[5.965684533765019,49.51210722190006],[5.969806132382623,49.510669991274405],[5.971802804660506,49.50912227375472],[5.972987982051803,49.50730130559021],[5.973228207664777,49.50471967241814],[5.971923985529932,49.50223100902082],[5.969256855345422,49.500256775726704],[5.965875399957819,49.4991473712491],[5.966040584190407,49.498727985130664]],[[5.895644381092406,49.522557552196794],[5.89371662409008,49.522932417054996],[5.892124539018256,49.52404769837695],[5.891691374755078,49.525326723825806],[5.89226966249759,49.52662572375887],[5.898213992450749,49.52966152461076],[5.900185863954538,49.529922427109994],[5.902113835941874,49.5295474623575],[5.903735574367332,49.52839245197057],[5.903896033663142,49.526319366835715],[5.905201966909716,49.524945699041524],[5.904749936262146,49.52290401084241],[5.90333319284358,49.52197406290481],[5.901410381173277,49.52158866033248],[5.899497083847733,49.521820458479084],[5.897838030260964,49.52258220871719],[5.895644381092406,49.522557552196794]],[[5.932849525465097,49.52483615908924],[5.929402977788556,49.52346473299487],[5.92541266723727,49.52305616712906],[5.921485868115047,49.52367264073134],[5.91822019956571,49.525220332777664],[5.916112760846135,49.527463686937594],[5.915484493008879,49.53006123437941],[5.916431258473452,49.532617543277325],[5.91880912130753,49.53474340728218],[5.922256142671439,49.53611511710202],[5.926247442132716,49.536523780836],[5.930175166097475,49.53590716191475],[5.933441153661663,49.534359166488166],[5.93554811869385,49.532115528602766],[5.936175397621141,49.529517883292776],[5.935227707314053,49.526961719713846],[5.932849525465097,49.52483615908924]]]}}],"metadata":{"generated_at_utc":"2026-10-05T07:40:49.117077Z","product_type":"cumulative_active_fire_detection_extent","product_label":"Emprises cumulées des détections actives FIRMS","not_a_burn_perimeter":true,"not_a_continuous_fire_front":true,"not_an_arrival_time_interpolation":true,"snapshot_step_hours":6,"confidence_filter":{"VIIRS":["nominal","high"],"MODIS_minimum":30},"footprint_radius_m":{"VIIRS":300.0,"MODIS":750.0},"same_pass_neighbour_m":2000.0,"continuity_distance_m":3000.0,"clusters":[{"cluster_id":1,"first_supported_detection_utc":"2026-10-02T00:37:00Z","last_supported_detection_utc":"2026-10-05T03:00:00Z","pass_states":10,"published_snapshots":5,"final_detected_area_km2":2.1304237189310604}]},"bbox":[5.891691374755078,49.460787535752736,6.0132011900225475,49.536523780836]}