{"type":"FeatureCollection","name":"fire_progression_arrival_v1","features":[{"type":"Feature","properties":{"category":"arrival_step","arrival_snapshot_index":1,"first_detected_utc":"2026-10-05T01:00:00+00:00","first_detected_local":"2026-10-05T03:00:00+02:00","area_km2":3.0,"label":"Première détection FIRMS","model_version":"fire_progression_arrival_v1"},"geometry":{"type":"Polygon","coordinates":[[[5.954174179239772,49.50755786398228],[5.9539160916299005,49.50306733155296],[5.950468468038664,49.503151315374375],[5.949953029184361,49.4941701680813],[5.9534000516083845,49.49408619809082],[5.953142099173147,49.489595597116136],[5.970375539626326,49.489174311512215],[5.9706349945428,49.4936648777937],[5.974081949200971,49.4935803196685],[5.974601596101657,49.502561369806564],[5.971154040311767,49.502645941859406],[5.971413631187991,49.507136439585494],[5.954174179239772,49.50755786398228]]]}},{"type":"Feature","properties":{"category":"arrival_step","arrival_snapshot_index":3,"first_detected_utc":"2026-10-05T12:49:00+00:00","first_detected_local":"2026-10-05T14:49:00+02:00","area_km2":0.5,"label":"Première détection FIRMS","model_version":"fire_progression_arrival_v1"},"geometry":{"type":"Polygon","coordinates":[[[5.957880525625932,49.51196427779418],[5.9577513032818015,49.509719029360646],[5.954303239949651,49.50980312160878],[5.954174179239772,49.50755786398228],[5.971413631187991,49.507136439585494],[5.971543443629231,49.50938167985914],[5.968095425515737,49.50946616430994],[5.968225098937971,49.511711402331265],[5.957880525625932,49.51196427779418]]]}},{"type":"Feature","properties":{"category":"arrival_step","arrival_snapshot_index":4,"first_detected_utc":"2026-10-06T00:39:00+00:00","first_detected_local":"2026-10-06T02:39:00+02:00","area_km2":0.312,"label":"Première détection FIRMS","model_version":"fire_progression_arrival_v1"},"geometry":{"type":"Polygon","coordinates":[[[5.950726254986399,49.50764185472014],[5.950597355884589,49.50539658790868],[5.947149570712943,49.505480477144054],[5.946763391875655,49.49874463202523],[5.95021072610858,49.49866075315173],[5.950468468038664,49.503151315374375],[5.9539160916299005,49.50306733155296],[5.954174179239772,49.50755786398228],[5.950726254986399,49.50764185472014]]]}},{"type":"Feature","properties":{"category":"arrival_step","arrival_snapshot_index":6,"first_detected_utc":"2026-10-06T02:41:00+00:00","first_detected_local":"2026-10-06T04:41:00+02:00","area_km2":0.5,"label":"Première détection FIRMS","model_version":"fire_progression_arrival_v1"},"geometry":{"type":"Polygon","coordinates":[[[5.950984086963577,49.51213237116],[5.950855165345571,49.509887115805135],[5.947407079482656,49.50997101194923],[5.947278319475666,49.5077257474098],[5.943830372720666,49.50780954205077],[5.943444611141817,49.50107370373883],[5.94689210691441,49.50098991944812],[5.947149570712943,49.505480477144054],[5.950597355884589,49.50539658790868],[5.950726254986399,49.50764185472014],[5.954174179239772,49.50755786398228],[5.954303239949651,49.50980312160878],[5.9577513032818015,49.509719029360646],[5.957880525625932,49.51196427779418],[5.950984086963577,49.51213237116]]]}},{"type":"Feature","properties":{"category":"arrival_step","arrival_snapshot_index":13,"first_detected_utc":"2026-10-07T03:06:00+00:00","first_detected_local":"2026-10-07T05:06:00+02:00","area_km2":0.25,"label":"Première détection FIRMS","model_version":"fire_progression_arrival_v1"},"geometry":{"type":"Polygon","coordinates":[[[5.943444611141817,49.50107370373883],[5.943187492892182,49.49658311628192],[5.9466346880752825,49.49649933889056],[5.946505995511817,49.49425404004773],[5.949953029184361,49.4941701680813],[5.95021072610858,49.49866075315173],[5.946763391875655,49.49874463202523],[5.94689210691441,49.50098991944812],[5.943444611141817,49.50107370373883]]]}},{"type":"Feature","properties":{"category":"firms_extent_snapshot","snapshot_index":1,"pass_time_utc":"2026-10-05T01:00:00+00:00","dt_local":"2026-10-05T03:00:00+02:00","label":"Emprise FIRMS cumulée à ce passage","interpretation":"Enveloppe des détections FIRMS, pas une surface brûlée","cumulative":true,"point_count":2,"extent_method":"cumulative_detection_extent_smoothed_landmasked_web_v1","local_cluster_link_m":10000.0,"model_version":"fire_progression_arrival_v1"},"geometry":{"type":"Polygon","coordinates":[[[5.95782532849363,49.49838099313002],[5.959148701686424,49.5009200840122],[5.9582796150287285,49.50351656499228],[5.95883624041283,49.50503854236615],[5.961358116224248,49.50628633588079],[5.964496246685062,49.50600731032211],[5.96593453292583,49.50509203285959],[5.966540411214358,49.50384329427385],[5.96522128175876,49.50103984842993],[5.9660899760990285,49.49844331058669],[5.965533207437527,49.49692135541115],[5.963398839870749,49.4957533258957],[5.960691980505371,49.49571563053214],[5.958616015825947,49.496694349564116],[5.95782532849363,49.49838099313002]]]}},{"type":"Feature","properties":{"category":"historical_support","snapshot_index":1,"pass_time_utc":"2026-10-05T01:00:00+00:00","dt_local":"2026-10-05T03:00:00+02:00","area_km2":3.0,"label":"Isoline temporelle","coherence_level":"indisponible","coherence_fraction":0.0,"projection_displayed":false,"model_version":"fire_progression_arrival_v1"},"geometry":{"type":"Polygon","coordinates":[[[5.954174179239772,49.50755786398228],[5.9539160916299005,49.50306733155296],[5.950468468038664,49.503151315374375],[5.949953029184361,49.4941701680813],[5.9534000516083845,49.49408619809082],[5.953142099173147,49.489595597116136],[5.970375539626326,49.489174311512215],[5.9706349945428,49.4936648777937],[5.974081949200971,49.4935803196685],[5.974601596101657,49.502561369806564],[5.971154040311767,49.502645941859406],[5.971413631187991,49.507136439585494],[5.954174179239772,49.50755786398228]]]}},{"type":"Feature","properties":{"category":"observed_front","snapshot_index":1,"pass_time_utc":"2026-10-05T01:00:00+00:00","dt_local":"2026-10-05T03:00:00+02:00","area_km2":3.0,"label":"Activité observée","coherence_level":"indisponible","coherence_fraction":0.0,"projection_displayed":false,"model_version":"fire_progression_arrival_v1"},"geometry":{"type":"Polygon","coordinates":[[[5.954174179239772,49.50755786398228],[5.9539160916299005,49.50306733155296],[5.950468468038664,49.503151315374375],[5.949953029184361,49.4941701680813],[5.9534000516083845,49.49408619809082],[5.953142099173147,49.489595597116136],[5.970375539626326,49.489174311512215],[5.9706349945428,49.4936648777937],[5.974081949200971,49.4935803196685],[5.974601596101657,49.502561369806564],[5.971154040311767,49.502645941859406],[5.971413631187991,49.507136439585494],[5.954174179239772,49.50755786398228]]]}},{"type":"Feature","properties":{"category":"firms_extent_snapshot","snapshot_index":2,"pass_time_utc":"2026-10-05T03:00:00+00:00","dt_local":"2026-10-05T05:00:00+02:00","label":"Emprise FIRMS cumulée à ce passage","interpretation":"Enveloppe des détections FIRMS, pas une surface brûlée","cumulative":true,"point_count":4,"extent_method":"cumulative_detection_extent_smoothed_landmasked_web_v1","local_cluster_link_m":10000.0,"model_version":"fire_progression_arrival_v1"},"geometry":{"type":"MultiPolygon","coordinates":[[[[5.95782532849363,49.49838099313002],[5.959148701686424,49.5009200840122],[5.9582796150287285,49.50351656499228],[5.95883624041283,49.50503854236615],[5.961358116224248,49.50628633588079],[5.964496246685062,49.50600731032211],[5.96593453292583,49.50509203285959],[5.966540411214358,49.50384329427385],[5.96522128175876,49.50103984842993],[5.9660899760990285,49.49844331058669],[5.965533207437527,49.49692135541115],[5.963398839870749,49.4957533258957],[5.960691980505371,49.49571563053214],[5.958616015825947,49.496694349564116],[5.95782532849363,49.49838099313002]]],[[[5.892723036686844,49.52529876989879],[5.893758308024772,49.52698477124142],[5.898557162822269,49.52975583253515],[5.901723724876643,49.529680098084555],[5.903880436068363,49.52816907676491],[5.904102262940463,49.52686750256277],[5.903403212665669,49.52569698387466],[5.898302792694946,49.5226741748239],[5.896303428805779,49.5225296709594],[5.894435484491876,49.523015755483726],[5.8931400403865615,49.52401765002822],[5.892723036686844,49.52529876989879]]]]}},{"type":"Feature","properties":{"category":"historical_support","snapshot_index":2,"pass_time_utc":"2026-10-05T03:00:00+00:00","dt_local":"2026-10-05T05:00:00+02:00","area_km2":3.0,"label":"Isoline temporelle","coherence_level":"indisponible","coherence_fraction":0.0,"projection_displayed":false,"model_version":"fire_progression_arrival_v1"},"geometry":{"type":"Polygon","coordinates":[[[5.954174179239772,49.50755786398228],[5.9539160916299005,49.50306733155296],[5.950468468038664,49.503151315374375],[5.949953029184361,49.4941701680813],[5.9534000516083845,49.49408619809082],[5.953142099173147,49.489595597116136],[5.970375539626326,49.489174311512215],[5.9706349945428,49.4936648777937],[5.974081949200971,49.4935803196685],[5.974601596101657,49.502561369806564],[5.971154040311767,49.502645941859406],[5.971413631187991,49.507136439585494],[5.954174179239772,49.50755786398228]]]}},{"type":"Feature","properties":{"category":"observed_front","snapshot_index":2,"pass_time_utc":"2026-10-05T03:00:00+00:00","dt_local":"2026-10-05T05:00:00+02:00","area_km2":2.438,"label":"Activité observée","coherence_level":"indisponible","coherence_fraction":0.0,"projection_displayed":false,"model_version":"fire_progression_arrival_v1"},"geometry":{"type":"MultiPolygon","coordinates":[[[[5.907172275864021,49.53117761034947],[5.907045220348026,49.52893235635362],[5.910494643725046,49.52884960961719],[5.909985930828969,49.5198685497282],[5.90653710927157,49.519951282836054],[5.906410109242068,49.51770600009131],[5.899512733705832,49.517871165282514],[5.899386045591697,49.515625869997855],[5.895937491630319,49.515708302092584],[5.896064029331064,49.51795360077171],[5.889166587433749,49.51811817753508],[5.889292835330797,49.52036347725301],[5.885843947403626,49.520445621908834],[5.886348447440505,49.52942677685912],[5.889797937222078,49.52934461867151],[5.889924240277897,49.53158988964466],[5.8968234877124175,49.53142527221331],[5.89669688366818,49.52918000801898],[5.90014634030648,49.52909755555495],[5.900273094842755,49.53134281635383],[5.907172275864021,49.53117761034947]]],[[[5.896950102818973,49.533670530647456],[5.900399860454463,49.53358807139235],[5.900273094842755,49.53134281635383],[5.8968234877124175,49.53142527221331],[5.896950102818973,49.533670530647456]]]]}},{"type":"Feature","properties":{"category":"firms_extent_snapshot","snapshot_index":3,"pass_time_utc":"2026-10-05T12:49:00+00:00","dt_local":"2026-10-05T14:49:00+02:00","label":"Emprise FIRMS cumulée à ce passage","interpretation":"Enveloppe des détections FIRMS, pas une surface brûlée","cumulative":true,"point_count":5,"extent_method":"cumulative_detection_extent_smoothed_landmasked_web_v1","local_cluster_link_m":10000.0,"model_version":"fire_progression_arrival_v1"},"geometry":{"type":"MultiPolygon","coordinates":[[[[5.9570747665911465,49.50535096676306],[5.958458979079111,49.507262091321124],[5.96168565949124,49.50792619294696],[5.96424386147576,49.50708272457129],[5.96616525704802,49.504810137734665],[5.966509942950407,49.50331538263813],[5.9651941018701695,49.50068485580242],[5.9660460137137274,49.497860999545885],[5.965311537215339,49.496699782890715],[5.963695196852331,49.49583443779569],[5.960611350783579,49.495732307486826],[5.958205312173852,49.497149723866066],[5.95786042622681,49.49864446554431],[5.959162414206081,49.50145267623467],[5.9570747665911465,49.50535096676306]]],[[[5.892723036686844,49.52529876989879],[5.893758308024772,49.52698477124142],[5.898557162822269,49.52975583253515],[5.901723724876643,49.529680098084555],[5.903880436068363,49.52816907676491],[5.904102262940463,49.52686750256277],[5.903403212665669,49.52569698387466],[5.898302792694946,49.5226741748239],[5.896303428805779,49.5225296709594],[5.894435484491876,49.523015755483726],[5.8931400403865615,49.52401765002822],[5.892723036686844,49.52529876989879]]]]}},{"type":"Feature","properties":{"category":"historical_support","snapshot_index":3,"pass_time_utc":"2026-10-05T12:49:00+00:00","dt_local":"2026-10-05T14:49:00+02:00","area_km2":3.5,"label":"Isoline temporelle","coherence_level":"indisponible","coherence_fraction":0.0,"projection_displayed":false,"model_version":"fire_progression_arrival_v1"},"geometry":{"type":"Polygon","coordinates":[[[5.957880525625932,49.51196427779418],[5.9577513032818015,49.509719029360646],[5.954303239949651,49.50980312160878],[5.9539160916299005,49.50306733155296],[5.950468468038664,49.503151315374375],[5.949953029184361,49.4941701680813],[5.9534000516083845,49.49408619809082],[5.953142099173147,49.489595597116136],[5.970375539626326,49.489174311512215],[5.9706349945428,49.4936648777937],[5.974081949200971,49.4935803196685],[5.974601596101657,49.502561369806564],[5.971154040311767,49.502645941859406],[5.971543443629231,49.50938167985914],[5.968095425515737,49.50946616430994],[5.968225098937971,49.511711402331265],[5.957880525625932,49.51196427779418]]]}},{"type":"Feature","properties":{"category":"observed_front","snapshot_index":3,"pass_time_utc":"2026-10-05T12:49:00+00:00","dt_local":"2026-10-05T14:49:00+02:00","area_km2":2.062,"label":"Activité observée","coherence_level":"indisponible","coherence_fraction":0.0,"projection_displayed":false,"model_version":"fire_progression_arrival_v1"},"geometry":{"type":"Polygon","coordinates":[[[5.957880525625932,49.51196427779418],[5.9577513032818015,49.509719029360646],[5.954303239949651,49.50980312160878],[5.9539160916299005,49.50306733155296],[5.950468468038664,49.503151315374375],[5.950339591447151,49.500906037120835],[5.953787064726955,49.500822056757414],[5.953658049090038,49.49857677624613],[5.957105360806941,49.498492701308855],[5.956976206150791,49.49624741854715],[5.967317622740844,49.49599461595925],[5.967447228239485,49.49823988831176],[5.970894494767325,49.498155421252456],[5.971024261873816,49.50040068441421],[5.974471667361147,49.500316115843546],[5.974601596101657,49.502561369806564],[5.971154040311767,49.502645941859406],[5.971543443629231,49.50938167985914],[5.968095425515737,49.50946616430994],[5.968225098937971,49.511711402331265],[5.957880525625932,49.51196427779418]]]}},{"type":"Feature","properties":{"category":"firms_extent_snapshot","snapshot_index":4,"pass_time_utc":"2026-10-06T00:39:00+00:00","dt_local":"2026-10-06T02:39:00+02:00","label":"Emprise FIRMS cumulée à ce passage","interpretation":"Enveloppe des détections FIRMS, pas une surface brûlée","cumulative":true,"point_count":6,"extent_method":"cumulative_detection_extent_smoothed_landmasked_web_v1","local_cluster_link_m":10000.0,"model_version":"fire_progression_arrival_v1"},"geometry":{"type":"MultiPolygon","coordinates":[[[[5.956284888880255,49.503810939994935],[5.9574860030519154,49.50642334070312],[5.959322277723865,49.507647244248545],[5.962250767793266,49.507857413336176],[5.964688516558933,49.50670827497259],[5.966545088546788,49.50357885109798],[5.965198700193427,49.50086264414762],[5.966002479825368,49.497709336550564],[5.96419892684823,49.496014716287306],[5.961001229486946,49.49565847640224],[5.9584821308558364,49.49682163315745],[5.957826990576973,49.49817161504903],[5.958279146298135,49.50061407602304],[5.956284888880255,49.503810939994935]]],[[[5.892723036686844,49.52529876989879],[5.893758308024772,49.52698477124142],[5.898557162822269,49.52975583253515],[5.901723724876643,49.529680098084555],[5.903880436068363,49.52816907676491],[5.904102262940463,49.52686750256277],[5.903403212665669,49.52569698387466],[5.898302792694946,49.5226741748239],[5.896303428805779,49.5225296709594],[5.894435484491876,49.523015755483726],[5.8931400403865615,49.52401765002822],[5.892723036686844,49.52529876989879]]]]}},{"type":"Feature","properties":{"category":"historical_support","snapshot_index":4,"pass_time_utc":"2026-10-06T00:39:00+00:00","dt_local":"2026-10-06T02:39:00+02:00","area_km2":3.812,"label":"Isoline temporelle","coherence_level":"indisponible","coherence_fraction":0.0,"projection_displayed":false,"model_version":"fire_progression_arrival_v1"},"geometry":{"type":"Polygon","coordinates":[[[5.957880525625932,49.51196427779418],[5.9577513032818015,49.509719029360646],[5.954303239949651,49.50980312160878],[5.954174179239772,49.50755786398228],[5.950726254986399,49.50764185472014],[5.950597355884589,49.50539658790868],[5.947149570712943,49.505480477144054],[5.946763391875655,49.49874463202523],[5.95021072610858,49.49866075315173],[5.949953029184361,49.4941701680813],[5.9534000516083845,49.49408619809082],[5.953142099173147,49.489595597116136],[5.970375539626326,49.489174311512215],[5.9706349945428,49.4936648777937],[5.974081949200971,49.4935803196685],[5.974601596101657,49.502561369806564],[5.971154040311767,49.502645941859406],[5.971543443629231,49.50938167985914],[5.968095425515737,49.50946616430994],[5.968225098937971,49.511711402331265],[5.957880525625932,49.51196427779418]]]}},{"type":"Feature","properties":{"category":"observed_front","snapshot_index":4,"pass_time_utc":"2026-10-06T00:39:00+00:00","dt_local":"2026-10-06T02:39:00+02:00","area_km2":2.312,"label":"Activité observée","coherence_level":"indisponible","coherence_fraction":0.0,"projection_displayed":false,"model_version":"fire_progression_arrival_v1"},"geometry":{"type":"Polygon","coordinates":[[[5.954303239949651,49.50980312160878],[5.954174179239772,49.50755786398228],[5.950726254986399,49.50764185472014],[5.950597355884589,49.50539658790868],[5.947149570712943,49.505480477144054],[5.946763391875655,49.49874463202523],[5.95021072610858,49.49866075315173],[5.950081872021474,49.49641546347067],[5.953529044717671,49.49633149002272],[5.9534000516083845,49.49408619809082],[5.963741051258501,49.49383369997969],[5.9638704951754615,49.49607898151495],[5.967317622740844,49.49599461595925],[5.967447228239485,49.49823988831176],[5.970894494767325,49.498155421252456],[5.971283830082664,49.50489119358437],[5.967836112642699,49.50497567107808],[5.967965763417807,49.507220920557664],[5.964517884324801,49.507305303483875],[5.964647396077938,49.509550550710756],[5.954303239949651,49.50980312160878]]]}},{"type":"Feature","properties":{"category":"historical_support","snapshot_index":5,"pass_time_utc":"2026-10-06T01:45:00+00:00","dt_local":"2026-10-06T03:45:00+02:00","area_km2":3.812,"label":"Isoline temporelle","coherence_level":"indisponible","coherence_fraction":0.0,"projection_displayed":false,"model_version":"fire_progression_arrival_v1"},"geometry":{"type":"Polygon","coordinates":[[[5.957880525625932,49.51196427779418],[5.9577513032818015,49.509719029360646],[5.954303239949651,49.50980312160878],[5.954174179239772,49.50755786398228],[5.950726254986399,49.50764185472014],[5.950597355884589,49.50539658790868],[5.947149570712943,49.505480477144054],[5.946763391875655,49.49874463202523],[5.95021072610858,49.49866075315173],[5.949953029184361,49.4941701680813],[5.9534000516083845,49.49408619809082],[5.953142099173147,49.489595597116136],[5.970375539626326,49.489174311512215],[5.9706349945428,49.4936648777937],[5.974081949200971,49.4935803196685],[5.974601596101657,49.502561369806564],[5.971154040311767,49.502645941859406],[5.971543443629231,49.50938167985914],[5.968095425515737,49.50946616430994],[5.968225098937971,49.511711402331265],[5.957880525625932,49.51196427779418]]]}},{"type":"Feature","properties":{"category":"observed_front","snapshot_index":5,"pass_time_utc":"2026-10-06T01:45:00+00:00","dt_local":"2026-10-06T03:45:00+02:00","area_km2":3.0,"label":"Activité observée","coherence_level":"indisponible","coherence_fraction":0.0,"projection_displayed":false,"model_version":"fire_progression_arrival_v1"},"geometry":{"type":"MultiPolygon","coordinates":[[[[5.960940643811842,49.50514433193927],[5.960811304996776,49.50289906979148],[5.964258894746238,49.502814791852316],[5.96412941691785,49.50056952745491],[5.960681977475391,49.500653801923995],[5.960552661246209,49.49840852834041],[5.957105360806941,49.498492701308855],[5.95723452674073,49.50073797835832],[5.953787064726955,49.500822056757414],[5.9539160916299005,49.50306733155296],[5.957363703953633,49.50298324969185],[5.957492892447128,49.505228515305845],[5.960940643811842,49.50514433193927]]],[[[5.903722690897661,49.53126026239908],[5.903595785870801,49.529015004999685],[5.910494643725046,49.52884960961719],[5.910240265056195,49.52435909117258],[5.913689376386782,49.52427625316892],[5.913434741278873,49.51978571854658],[5.909985930828969,49.5198685497282],[5.90973164103173,49.515377985313144],[5.902834588487794,49.51554333983607],[5.902707761040104,49.51329804221484],[5.895810964981754,49.513462997678694],[5.895937491630319,49.515708302092584],[5.8890403505641205,49.51587287207909],[5.889292835330797,49.52036347725301],[5.885843947403626,49.520445621908834],[5.886096175384778,49.52493621088158],[5.88954536421293,49.52485405946018],[5.889797937222078,49.52934461867151],[5.90014634030648,49.52909755555495],[5.900273094842755,49.53134281635383],[5.903722690897661,49.53126026239908]]]]}},{"type":"Feature","properties":{"category":"firms_extent_snapshot","snapshot_index":6,"pass_time_utc":"2026-10-06T02:41:00+00:00","dt_local":"2026-10-06T04:41:00+02:00","label":"Emprise FIRMS cumulée à ce passage","interpretation":"Enveloppe des détections FIRMS, pas une surface brûlée","cumulative":true,"point_count":10,"extent_method":"cumulative_detection_extent_smoothed_landmasked_web_v1","local_cluster_link_m":10000.0,"model_version":"fire_progression_arrival_v1"},"geometry":{"type":"MultiPolygon","coordinates":[[[[5.95727940336886,49.50986953915296],[5.959396682753665,49.50939423383638],[5.964688516558933,49.50670827497259],[5.966545088546788,49.50357885109798],[5.965198700193427,49.50086264414762],[5.966002479825368,49.497709336550564],[5.96419892684823,49.496014716287306],[5.961001229486946,49.49565847640224],[5.9584821308558364,49.49682163315745],[5.957471844611637,49.49998620516848],[5.954530447099614,49.502342641851975],[5.954273069532737,49.50470435835816],[5.953142356447587,49.50683321701055],[5.953816483373729,49.50734174135595],[5.955131096241557,49.50618549093963],[5.955898137140856,49.50751583184541],[5.953895781003224,49.508687801390856],[5.954225287674344,49.509155516834966],[5.95727940336886,49.50986953915296]]],[[[5.897426758570791,49.5293400011367],[5.899026830526639,49.52984846229314],[5.902424950773392,49.52941412302342],[5.904882660528932,49.52707333769429],[5.903373653603732,49.52207797785519],[5.902182844456418,49.521089938119005],[5.9005830139051065,49.52058151362865],[5.898653944557,49.52057805661316],[5.896868276738038,49.52118102698706],[5.893382157662915,49.52373980972726],[5.892723036686844,49.52529876989879],[5.893758308024772,49.52698477124142],[5.897426758570791,49.5293400011367]]]]}},{"type":"Feature","properties":{"category":"historical_support","snapshot_index":6,"pass_time_utc":"2026-10-06T02:41:00+00:00","dt_local":"2026-10-06T04:41:00+02:00","area_km2":4.312,"label":"Isoline temporelle","coherence_level":"indisponible","coherence_fraction":0.0,"projection_displayed":false,"model_version":"fire_progression_arrival_v1"},"geometry":{"type":"Polygon","coordinates":[[[5.950984086963577,49.51213237116],[5.950855165345571,49.509887115805135],[5.947407079482656,49.50997101194923],[5.947278319475666,49.5077257474098],[5.943830372720666,49.50780954205077],[5.943444611141817,49.50107370373883],[5.94689210691441,49.50098991944812],[5.946763391875655,49.49874463202523],[5.95021072610858,49.49866075315173],[5.949953029184361,49.4941701680813],[5.9534000516083845,49.49408619809082],[5.953142099173147,49.489595597116136],[5.970375539626326,49.489174311512215],[5.9706349945428,49.4936648777937],[5.974081949200971,49.4935803196685],[5.974601596101657,49.502561369806564],[5.971154040311767,49.502645941859406],[5.971543443629231,49.50938167985914],[5.968095425515737,49.50946616430994],[5.968225098937971,49.511711402331265],[5.950984086963577,49.51213237116]]]}},{"type":"Feature","properties":{"category":"observed_front","snapshot_index":6,"pass_time_utc":"2026-10-06T02:41:00+00:00","dt_local":"2026-10-06T04:41:00+02:00","area_km2":2.312,"label":"Activité observée","coherence_level":"indisponible","coherence_fraction":0.0,"projection_displayed":false,"model_version":"fire_progression_arrival_v1"},"geometry":{"type":"Polygon","coordinates":[[[5.950984086963577,49.51213237116],[5.950855165345571,49.509887115805135],[5.947407079482656,49.50997101194923],[5.947278319475666,49.5077257474098],[5.943830372720666,49.50780954205077],[5.943444611141817,49.50107370373883],[5.94689210691441,49.50098991944812],[5.946763391875655,49.49874463202523],[5.95021072610858,49.49866075315173],[5.950081872021474,49.49641546347067],[5.960423356307749,49.49616324904439],[5.960552661246209,49.49840852834041],[5.963999950394752,49.49832425734124],[5.96412941691785,49.50056952745491],[5.96757684505502,49.500485154951484],[5.967965763417807,49.507220920557664],[5.964517884324801,49.507305303483875],[5.964647396077938,49.509550550710756],[5.961199355328928,49.50963483906115],[5.961328728033907,49.51188008402798],[5.950984086963577,49.51213237116]]]}},{"type":"Feature","properties":{"category":"historical_support","snapshot_index":7,"pass_time_utc":"2026-10-06T12:08:00+00:00","dt_local":"2026-10-06T14:08:00+02:00","area_km2":4.312,"label":"Isoline temporelle","coherence_level":"indisponible","coherence_fraction":0.0,"projection_displayed":false,"model_version":"fire_progression_arrival_v1"},"geometry":{"type":"Polygon","coordinates":[[[5.950984086963577,49.51213237116],[5.950855165345571,49.509887115805135],[5.947407079482656,49.50997101194923],[5.947278319475666,49.5077257474098],[5.943830372720666,49.50780954205077],[5.943444611141817,49.50107370373883],[5.94689210691441,49.50098991944812],[5.946763391875655,49.49874463202523],[5.95021072610858,49.49866075315173],[5.949953029184361,49.4941701680813],[5.9534000516083845,49.49408619809082],[5.953142099173147,49.489595597116136],[5.970375539626326,49.489174311512215],[5.9706349945428,49.4936648777937],[5.974081949200971,49.4935803196685],[5.974601596101657,49.502561369806564],[5.971154040311767,49.502645941859406],[5.971543443629231,49.50938167985914],[5.968095425515737,49.50946616430994],[5.968225098937971,49.511711402331265],[5.950984086963577,49.51213237116]]]}},{"type":"Feature","properties":{"category":"historical_support","snapshot_index":8,"pass_time_utc":"2026-10-06T12:27:00+00:00","dt_local":"2026-10-06T14:27:00+02:00","area_km2":4.312,"label":"Isoline temporelle","coherence_level":"indisponible","coherence_fraction":0.0,"projection_displayed":false,"model_version":"fire_progression_arrival_v1"},"geometry":{"type":"Polygon","coordinates":[[[5.950984086963577,49.51213237116],[5.950855165345571,49.509887115805135],[5.947407079482656,49.50997101194923],[5.947278319475666,49.5077257474098],[5.943830372720666,49.50780954205077],[5.943444611141817,49.50107370373883],[5.94689210691441,49.50098991944812],[5.946763391875655,49.49874463202523],[5.95021072610858,49.49866075315173],[5.949953029184361,49.4941701680813],[5.9534000516083845,49.49408619809082],[5.953142099173147,49.489595597116136],[5.970375539626326,49.489174311512215],[5.9706349945428,49.4936648777937],[5.974081949200971,49.4935803196685],[5.974601596101657,49.502561369806564],[5.971154040311767,49.502645941859406],[5.971543443629231,49.50938167985914],[5.968095425515737,49.50946616430994],[5.968225098937971,49.511711402331265],[5.950984086963577,49.51213237116]]]}},{"type":"Feature","properties":{"category":"observed_front","snapshot_index":8,"pass_time_utc":"2026-10-06T12:27:00+00:00","dt_local":"2026-10-06T14:27:00+02:00","area_km2":1.562,"label":"Activité observée","coherence_level":"indisponible","coherence_fraction":0.0,"projection_displayed":false,"model_version":"fire_progression_arrival_v1"},"geometry":{"type":"Polygon","coordinates":[[[5.950726254986399,49.50764185472014],[5.950081872021474,49.49641546347067],[5.967317622740844,49.49599461595925],[5.967965763417807,49.507220920557664],[5.950726254986399,49.50764185472014]]]}},{"type":"Feature","properties":{"category":"firms_extent_snapshot","snapshot_index":9,"pass_time_utc":"2026-10-07T00:41:00+00:00","dt_local":"2026-10-07T02:41:00+02:00","label":"Emprise FIRMS cumulée à ce passage","interpretation":"Enveloppe des détections FIRMS, pas une surface brûlée","cumulative":true,"point_count":11,"extent_method":"cumulative_detection_extent_smoothed_landmasked_web_v1","local_cluster_link_m":10000.0,"model_version":"fire_progression_arrival_v1"},"geometry":{"type":"MultiPolygon","coordinates":[[[[5.95727940336886,49.50986953915296],[5.959396682753665,49.50939423383638],[5.964688516558933,49.50670827497259],[5.966545088546788,49.50357885109798],[5.965198700193427,49.50086264414762],[5.966002479825368,49.497709336550564],[5.96419892684823,49.496014716287306],[5.961001229486946,49.49565847640224],[5.9584821308558364,49.49682163315745],[5.957347291557838,49.500132454898946],[5.9531404354722035,49.502832597884286],[5.952936566862979,49.50667797783753],[5.953816483373729,49.50734174135595],[5.955131096241557,49.50618549093963],[5.955898137140856,49.50751583184541],[5.953895781003224,49.508687801390856],[5.954225287674344,49.509155516834966],[5.95727940336886,49.50986953915296]]],[[[5.897426758570791,49.5293400011367],[5.899026830526639,49.52984846229314],[5.902424950773392,49.52941412302342],[5.904882660528932,49.52707333769429],[5.903373653603732,49.52207797785519],[5.902182844456418,49.521089938119005],[5.9005830139051065,49.52058151362865],[5.898653944557,49.52057805661316],[5.896868276738038,49.52118102698706],[5.893382157662915,49.52373980972726],[5.892723036686844,49.52529876989879],[5.893758308024772,49.52698477124142],[5.897426758570791,49.5293400011367]]]]}},{"type":"Feature","properties":{"category":"historical_support","snapshot_index":9,"pass_time_utc":"2026-10-07T00:41:00+00:00","dt_local":"2026-10-07T02:41:00+02:00","area_km2":4.312,"label":"Isoline temporelle","coherence_level":"indisponible","coherence_fraction":0.0,"projection_displayed":false,"model_version":"fire_progression_arrival_v1"},"geometry":{"type":"Polygon","coordinates":[[[5.950984086963577,49.51213237116],[5.950855165345571,49.509887115805135],[5.947407079482656,49.50997101194923],[5.947278319475666,49.5077257474098],[5.943830372720666,49.50780954205077],[5.943444611141817,49.50107370373883],[5.94689210691441,49.50098991944812],[5.946763391875655,49.49874463202523],[5.95021072610858,49.49866075315173],[5.949953029184361,49.4941701680813],[5.9534000516083845,49.49408619809082],[5.953142099173147,49.489595597116136],[5.970375539626326,49.489174311512215],[5.9706349945428,49.4936648777937],[5.974081949200971,49.4935803196685],[5.974601596101657,49.502561369806564],[5.971154040311767,49.502645941859406],[5.971543443629231,49.50938167985914],[5.968095425515737,49.50946616430994],[5.968225098937971,49.511711402331265],[5.950984086963577,49.51213237116]]]}},{"type":"Feature","properties":{"category":"observed_front","snapshot_index":9,"pass_time_utc":"2026-10-07T00:41:00+00:00","dt_local":"2026-10-07T02:41:00+02:00","area_km2":2.188,"label":"Activité observée","coherence_level":"indisponible","coherence_fraction":0.0,"projection_displayed":false,"model_version":"fire_progression_arrival_v1"},"geometry":{"type":"Polygon","coordinates":[[[5.950855165345571,49.509887115805135],[5.950726254986399,49.50764185472014],[5.947278319475666,49.5077257474098],[5.947149570712943,49.505480477144054],[5.943701774298503,49.505564268334766],[5.943444611141817,49.50107370373883],[5.94689210691441,49.50098991944812],[5.946763391875655,49.49874463202523],[5.95021072610858,49.49866075315173],[5.949953029184361,49.4941701680813],[5.960294062658536,49.493917964039554],[5.960423356307749,49.49616324904439],[5.9638704951754615,49.49607898151495],[5.963999950394752,49.49832425734124],[5.967447228239485,49.49823988831176],[5.967836112642699,49.50497567107808],[5.964388383881396,49.505060050529856],[5.964517884324801,49.507305303483875],[5.961069993922066,49.5073895883637],[5.961199355328928,49.50963483906115],[5.950855165345571,49.509887115805135]]]}},{"type":"Feature","properties":{"category":"historical_support","snapshot_index":10,"pass_time_utc":"2026-10-07T01:26:00+00:00","dt_local":"2026-10-07T03:26:00+02:00","area_km2":4.312,"label":"Isoline temporelle","coherence_level":"indisponible","coherence_fraction":0.0,"projection_displayed":false,"model_version":"fire_progression_arrival_v1"},"geometry":{"type":"Polygon","coordinates":[[[5.950984086963577,49.51213237116],[5.950855165345571,49.509887115805135],[5.947407079482656,49.50997101194923],[5.947278319475666,49.5077257474098],[5.943830372720666,49.50780954205077],[5.943444611141817,49.50107370373883],[5.94689210691441,49.50098991944812],[5.946763391875655,49.49874463202523],[5.95021072610858,49.49866075315173],[5.949953029184361,49.4941701680813],[5.9534000516083845,49.49408619809082],[5.953142099173147,49.489595597116136],[5.970375539626326,49.489174311512215],[5.9706349945428,49.4936648777937],[5.974081949200971,49.4935803196685],[5.974601596101657,49.502561369806564],[5.971154040311767,49.502645941859406],[5.971543443629231,49.50938167985914],[5.968095425515737,49.50946616430994],[5.968225098937971,49.511711402331265],[5.950984086963577,49.51213237116]]]}},{"type":"Feature","properties":{"category":"observed_front","snapshot_index":10,"pass_time_utc":"2026-10-07T01:26:00+00:00","dt_local":"2026-10-07T03:26:00+02:00","area_km2":2.312,"label":"Activité observée","coherence_level":"indisponible","coherence_fraction":0.0,"projection_displayed":false,"model_version":"fire_progression_arrival_v1"},"geometry":{"type":"Polygon","coordinates":[[[5.954303239949651,49.50980312160878],[5.954174179239772,49.50755786398228],[5.950726254986399,49.50764185472014],[5.950597355884589,49.50539658790868],[5.947149570712943,49.505480477144054],[5.946763391875655,49.49874463202523],[5.95021072610858,49.49866075315173],[5.950081872021474,49.49641546347067],[5.953529044717671,49.49633149002272],[5.9534000516083845,49.49408619809082],[5.963741051258501,49.49383369997969],[5.9638704951754615,49.49607898151495],[5.967317622740844,49.49599461595925],[5.967447228239485,49.49823988831176],[5.970894494767325,49.498155421252456],[5.971283830082664,49.50489119358437],[5.967836112642699,49.50497567107808],[5.967965763417807,49.507220920557664],[5.964517884324801,49.507305303483875],[5.964647396077938,49.509550550710756],[5.954303239949651,49.50980312160878]]]}},{"type":"Feature","properties":{"category":"historical_support","snapshot_index":11,"pass_time_utc":"2026-10-07T02:02:00+00:00","dt_local":"2026-10-07T04:02:00+02:00","area_km2":4.312,"label":"Isoline temporelle","coherence_level":"indisponible","coherence_fraction":0.0,"projection_displayed":false,"model_version":"fire_progression_arrival_v1"},"geometry":{"type":"Polygon","coordinates":[[[5.950984086963577,49.51213237116],[5.950855165345571,49.509887115805135],[5.947407079482656,49.50997101194923],[5.947278319475666,49.5077257474098],[5.943830372720666,49.50780954205077],[5.943444611141817,49.50107370373883],[5.94689210691441,49.50098991944812],[5.946763391875655,49.49874463202523],[5.95021072610858,49.49866075315173],[5.949953029184361,49.4941701680813],[5.9534000516083845,49.49408619809082],[5.953142099173147,49.489595597116136],[5.970375539626326,49.489174311512215],[5.9706349945428,49.4936648777937],[5.974081949200971,49.4935803196685],[5.974601596101657,49.502561369806564],[5.971154040311767,49.502645941859406],[5.971543443629231,49.50938167985914],[5.968095425515737,49.50946616430994],[5.968225098937971,49.511711402331265],[5.950984086963577,49.51213237116]]]}},{"type":"Feature","properties":{"category":"observed_front","snapshot_index":11,"pass_time_utc":"2026-10-07T02:02:00+00:00","dt_local":"2026-10-07T04:02:00+02:00","area_km2":1.812,"label":"Activité observée","coherence_level":"indisponible","coherence_fraction":0.0,"projection_displayed":false,"model_version":"fire_progression_arrival_v1"},"geometry":{"type":"Polygon","coordinates":[[[5.9577513032818015,49.509719029360646],[5.9576220922226915,49.507473775196644],[5.950726254986399,49.50764185472014],[5.950468468038664,49.503151315374375],[5.947020833193014,49.50323520115562],[5.94689210691441,49.50098991944812],[5.950339591447151,49.500906037120835],[5.950081872021474,49.49641546347067],[5.956976206150791,49.49624741854715],[5.956847062770803,49.49400213007676],[5.960294062658536,49.493917964039554],[5.960423356307749,49.49616324904439],[5.967317622740844,49.49599461595925],[5.96757684505502,49.500485154951484],[5.971024261873816,49.50040068441421],[5.971154040311767,49.502645941859406],[5.96770647318893,49.50273041587481],[5.967965763417807,49.507220920557664],[5.961069993922066,49.5073895883637],[5.961199355328928,49.50963483906115],[5.9577513032818015,49.509719029360646]]]}},{"type":"Feature","properties":{"category":"historical_support","snapshot_index":12,"pass_time_utc":"2026-10-07T02:21:00+00:00","dt_local":"2026-10-07T04:21:00+02:00","area_km2":4.312,"label":"Isoline temporelle","coherence_level":"indisponible","coherence_fraction":0.0,"projection_displayed":false,"model_version":"fire_progression_arrival_v1"},"geometry":{"type":"Polygon","coordinates":[[[5.950984086963577,49.51213237116],[5.950855165345571,49.509887115805135],[5.947407079482656,49.50997101194923],[5.947278319475666,49.5077257474098],[5.943830372720666,49.50780954205077],[5.943444611141817,49.50107370373883],[5.94689210691441,49.50098991944812],[5.946763391875655,49.49874463202523],[5.95021072610858,49.49866075315173],[5.949953029184361,49.4941701680813],[5.9534000516083845,49.49408619809082],[5.953142099173147,49.489595597116136],[5.970375539626326,49.489174311512215],[5.9706349945428,49.4936648777937],[5.974081949200971,49.4935803196685],[5.974601596101657,49.502561369806564],[5.971154040311767,49.502645941859406],[5.971543443629231,49.50938167985914],[5.968095425515737,49.50946616430994],[5.968225098937971,49.511711402331265],[5.950984086963577,49.51213237116]]]}},{"type":"Feature","properties":{"category":"observed_front","snapshot_index":12,"pass_time_utc":"2026-10-07T02:21:00+00:00","dt_local":"2026-10-07T04:21:00+02:00","area_km2":2.312,"label":"Activité observée","coherence_level":"indisponible","coherence_fraction":0.0,"projection_displayed":false,"model_version":"fire_progression_arrival_v1"},"geometry":{"type":"Polygon","coordinates":[[[5.950984086963577,49.51213237116],[5.950855165345571,49.509887115805135],[5.947407079482656,49.50997101194923],[5.947278319475666,49.5077257474098],[5.943830372720666,49.50780954205077],[5.943444611141817,49.50107370373883],[5.94689210691441,49.50098991944812],[5.946763391875655,49.49874463202523],[5.95021072610858,49.49866075315173],[5.950081872021474,49.49641546347067],[5.960423356307749,49.49616324904439],[5.960552661246209,49.49840852834041],[5.963999950394752,49.49832425734124],[5.96412941691785,49.50056952745491],[5.96757684505502,49.500485154951484],[5.967965763417807,49.507220920557664],[5.964517884324801,49.507305303483875],[5.964647396077938,49.509550550710756],[5.961199355328928,49.50963483906115],[5.961328728033907,49.51188008402798],[5.950984086963577,49.51213237116]]]}},{"type":"Feature","properties":{"category":"firms_extent_snapshot","snapshot_index":13,"pass_time_utc":"2026-10-07T03:06:00+00:00","dt_local":"2026-10-07T05:06:00+02:00","label":"Emprise FIRMS cumulée à ce passage","interpretation":"Enveloppe des détections FIRMS, pas une surface brûlée","cumulative":true,"point_count":17,"extent_method":"cumulative_detection_extent_smoothed_landmasked_web_v1","local_cluster_link_m":10000.0,"model_version":"fire_progression_arrival_v1"},"geometry":{"type":"MultiPolygon","coordinates":[[[[5.952437982805829,49.50565584397923],[5.952884251572692,49.506638513131364],[5.953816483373729,49.50734174135595],[5.955131096241557,49.50618549093963],[5.955898137140856,49.50751583184541],[5.953893908750091,49.50868889717056],[5.95381632934045,49.50869078784702],[5.953941484838606,49.508966345322385],[5.956301951483078,49.50983083862159],[5.958765770317991,49.50962934155778],[5.96418481154306,49.507122190517244],[5.9662897973985505,49.50461710462747],[5.966452899323959,49.50310932494851],[5.965198700193427,49.50086264414762],[5.9660827805191845,49.49849821330328],[5.965720468437189,49.49715601253377],[5.963398839870749,49.4957533258957],[5.960234458384991,49.4958306731288],[5.956059009801719,49.499067402196346],[5.950137303949463,49.50021218457245],[5.948744993116455,49.502330683014264],[5.949527720398039,49.5038098637385],[5.952437982805829,49.50565584397923]]],[[[5.897426758570791,49.5293400011367],[5.899026830526639,49.52984846229314],[5.902424950773392,49.52941412302342],[5.904882660528932,49.52707333769429],[5.903373653603732,49.52207797785519],[5.902182844456418,49.521089938119005],[5.9005830139051065,49.52058151362865],[5.898653944557,49.52057805661316],[5.896868276738038,49.52118102698706],[5.893382157662915,49.52373980972726],[5.892723036686844,49.52529876989879],[5.893758308024772,49.52698477124142],[5.897426758570791,49.5293400011367]]]]}},{"type":"Feature","properties":{"category":"historical_support","snapshot_index":13,"pass_time_utc":"2026-10-07T03:06:00+00:00","dt_local":"2026-10-07T05:06:00+02:00","area_km2":4.562,"label":"Isoline temporelle","coherence_level":"indisponible","coherence_fraction":0.0,"projection_displayed":false,"model_version":"fire_progression_arrival_v1"},"geometry":{"type":"Polygon","coordinates":[[[5.950984086963577,49.51213237116],[5.950855165345571,49.509887115805135],[5.947407079482656,49.50997101194923],[5.947278319475666,49.5077257474098],[5.943830372720666,49.50780954205077],[5.943187492892182,49.49658311628192],[5.9466346880752825,49.49649933889056],[5.946505995511817,49.49425404004773],[5.9534000516083845,49.49408619809082],[5.953142099173147,49.489595597116136],[5.970375539626326,49.489174311512215],[5.9706349945428,49.4936648777937],[5.974081949200971,49.4935803196685],[5.974601596101657,49.502561369806564],[5.971154040311767,49.502645941859406],[5.971543443629231,49.50938167985914],[5.968095425515737,49.50946616430994],[5.968225098937971,49.511711402331265],[5.950984086963577,49.51213237116]]]}},{"type":"Feature","properties":{"category":"observed_front","snapshot_index":13,"pass_time_utc":"2026-10-07T03:06:00+00:00","dt_local":"2026-10-07T05:06:00+02:00","area_km2":2.812,"label":"Activité observée","coherence_level":"indisponible","coherence_fraction":0.0,"projection_displayed":false,"model_version":"fire_progression_arrival_v1"},"geometry":{"type":"Polygon","coordinates":[[[5.950726254986399,49.50764185472014],[5.950597355884589,49.50539658790868],[5.947149570712943,49.505480477144054],[5.947020833193014,49.50323520115562],[5.943573187106042,49.50331898889623],[5.943187492892182,49.49658311628192],[5.9466346880752825,49.49649933889056],[5.946505995511817,49.49425404004773],[5.9534000516083845,49.49408619809082],[5.9532710697607,49.49184090045408],[5.967058445688319,49.49150405413039],[5.967188028557616,49.493749337897576],[5.9706349945428,49.4936648777937],[5.971154040311767,49.502645941859406],[5.96770647318893,49.50273041587481],[5.967836112642699,49.50497567107808],[5.964388383881396,49.505060050529856],[5.964517884324801,49.507305303483875],[5.950726254986399,49.50764185472014]]]}},{"type":"Feature","properties":{"category":"firms_extent_snapshot","snapshot_index":14,"pass_time_utc":"2026-10-08T13:31:00+00:00","dt_local":"2026-10-08T15:31:00+02:00","label":"Emprise FIRMS cumulée à ce passage","interpretation":"Enveloppe des détections FIRMS, pas une surface brûlée","cumulative":true,"point_count":18,"extent_method":"cumulative_detection_extent_smoothed_landmasked_web_v1","local_cluster_link_m":10000.0,"model_version":"fire_progression_arrival_v1"},"geometry":{"type":"MultiPolygon","coordinates":[[[[6.000037943214353,49.47163373678198],[6.003299695532312,49.47240151440366],[6.005699560664601,49.47237398473043],[6.010702883396621,49.47098447274656],[6.0128765942420825,49.469296369006244],[6.013196765843275,49.467032259737834],[6.012073748935017,49.46300248073473],[6.010950163253735,49.461853133488255],[6.009269872506876,49.46123841611299],[6.003604009974395,49.460787930564535],[6.001353716371301,49.4611532510836],[5.997933306212415,49.46289271068463],[5.996387998081172,49.46610231186969],[5.9981613866628285,49.47046126613679],[6.000037943214353,49.47163373678198]]],[[[5.939580718808068,49.50541488067686],[5.9441147928108915,49.50587148387747],[5.945911832948593,49.50658268813114],[5.949077062271496,49.512054792565436],[5.951986025670653,49.51379951647064],[5.955772279163987,49.514714208892784],[5.958809500849825,49.5147372194954],[5.9616483934834825,49.51420686655313],[5.969038728262133,49.511068834100314],[5.9717847209380235,49.50914090157967],[5.973188489834737,49.50667542648293],[5.973054087599013,49.504101697818],[5.971862120423545,49.502165228518855],[5.966933090286366,49.49912767659154],[5.965057592823467,49.49649342866523],[5.962614412379175,49.495619045235564],[5.958266315777707,49.49618894332723],[5.953495582996236,49.49552479324441],[5.951434879823758,49.495760547703526],[5.947681380603216,49.49758391206107],[5.94448862891653,49.4999627300151],[5.939072408952541,49.50106644117724],[5.937995403132453,49.50198910404229],[5.937614899817198,49.503220303329186],[5.938175733659656,49.50447793421671],[5.939580718808068,49.50541488067686]],[[5.952372832607018,49.50625271324448],[5.953816483373729,49.50734174135595],[5.955131096241557,49.50618549093963],[5.9552601952915545,49.508430750964266],[5.951122616725134,49.50853156504163],[5.952372832607018,49.50625271324448]]],[[[5.918784595762189,49.5347282135426],[5.922224548821929,49.53610718919552],[5.9262135913011535,49.536524326108015],[5.930144213687262,49.53591609731837],[5.933417813168965,49.53437513124919],[5.935535943374545,49.532136091644944],[5.936176239612191,49.52953991369245],[5.935241436509252,49.52698186358315],[5.93287405044765,49.5248513501531],[5.929434564974587,49.52347265914392],[5.925446509208038,49.52305562207231],[5.921516814657683,49.523663707414556],[5.918243540621195,49.525204370777594],[5.916124942828917,49.527443125738095],[5.915483659878623,49.53003920384968],[5.916417535145827,49.53259739740639],[5.918784595762189,49.5347282135426]]],[[[5.898108616130875,49.52962623201077],[5.900640393780074,49.529891549369786],[5.902742168952948,49.529248888608016],[5.904580312489408,49.52762211001919],[5.905278574650877,49.523863059813294],[5.904545099553884,49.52270150886426],[5.902182844456418,49.521089938119005],[5.898969742929975,49.52053842534368],[5.89718546197222,49.52101580558626],[5.892856630086214,49.523376170959125],[5.891693030685205,49.52534873476546],[5.893322766212042,49.527394354970944],[5.898108616130875,49.52962623201077]]]]}},{"type":"Feature","properties":{"category":"historical_support","snapshot_index":14,"pass_time_utc":"2026-10-08T13:31:00+00:00","dt_local":"2026-10-08T15:31:00+02:00","area_km2":4.562,"label":"Isoline temporelle","coherence_level":"indisponible","coherence_fraction":0.0,"projection_displayed":false,"model_version":"fire_progression_arrival_v1"},"geometry":{"type":"Polygon","coordinates":[[[5.950984086963577,49.51213237116],[5.950855165345571,49.509887115805135],[5.947407079482656,49.50997101194923],[5.947278319475666,49.5077257474098],[5.943830372720666,49.50780954205077],[5.943187492892182,49.49658311628192],[5.9466346880752825,49.49649933889056],[5.946505995511817,49.49425404004773],[5.9534000516083845,49.49408619809082],[5.953142099173147,49.489595597116136],[5.970375539626326,49.489174311512215],[5.9706349945428,49.4936648777937],[5.974081949200971,49.4935803196685],[5.974601596101657,49.502561369806564],[5.971154040311767,49.502645941859406],[5.971543443629231,49.50938167985914],[5.968095425515737,49.50946616430994],[5.968225098937971,49.511711402331265],[5.950984086963577,49.51213237116]]]}},{"type":"Feature","properties":{"category":"observed_front","snapshot_index":14,"pass_time_utc":"2026-10-08T13:31:00+00:00","dt_local":"2026-10-08T15:31:00+02:00","area_km2":2.312,"label":"Activité observée","coherence_level":"indisponible","coherence_fraction":0.0,"projection_displayed":false,"model_version":"fire_progression_arrival_v1"},"geometry":{"type":"Polygon","coordinates":[[[5.9576220922226915,49.507473775196644],[5.957492892447128,49.505228515305845],[5.954045129800347,49.505312600629125],[5.9539160916299005,49.50306733155296],[5.950468468038664,49.503151315374375],[5.950081872021474,49.49641546347067],[5.953529044717671,49.49633149002272],[5.9534000516083845,49.49408619809082],[5.956847062770803,49.49400213007676],[5.9567179306655005,49.49175683590137],[5.967058445688319,49.49150405413039],[5.967188028557616,49.493749337897576],[5.9706349945428,49.4936648777937],[5.970764738990815,49.49591015237773],[5.97421184391229,49.495825590770885],[5.974601596101657,49.502561369806564],[5.971154040311767,49.502645941859406],[5.971283830082664,49.50489119358437],[5.967836112642699,49.50497567107808],[5.967965763417807,49.507220920557664],[5.9576220922226915,49.507473775196644]]]}},{"type":"Feature","properties":{"category":"firms_extent_snapshot","snapshot_index":15,"pass_time_utc":"2026-10-09T00:48:00+00:00","dt_local":"2026-10-09T02:48:00+02:00","label":"Emprise FIRMS cumulée à ce passage","interpretation":"Enveloppe des détections FIRMS, pas une surface brûlée","cumulative":true,"point_count":20,"extent_method":"cumulative_detection_extent_smoothed_landmasked_web_v1","local_cluster_link_m":10000.0,"model_version":"fire_progression_arrival_v1"},"geometry":{"type":"MultiPolygon","coordinates":[[[[6.000037943214353,49.47163373678198],[6.003299695532312,49.47240151440366],[6.005699560664601,49.47237398473043],[6.010702883396621,49.47098447274656],[6.0128765942420825,49.469296369006244],[6.013196765843275,49.467032259737834],[6.012073748935017,49.46300248073473],[6.010950163253735,49.461853133488255],[6.009269872506876,49.46123841611299],[6.003604009974395,49.460787930564535],[6.001353716371301,49.4611532510836],[5.997933306212415,49.46289271068463],[5.996387998081172,49.46610231186969],[5.9981613866628285,49.47046126613679],[6.000037943214353,49.47163373678198]]],[[[5.939580718808068,49.50541488067686],[5.9441147928108915,49.50587148387747],[5.945911832948593,49.50658268813114],[5.949077062271496,49.512054792565436],[5.951986025670653,49.51379951647064],[5.955772279163987,49.514714208892784],[5.958809500849825,49.5147372194954],[5.9616483934834825,49.51420686655313],[5.969038728262133,49.511068834100314],[5.9717847209380235,49.50914090157967],[5.973188489834737,49.50667542648293],[5.973054087599013,49.504101697818],[5.971862120423545,49.502165228518855],[5.966933090286366,49.49912767659154],[5.965057592823467,49.49649342866523],[5.962614412379175,49.495619045235564],[5.958266315777707,49.49618894332723],[5.953495582996236,49.49552479324441],[5.951434879823758,49.495760547703526],[5.947681380603216,49.49758391206107],[5.94448862891653,49.4999627300151],[5.939072408952541,49.50106644117724],[5.937995403132453,49.50198910404229],[5.937614899817198,49.503220303329186],[5.938175733659656,49.50447793421671],[5.939580718808068,49.50541488067686]],[[5.952372832607018,49.50625271324448],[5.953816483373729,49.50734174135595],[5.955131096241557,49.50618549093963],[5.9552601952915545,49.508430750964266],[5.951122616725134,49.50853156504163],[5.952372832607018,49.50625271324448]]],[[[5.918784595762189,49.5347282135426],[5.922224548821929,49.53610718919552],[5.9262135913011535,49.536524326108015],[5.930144213687262,49.53591609731837],[5.933417813168965,49.53437513124919],[5.935535943374545,49.532136091644944],[5.936176239612191,49.52953991369245],[5.935241436509252,49.52698186358315],[5.93287405044765,49.5248513501531],[5.929434564974587,49.52347265914392],[5.925446509208038,49.52305562207231],[5.921516814657683,49.523663707414556],[5.918243540621195,49.525204370777594],[5.916124942828917,49.527443125738095],[5.915483659878623,49.53003920384968],[5.916417535145827,49.53259739740639],[5.918784595762189,49.5347282135426]]],[[[5.898108616130875,49.52962623201077],[5.900640393780074,49.529891549369786],[5.902742168952948,49.529248888608016],[5.904580312489408,49.52762211001919],[5.905278574650877,49.523863059813294],[5.904545099553884,49.52270150886426],[5.902182844456418,49.521089938119005],[5.898969742929975,49.52053842534368],[5.89718546197222,49.52101580558626],[5.892856630086214,49.523376170959125],[5.891693030685205,49.52534873476546],[5.893322766212042,49.527394354970944],[5.898108616130875,49.52962623201077]]]]}},{"type":"Feature","properties":{"category":"historical_support","snapshot_index":15,"pass_time_utc":"2026-10-09T00:48:00+00:00","dt_local":"2026-10-09T02:48:00+02:00","area_km2":4.562,"label":"Isoline temporelle","coherence_level":"indisponible","coherence_fraction":0.0,"projection_displayed":false,"model_version":"fire_progression_arrival_v1"},"geometry":{"type":"Polygon","coordinates":[[[5.950984086963577,49.51213237116],[5.950855165345571,49.509887115805135],[5.947407079482656,49.50997101194923],[5.947278319475666,49.5077257474098],[5.943830372720666,49.50780954205077],[5.943187492892182,49.49658311628192],[5.9466346880752825,49.49649933889056],[5.946505995511817,49.49425404004773],[5.9534000516083845,49.49408619809082],[5.953142099173147,49.489595597116136],[5.970375539626326,49.489174311512215],[5.9706349945428,49.4936648777937],[5.974081949200971,49.4935803196685],[5.974601596101657,49.502561369806564],[5.971154040311767,49.502645941859406],[5.971543443629231,49.50938167985914],[5.968095425515737,49.50946616430994],[5.968225098937971,49.511711402331265],[5.950984086963577,49.51213237116]]]}},{"type":"Feature","properties":{"category":"observed_front","snapshot_index":15,"pass_time_utc":"2026-10-09T00:48:00+00:00","dt_local":"2026-10-09T02:48:00+02:00","area_km2":2.562,"label":"Activité observée","coherence_level":"indisponible","coherence_fraction":0.0,"projection_displayed":false,"model_version":"fire_progression_arrival_v1"},"geometry":{"type":"Polygon","coordinates":[[[5.950855165345571,49.509887115805135],[5.950597355884589,49.50539658790868],[5.947149570712943,49.505480477144054],[5.946763391875655,49.49874463202523],[5.95021072610858,49.49866075315173],[5.949953029184361,49.4941701680813],[5.967188028557616,49.493749337897576],[5.967447228239485,49.49823988831176],[5.970894494767325,49.498155421252456],[5.971283830082664,49.50489119358437],[5.967836112642699,49.50497567107808],[5.968095425515737,49.50946616430994],[5.950855165345571,49.509887115805135]]]}},{"type":"Feature","properties":{"category":"historical_support","snapshot_index":16,"pass_time_utc":"2026-10-09T01:26:00+00:00","dt_local":"2026-10-09T03:26:00+02:00","area_km2":4.562,"label":"Isoline temporelle","coherence_level":"indisponible","coherence_fraction":0.0,"projection_displayed":false,"model_version":"fire_progression_arrival_v1"},"geometry":{"type":"Polygon","coordinates":[[[5.950984086963577,49.51213237116],[5.950855165345571,49.509887115805135],[5.947407079482656,49.50997101194923],[5.947278319475666,49.5077257474098],[5.943830372720666,49.50780954205077],[5.943187492892182,49.49658311628192],[5.9466346880752825,49.49649933889056],[5.946505995511817,49.49425404004773],[5.9534000516083845,49.49408619809082],[5.953142099173147,49.489595597116136],[5.970375539626326,49.489174311512215],[5.9706349945428,49.4936648777937],[5.974081949200971,49.4935803196685],[5.974601596101657,49.502561369806564],[5.971154040311767,49.502645941859406],[5.971543443629231,49.50938167985914],[5.968095425515737,49.50946616430994],[5.968225098937971,49.511711402331265],[5.950984086963577,49.51213237116]]]}},{"type":"Feature","properties":{"category":"observed_front","snapshot_index":16,"pass_time_utc":"2026-10-09T01:26:00+00:00","dt_local":"2026-10-09T03:26:00+02:00","area_km2":2.312,"label":"Activité observée","coherence_level":"indisponible","coherence_fraction":0.0,"projection_displayed":false,"model_version":"fire_progression_arrival_v1"},"geometry":{"type":"Polygon","coordinates":[[[5.954303239949651,49.50980312160878],[5.954174179239772,49.50755786398228],[5.950726254986399,49.50764185472014],[5.950597355884589,49.50539658790868],[5.947149570712943,49.505480477144054],[5.946763391875655,49.49874463202523],[5.95021072610858,49.49866075315173],[5.950081872021474,49.49641546347067],[5.953529044717671,49.49633149002272],[5.9534000516083845,49.49408619809082],[5.963741051258501,49.49383369997969],[5.9638704951754615,49.49607898151495],[5.967317622740844,49.49599461595925],[5.967447228239485,49.49823988831176],[5.970894494767325,49.498155421252456],[5.971283830082664,49.50489119358437],[5.967836112642699,49.50497567107808],[5.967965763417807,49.507220920557664],[5.964517884324801,49.507305303483875],[5.964647396077938,49.509550550710756],[5.954303239949651,49.50980312160878]]]}},{"type":"Feature","properties":{"category":"firms_extent_snapshot","snapshot_index":17,"pass_time_utc":"2026-10-09T01:43:00+00:00","dt_local":"2026-10-09T03:43:00+02:00","label":"Emprise FIRMS cumulée à ce passage","interpretation":"Enveloppe des détections FIRMS, pas une surface brûlée","cumulative":true,"point_count":23,"extent_method":"cumulative_detection_extent_smoothed_landmasked_web_v1","local_cluster_link_m":10000.0,"model_version":"fire_progression_arrival_v1"},"geometry":{"type":"MultiPolygon","coordinates":[[[[6.000037943214353,49.47163373678198],[6.003299695532312,49.47240151440366],[6.005699560664601,49.47237398473043],[6.010702883396621,49.47098447274656],[6.0128765942420825,49.469296369006244],[6.013196765843275,49.467032259737834],[6.012073748935017,49.46300248073473],[6.010950163253735,49.461853133488255],[6.009269872506876,49.46123841611299],[6.003604009974395,49.460787930564535],[6.001353716371301,49.4611532510836],[5.997933306212415,49.46289271068463],[5.996387998081172,49.46610231186969],[5.9981613866628285,49.47046126613679],[6.000037943214353,49.47163373678198]]],[[[5.939580718808068,49.50541488067686],[5.9441147928108915,49.50587148387747],[5.945911832948593,49.50658268813114],[5.949077062271496,49.512054792565436],[5.951986025670653,49.51379951647064],[5.955772279163987,49.514714208892784],[5.958809500849825,49.5147372194954],[5.9616483934834825,49.51420686655313],[5.969038728262133,49.511068834100314],[5.9717847209380235,49.50914090157967],[5.973188489834737,49.50667542648293],[5.973054087599013,49.504101697818],[5.971862120423545,49.502165228518855],[5.966933090286366,49.49912767659154],[5.965057592823467,49.49649342866523],[5.962614412379175,49.495619045235564],[5.958266315777707,49.49618894332723],[5.953495582996236,49.49552479324441],[5.951434879823758,49.495760547703526],[5.947681380603216,49.49758391206107],[5.94448862891653,49.4999627300151],[5.939072408952541,49.50106644117724],[5.937995403132453,49.50198910404229],[5.937614899817198,49.503220303329186],[5.938175733659656,49.50447793421671],[5.939580718808068,49.50541488067686]],[[5.952372832607018,49.50625271324448],[5.953816483373729,49.50734174135595],[5.955131096241557,49.50618549093963],[5.9552601952915545,49.508430750964266],[5.951122616725134,49.50853156504163],[5.952372832607018,49.50625271324448]]],[[[5.918784595762189,49.5347282135426],[5.922224548821929,49.53610718919552],[5.9262135913011535,49.536524326108015],[5.930144213687262,49.53591609731837],[5.933417813168965,49.53437513124919],[5.935535943374545,49.532136091644944],[5.936176239612191,49.52953991369245],[5.935241436509252,49.52698186358315],[5.93287405044765,49.5248513501531],[5.929434564974587,49.52347265914392],[5.925446509208038,49.52305562207231],[5.921516814657683,49.523663707414556],[5.918243540621195,49.525204370777594],[5.916124942828917,49.527443125738095],[5.915483659878623,49.53003920384968],[5.916417535145827,49.53259739740639],[5.918784595762189,49.5347282135426]]],[[[5.898108616130875,49.52962623201077],[5.900640393780074,49.529891549369786],[5.902742168952948,49.529248888608016],[5.904580312489408,49.52762211001919],[5.905278574650877,49.523863059813294],[5.904545099553884,49.52270150886426],[5.902182844456418,49.521089938119005],[5.898969742929975,49.52053842534368],[5.89718546197222,49.52101580558626],[5.892856630086214,49.523376170959125],[5.891693030685205,49.52534873476546],[5.893322766212042,49.527394354970944],[5.898108616130875,49.52962623201077]]]]}},{"type":"Feature","properties":{"category":"historical_support","snapshot_index":17,"pass_time_utc":"2026-10-09T01:43:00+00:00","dt_local":"2026-10-09T03:43:00+02:00","area_km2":4.562,"label":"Isoline temporelle","coherence_level":"indisponible","coherence_fraction":0.0,"projection_displayed":false,"model_version":"fire_progression_arrival_v1"},"geometry":{"type":"Polygon","coordinates":[[[5.950984086963577,49.51213237116],[5.950855165345571,49.509887115805135],[5.947407079482656,49.50997101194923],[5.947278319475666,49.5077257474098],[5.943830372720666,49.50780954205077],[5.943187492892182,49.49658311628192],[5.9466346880752825,49.49649933889056],[5.946505995511817,49.49425404004773],[5.9534000516083845,49.49408619809082],[5.953142099173147,49.489595597116136],[5.970375539626326,49.489174311512215],[5.9706349945428,49.4936648777937],[5.974081949200971,49.4935803196685],[5.974601596101657,49.502561369806564],[5.971154040311767,49.502645941859406],[5.971543443629231,49.50938167985914],[5.968095425515737,49.50946616430994],[5.968225098937971,49.511711402331265],[5.950984086963577,49.51213237116]]]}},{"type":"Feature","properties":{"category":"observed_front","snapshot_index":17,"pass_time_utc":"2026-10-09T01:43:00+00:00","dt_local":"2026-10-09T03:43:00+02:00","area_km2":2.562,"label":"Activité observée","coherence_level":"indisponible","coherence_fraction":0.0,"projection_displayed":false,"model_version":"fire_progression_arrival_v1"},"geometry":{"type":"Polygon","coordinates":[[[5.950855165345571,49.509887115805135],[5.950597355884589,49.50539658790868],[5.947149570712943,49.505480477144054],[5.946763391875655,49.49874463202523],[5.95021072610858,49.49866075315173],[5.949953029184361,49.4941701680813],[5.967188028557616,49.493749337897576],[5.967447228239485,49.49823988831176],[5.970894494767325,49.498155421252456],[5.971283830082664,49.50489119358437],[5.967836112642699,49.50497567107808],[5.968095425515737,49.50946616430994],[5.950855165345571,49.509887115805135]]]}}]}