{"type":"FeatureCollection","name":"detection_envelopes","crs":{"type":"name","properties":{"name":"urn:ogc:def:crs:OGC:1.3:CRS84"}},"features":[{"type":"Feature","properties":{"cluster_id":1,"snapshot_index":1,"estimated_time_utc":"2026-08-09T11:53:00Z","observed_until_utc":"2026-08-09T11:53:00Z","target_time_utc":"2026-08-09T11:53:00Z","arrival_h":0.0,"hours_ago":8.283333333333333,"supported_detections_cumulative":3,"sources_cumulative":"VIIRS_SNPP_NRT","last_source":"VIIRS_SNPP_NRT","last_satellite":"N","last_instrument":"VIIRS","detected_area_km2":0.8132588915870712,"product_type":"cumulative_active_fire_detection_extent"},"geometry":{"type":"LineString","coordinates":[[3.168104834727567,44.36134190234945],[3.168039388492322,44.36234100411776],[3.166165299584038,44.36324964985955],[3.165215660681778,44.36437073673548],[3.165702751363526,44.36669278326639],[3.167070341823497,44.36756372370296],[3.169915800754119,44.36788570267236],[3.172394970355164,44.369111238713295],[3.175573136497928,44.36874884941262],[3.177044591867535,44.36731899517039],[3.177039561489186,44.36570956763209],[3.17585459858942,44.36444351638752],[3.173377360739452,44.36371727610357],[3.172766953179562,44.36299030929287],[3.174911873320604,44.360676793268716],[3.174406726692308,44.358397063557774],[3.171995823557699,44.357267078720156],[3.169228446218051,44.35766647475245],[3.167614070988943,44.35937740124194],[3.168104834727567,44.36134190234945]]}},{"type":"Feature","properties":{"cluster_id":1,"snapshot_index":2,"estimated_time_utc":"2026-08-09T15:12:00Z","observed_until_utc":"2026-08-09T15:12:00Z","target_time_utc":"2026-08-09T17:53:00Z","arrival_h":3.316666666666667,"hours_ago":4.966666666666667,"supported_detections_cumulative":23,"sources_cumulative":"MODIS_NRT, VIIRS_NOAA20_NRT, VIIRS_NOAA21_NRT, VIIRS_SNPP_NRT","last_source":"MODIS_NRT","last_satellite":"Aqua","last_instrument":"MODIS","detected_area_km2":3.2688864710596315,"product_type":"cumulative_active_fire_detection_extent"},"geometry":{"type":"LineString","coordinates":[[3.172426963110101,44.356166884910074],[3.168296127671476,44.35476107999378],[3.163670619368118,44.354931113213894],[3.159761642297569,44.356632461201706],[3.157431805040884,44.35945493115514],[3.157085038181297,44.36203342751666],[3.158146305474653,44.3645547702873],[3.160471936748434,44.36659280315572],[3.163293389186273,44.36773148771114],[3.162934550549849,44.36949051369474],[3.164139011418966,44.37141569331079],[3.162691684402333,44.37305176693061],[3.162418411878667,44.374392137761966],[3.163275245269686,44.37583387039061],[3.165104495598165,44.376691177946036],[3.172243049372395,44.37679613278466],[3.175077817032503,44.377253610830174],[3.177087856830959,44.376638815463764],[3.178282852653394,44.37532668781996],[3.178278052310197,44.373801737407966],[3.17713597749706,44.372114607859736],[3.178786655541839,44.369982350589616],[3.177773185418414,44.36705793773887],[3.179441446438906,44.36534699074614],[3.179632854367843,44.36378577631],[3.1786265563613,44.36244252805757],[3.176728214745103,44.36169950655018],[3.176824797789273,44.36039914610051],[3.175566645056028,44.35747703147138],[3.172426963110101,44.356166884910074]]}},{"type":"Feature","properties":{"cluster_id":1,"snapshot_index":3,"estimated_time_utc":"2026-08-09T20:10:00Z","observed_until_utc":"2026-08-09T20:10:00Z","target_time_utc":"2026-08-09T20:10:00Z","arrival_h":8.283333333333333,"hours_ago":0.0,"supported_detections_cumulative":25,"sources_cumulative":"MODIS_NRT, VIIRS_NOAA20_NRT, VIIRS_NOAA21_NRT, VIIRS_SNPP_NRT","last_source":"MODIS_NRT","last_satellite":"Terra","last_instrument":"MODIS","detected_area_km2":5.133034735808308,"product_type":"cumulative_active_fire_detection_extent"},"geometry":{"type":"LineString","coordinates":[[3.187098126854716,44.35879089675085],[3.186041853814308,44.35631375924225],[3.184355622904949,44.35469045527004],[3.181349041835714,44.35325626361328],[3.17861041225732,44.35276881523805],[3.17409188194506,44.35326798314723],[3.170406724652492,44.35526349527439],[3.167321780663417,44.35465889864152],[3.163670619368118,44.354931113213894],[3.161181110616387,44.35578758377445],[3.159184159974957,44.35709145465662],[3.157224051657014,44.36005503406019],[3.157442579103955,44.36333159217764],[3.159788478822829,44.36614733319131],[3.163293389186273,44.36773148771114],[3.162899697527633,44.369324337949635],[3.160913349222525,44.37063572394228],[3.159506125477884,44.372340183791586],[3.158852824597585,44.37554358212749],[3.159914423773181,44.378064923676476],[3.162240673503542,44.38010293195452],[3.165477460125171,44.381347271526245],[3.169131909170241,44.381608445926396],[3.172647481402475,44.380846680202055],[3.175488807809206,44.37917798420918],[3.178413342013714,44.37485055153125],[3.177136253776282,44.37220294559102],[3.178848898266684,44.36967659680995],[3.177832420227549,44.36688666732236],[3.178665447689277,44.3662074039536],[3.182959784033512,44.3651062421057],[3.185007552230447,44.363777324998196],[3.186758890242521,44.36141340482294],[3.187098126854716,44.35879089675085]]}}],"metadata":{"generated_at_utc":"2026-08-12T15:15:17.031715Z","product_type":"cumulative_active_fire_detection_extent","product_label":"Emprises cumulées des détections actives FIRMS","not_a_burn_perimeter":true,"not_a_continuous_fire_front":true,"not_an_arrival_time_interpolation":true,"snapshot_step_hours":6,"confidence_filter":{"VIIRS":["nominal","high"],"MODIS_minimum":30},"footprint_radius_m":{"VIIRS":300.0,"MODIS":750.0},"same_pass_neighbour_m":2000.0,"continuity_distance_m":3000.0,"clusters":[{"cluster_id":1,"first_supported_detection_utc":"2026-08-09T11:53:00Z","last_supported_detection_utc":"2026-08-09T20:10:00Z","pass_states":6,"published_snapshots":3,"final_detected_area_km2":5.133034735808308}]},"bbox":[3.157085038181297,44.35276881523805,3.187098126854716,44.381608445926396]}