{"type":"FeatureCollection","name":"fire_progression_arrival_v1","features":[{"type":"Feature","properties":{"category":"arrival_step","arrival_snapshot_index":1,"first_detected_utc":"2026-08-09T11:53:00+00:00","first_detected_local":"2026-08-09T13:53:00+02:00","area_km2":2.875,"label":"Première détection FIRMS","model_version":"fire_progression_arrival_v1"},"geometry":{"type":"Polygon","coordinates":[[[3.1662798021727045,44.370409225608846],[3.166273195777947,44.36815882244154],[3.1631359746819157,44.36816351647014],[3.163129493450068,44.365913115466604],[3.1599923964770515,44.36591771989775],[3.1599669751518378,44.35691613875097],[3.16310357367171,44.35691153507078],[3.163097095014072,44.35466114589306],[3.166233568430749,44.35465645301277],[3.166226965709191,44.35240606640158],[3.175636009036946,44.35239145203002],[3.1756429854938624,44.35464183804531],[3.1787794567529364,44.35463678761403],[3.1787865583523174,44.35688717579848],[3.1819231536354002,44.356882035769914],[3.1819592931860634,44.36813401115419],[3.1788220748137257,44.36813915223083],[3.178829179799379,44.370389554596024],[3.1662798021727045,44.370409225608846]]]}},{"type":"Feature","properties":{"category":"arrival_step","arrival_snapshot_index":3,"first_detected_utc":"2026-08-09T12:57:00+00:00","first_detected_local":"2026-08-09T14:57:00+02:00","area_km2":1.0,"label":"Première détection FIRMS","model_version":"fire_progression_arrival_v1"},"geometry":{"type":"Polygon","coordinates":[[[3.163155421467862,44.374914733598466],[3.1631489386907514,44.372664325539425],[3.1600114677739,44.37266893053386],[3.1599923964770515,44.36591771989775],[3.163129493450068,44.365913115466604],[3.1631359746819157,44.36816351647014],[3.166273195777947,44.36815882244154],[3.1662798021727045,44.370409225608846],[3.178829179799379,44.370389554596024],[3.1788220748137257,44.36813915223083],[3.1819592931860634,44.36813401115419],[3.1819737530270062,44.37263481781705],[3.178836285349646,44.372639959313],[3.178843391464595,44.374890366378445],[3.163155421467862,44.374914733598466]]]}},{"type":"Feature","properties":{"category":"arrival_step","arrival_snapshot_index":5,"first_detected_utc":"2026-08-09T15:12:00+00:00","first_detected_local":"2026-08-09T17:12:00+02:00","area_km2":0.562,"label":"Première détection FIRMS","model_version":"fire_progression_arrival_v1"},"geometry":{"type":"Polygon","coordinates":[[[3.1568428365729777,44.36142143925092],[3.156824146646641,44.35467026349017],[3.159960621082737,44.35466574938553],[3.159954267518397,44.35241536239526],[3.1630906168710924,44.35241075909048],[3.163084139242709,44.350160374666416],[3.1724928104677703,44.3501460290322],[3.172499661802014,44.352396412871315],[3.166226965709191,44.35240606640158],[3.166233568430749,44.35465645301277],[3.163097095014072,44.35466114589306],[3.16310357367171,44.35691153507078],[3.1599669751518378,44.35691613875097],[3.1599796848045623,44.36141692459402],[3.1568428365729777,44.36142143925092]]]}},{"type":"Feature","properties":{"category":"arrival_step","arrival_snapshot_index":6,"first_detected_utc":"2026-08-09T20:10:00+00:00","first_detected_local":"2026-08-09T22:10:00+02:00","area_km2":0.812,"label":"Première détection FIRMS","model_version":"fire_progression_arrival_v1"},"geometry":{"type":"MultiPolygon","coordinates":[[[[3.18509651098395,44.368128780668],[3.185052397568758,44.35462641858841],[3.181915927447868,44.35463164779504],[3.1819087018343755,44.352381262195294],[3.175636009036946,44.35239145203002],[3.1756429854938624,44.35464183804531],[3.1787794567529364,44.35463678761403],[3.1787865583523174,44.35688717579848],[3.1819231536354002,44.356882035769914],[3.1819592931860634,44.36813401115419],[3.18509651098395,44.368128780668]]],[[[3.175712780557468,44.37714582828016],[3.175705798555115,44.37489541866355],[3.163155421467862,44.374914733598466],[3.163161904760183,44.37716514400269],[3.175712780557468,44.37714582828016]]]]}},{"type":"Feature","properties":{"category":"firms_extent_snapshot","snapshot_index":1,"pass_time_utc":"2026-08-09T11:53:00+00:00","dt_local":"2026-08-09T13:53:00+02:00","label":"Emprise FIRMS cumulée à ce passage","interpretation":"Enveloppe des détections FIRMS, pas une surface brûlée","cumulative":true,"point_count":3,"extent_method":"cumulative_detection_extent_smoothed_landmasked_web_v1","local_cluster_link_m":10000.0,"model_version":"fire_progression_arrival_v1"},"geometry":{"type":"Polygon","coordinates":[[[3.1650474238424247,44.36517570602383],[3.1654606863963615,44.36639815250818],[3.1664899298789844,44.36729394826401],[3.172089507257014,44.36903567641577],[3.1744760965782013,44.369116012627096],[3.176363910550893,44.36822768496134],[3.1771387193002427,44.36598755032002],[3.1744481024291056,44.36297684311966],[3.175043292816268,44.359649549534026],[3.173680334501795,44.35782981605977],[3.170923132720506,44.35723445635084],[3.1683866694153155,44.358212187621056],[3.1675955144295376,44.35945350639054],[3.1675183569382015,44.36189434533899],[3.165487986896986,44.36390268172956],[3.1650474238424247,44.36517570602383]]]}},{"type":"Feature","properties":{"category":"historical_support","snapshot_index":1,"pass_time_utc":"2026-08-09T11:53:00+00:00","dt_local":"2026-08-09T13:53:00+02:00","area_km2":2.875,"label":"Isoline temporelle","coherence_level":"indisponible","coherence_fraction":0.0,"projection_displayed":false,"model_version":"fire_progression_arrival_v1"},"geometry":{"type":"Polygon","coordinates":[[[3.1662798021727045,44.370409225608846],[3.166273195777947,44.36815882244154],[3.1631359746819157,44.36816351647014],[3.163129493450068,44.365913115466604],[3.1599923964770515,44.36591771989775],[3.1599669751518378,44.35691613875097],[3.16310357367171,44.35691153507078],[3.163097095014072,44.35466114589306],[3.166233568430749,44.35465645301277],[3.166226965709191,44.35240606640158],[3.175636009036946,44.35239145203002],[3.1756429854938624,44.35464183804531],[3.1787794567529364,44.35463678761403],[3.1787865583523174,44.35688717579848],[3.1819231536354002,44.356882035769914],[3.1819592931860634,44.36813401115419],[3.1788220748137257,44.36813915223083],[3.178829179799379,44.370389554596024],[3.1662798021727045,44.370409225608846]]]}},{"type":"Feature","properties":{"category":"observed_front","snapshot_index":1,"pass_time_utc":"2026-08-09T11:53:00+00:00","dt_local":"2026-08-09T13:53:00+02:00","area_km2":2.875,"label":"Activité observée","coherence_level":"indisponible","coherence_fraction":0.0,"projection_displayed":false,"model_version":"fire_progression_arrival_v1"},"geometry":{"type":"Polygon","coordinates":[[[3.1662798021727045,44.370409225608846],[3.166273195777947,44.36815882244154],[3.1631359746819157,44.36816351647014],[3.163129493450068,44.365913115466604],[3.1599923964770515,44.36591771989775],[3.1599669751518378,44.35691613875097],[3.16310357367171,44.35691153507078],[3.163097095014072,44.35466114589306],[3.166233568430749,44.35465645301277],[3.166226965709191,44.35240606640158],[3.175636009036946,44.35239145203002],[3.1756429854938624,44.35464183804531],[3.1787794567529364,44.35463678761403],[3.1787865583523174,44.35688717579848],[3.1819231536354002,44.356882035769914],[3.1819592931860634,44.36813401115419],[3.1788220748137257,44.36813915223083],[3.178829179799379,44.370389554596024],[3.1662798021727045,44.370409225608846]]]}},{"type":"Feature","properties":{"category":"historical_support","snapshot_index":2,"pass_time_utc":"2026-08-09T12:14:00+00:00","dt_local":"2026-08-09T14:14:00+02:00","area_km2":2.875,"label":"Isoline temporelle","coherence_level":"indisponible","coherence_fraction":0.0,"projection_displayed":false,"model_version":"fire_progression_arrival_v1"},"geometry":{"type":"Polygon","coordinates":[[[3.1662798021727045,44.370409225608846],[3.166273195777947,44.36815882244154],[3.1631359746819157,44.36816351647014],[3.163129493450068,44.365913115466604],[3.1599923964770515,44.36591771989775],[3.1599669751518378,44.35691613875097],[3.16310357367171,44.35691153507078],[3.163097095014072,44.35466114589306],[3.166233568430749,44.35465645301277],[3.166226965709191,44.35240606640158],[3.175636009036946,44.35239145203002],[3.1756429854938624,44.35464183804531],[3.1787794567529364,44.35463678761403],[3.1787865583523174,44.35688717579848],[3.1819231536354002,44.356882035769914],[3.1819592931860634,44.36813401115419],[3.1788220748137257,44.36813915223083],[3.178829179799379,44.370389554596024],[3.1662798021727045,44.370409225608846]]]}},{"type":"Feature","properties":{"category":"observed_front","snapshot_index":2,"pass_time_utc":"2026-08-09T12:14:00+00:00","dt_local":"2026-08-09T14:14:00+02:00","area_km2":2.438,"label":"Activité observée","coherence_level":"indisponible","coherence_fraction":0.0,"projection_displayed":false,"model_version":"fire_progression_arrival_v1"},"geometry":{"type":"Polygon","coordinates":[[[3.1631359746819157,44.36816351647014],[3.163129493450068,44.365913115466604],[3.1599923964770515,44.36591771989775],[3.1599669751518378,44.35691613875097],[3.16310357367171,44.35691153507078],[3.163097095014072,44.35466114589306],[3.166233568430749,44.35465645301277],[3.166226965709191,44.35240606640158],[3.175636009036946,44.35239145203002],[3.1756429854938624,44.35464183804531],[3.1787794567529364,44.35463678761403],[3.1787865583523174,44.35688717579848],[3.1819231536354002,44.356882035769914],[3.1819448356429243,44.36363321391182],[3.1788078665359927,44.3636383545692],[3.178814970392619,44.36588875222078],[3.1756778760934563,44.36589380368187],[3.175684855876841,44.36814420389792],[3.1631359746819157,44.36816351647014]]]}},{"type":"Feature","properties":{"category":"historical_support","snapshot_index":3,"pass_time_utc":"2026-08-09T12:57:00+00:00","dt_local":"2026-08-09T14:57:00+02:00","area_km2":3.875,"label":"Isoline temporelle","coherence_level":"indisponible","coherence_fraction":0.0,"projection_displayed":false,"model_version":"fire_progression_arrival_v1"},"geometry":{"type":"Polygon","coordinates":[[[3.163155421467862,44.374914733598466],[3.1631489386907514,44.372664325539425],[3.1600114677739,44.37266893053386],[3.1599669751518378,44.35691613875097],[3.16310357367171,44.35691153507078],[3.163097095014072,44.35466114589306],[3.166233568430749,44.35465645301277],[3.166226965709191,44.35240606640158],[3.175636009036946,44.35239145203002],[3.1756429854938624,44.35464183804531],[3.1787794567529364,44.35463678761403],[3.1787865583523174,44.35688717579848],[3.1819231536354002,44.356882035769914],[3.1819737530270062,44.37263481781705],[3.178836285349646,44.372639959313],[3.178843391464595,44.374890366378445],[3.163155421467862,44.374914733598466]]]}},{"type":"Feature","properties":{"category":"observed_front","snapshot_index":3,"pass_time_utc":"2026-08-09T12:57:00+00:00","dt_local":"2026-08-09T14:57:00+02:00","area_km2":3.375,"label":"Activité observée","coherence_level":"indisponible","coherence_fraction":0.0,"projection_displayed":false,"model_version":"fire_progression_arrival_v1"},"geometry":{"type":"Polygon","coordinates":[[[3.163155421467862,44.374914733598466],[3.1631489386907514,44.372664325539425],[3.1600114677739,44.37266893053386],[3.1599669751518378,44.35691613875097],[3.16310357367171,44.35691153507078],[3.163097095014072,44.35466114589306],[3.1725065136805415,44.35464679908887],[3.1725133661034186,44.356897187681575],[3.175649962505024,44.3568922264357],[3.1756569400704984,44.3591426171979],[3.178793660515909,44.35913756635471],[3.1788007632437782,44.361387959279384],[3.18193760773286,44.36138281883161],[3.1819737530270062,44.37263481781705],[3.178836285349646,44.372639959313],[3.178843391464595,44.374890366378445],[3.163155421467862,44.374914733598466]]]}},{"type":"Feature","properties":{"category":"historical_support","snapshot_index":4,"pass_time_utc":"2026-08-09T13:33:00+00:00","dt_local":"2026-08-09T15:33:00+02:00","area_km2":3.875,"label":"Isoline temporelle","coherence_level":"indisponible","coherence_fraction":0.0,"projection_displayed":false,"model_version":"fire_progression_arrival_v1"},"geometry":{"type":"Polygon","coordinates":[[[3.163155421467862,44.374914733598466],[3.1631489386907514,44.372664325539425],[3.1600114677739,44.37266893053386],[3.1599669751518378,44.35691613875097],[3.16310357367171,44.35691153507078],[3.163097095014072,44.35466114589306],[3.166233568430749,44.35465645301277],[3.166226965709191,44.35240606640158],[3.175636009036946,44.35239145203002],[3.1756429854938624,44.35464183804531],[3.1787794567529364,44.35463678761403],[3.1787865583523174,44.35688717579848],[3.1819231536354002,44.356882035769914],[3.1819737530270062,44.37263481781705],[3.178836285349646,44.372639959313],[3.178843391464595,44.374890366378445],[3.163155421467862,44.374914733598466]]]}},{"type":"Feature","properties":{"category":"observed_front","snapshot_index":4,"pass_time_utc":"2026-08-09T13:33:00+00:00","dt_local":"2026-08-09T15:33:00+02:00","area_km2":3.875,"label":"Activité observée","coherence_level":"indisponible","coherence_fraction":0.0,"projection_displayed":false,"model_version":"fire_progression_arrival_v1"},"geometry":{"type":"Polygon","coordinates":[[[3.163155421467862,44.374914733598466],[3.1631489386907514,44.372664325539425],[3.1600114677739,44.37266893053386],[3.1599669751518378,44.35691613875097],[3.16310357367171,44.35691153507078],[3.163097095014072,44.35466114589306],[3.166233568430749,44.35465645301277],[3.166226965709191,44.35240606640158],[3.175636009036946,44.35239145203002],[3.1756429854938624,44.35464183804531],[3.1787794567529364,44.35463678761403],[3.1787865583523174,44.35688717579848],[3.1819231536354002,44.356882035769914],[3.1819737530270062,44.37263481781705],[3.178836285349646,44.372639959313],[3.178843391464595,44.374890366378445],[3.163155421467862,44.374914733598466]]]}},{"type":"Feature","properties":{"category":"firms_extent_snapshot","snapshot_index":5,"pass_time_utc":"2026-08-09T15:12:00+00:00","dt_local":"2026-08-09T17:12:00+02:00","label":"Emprise FIRMS cumulée à ce passage","interpretation":"Enveloppe des détections FIRMS, pas une surface brûlée","cumulative":true,"point_count":23,"extent_method":"cumulative_detection_extent_smoothed_landmasked_web_v1","local_cluster_link_m":10000.0,"model_version":"fire_progression_arrival_v1"},"geometry":{"type":"Polygon","coordinates":[[[3.1570413516684703,44.361393826280846],[3.1581992511720616,44.36462205077542],[3.1626975725705133,44.36840371032843],[3.163551643202229,44.37126777810003],[3.1624157097002437,44.374370150140805],[3.163504547238379,44.37601256083581],[3.165509419044886,44.376757699354066],[3.1746013935861876,44.377267903044554],[3.1773369599495074,44.37647432241958],[3.1784066652862073,44.374883345470735],[3.1777387589779282,44.3720759405152],[3.1788455745557576,44.369698540504],[3.1783779548937727,44.36704147783328],[3.179693562689055,44.36406939082345],[3.179073680128834,44.36283540423643],[3.1772013802189654,44.36128926324227],[3.1751143529885497,44.357087238333456],[3.1690877197470106,44.354902057165866],[3.1664301692510506,44.35463018209106],[3.16370014847035,44.35492492246965],[3.1612068644386784,44.355775509995645],[3.1591177823641763,44.35715229251109],[3.1574650239984314,44.35938143794605],[3.1570413516684703,44.361393826280846]]]}},{"type":"Feature","properties":{"category":"historical_support","snapshot_index":5,"pass_time_utc":"2026-08-09T15:12:00+00:00","dt_local":"2026-08-09T17:12:00+02:00","area_km2":4.438,"label":"Isoline temporelle","coherence_level":"indisponible","coherence_fraction":0.0,"projection_displayed":false,"model_version":"fire_progression_arrival_v1"},"geometry":{"type":"Polygon","coordinates":[[[3.163155421467862,44.374914733598466],[3.1631489386907514,44.372664325539425],[3.1600114677739,44.37266893053386],[3.1599796848045623,44.36141692459402],[3.1568428365729777,44.36142143925092],[3.156824146646641,44.35467026349017],[3.159960621082737,44.35466574938553],[3.159954267518397,44.35241536239526],[3.1630906168710924,44.35241075909048],[3.163084139242709,44.350160374666416],[3.1724928104677703,44.3501460290322],[3.172499661802014,44.352396412871315],[3.175636009036946,44.35239145203002],[3.1756429854938624,44.35464183804531],[3.1787794567529364,44.35463678761403],[3.1787865583523174,44.35688717579848],[3.1819231536354002,44.356882035769914],[3.1819737530270062,44.37263481781705],[3.178836285349646,44.372639959313],[3.178843391464595,44.374890366378445],[3.163155421467862,44.374914733598466]]]}},{"type":"Feature","properties":{"category":"observed_front","snapshot_index":5,"pass_time_utc":"2026-08-09T15:12:00+00:00","dt_local":"2026-08-09T17:12:00+02:00","area_km2":2.312,"label":"Activité observée","coherence_level":"indisponible","coherence_fraction":0.0,"projection_displayed":false,"model_version":"fire_progression_arrival_v1"},"geometry":{"type":"Polygon","coordinates":[[[3.163129493450068,44.365913115466604],[3.163123012733185,44.36366271682157],[3.159986040388306,44.36366732106497],[3.1599796848045623,44.36141692459402],[3.1568428365729777,44.36142143925092],[3.156824146646641,44.35467026349017],[3.159960621082737,44.35466574938553],[3.159954267518397,44.35241536239526],[3.1630906168710924,44.35241075909048],[3.163084139242709,44.350160374666416],[3.1724928104677703,44.3501460290322],[3.172499661802014,44.352396412871315],[3.175636009036946,44.35239145203002],[3.1756429854938624,44.35464183804531],[3.1787794567529364,44.35463678761403],[3.1788007632437782,44.361387959279384],[3.1756639181903514,44.36139301032852],[3.1756708968646485,44.363643405824305],[3.1725339266387937,44.36364836767713],[3.172540781239717,44.36589876573704],[3.163129493450068,44.365913115466604]]]}},{"type":"Feature","properties":{"category":"firms_extent_snapshot","snapshot_index":6,"pass_time_utc":"2026-08-09T20:10:00+00:00","dt_local":"2026-08-09T22:10:00+02:00","label":"Emprise FIRMS cumulée à ce passage","interpretation":"Enveloppe des détections FIRMS, pas une surface brûlée","cumulative":true,"point_count":25,"extent_method":"cumulative_detection_extent_smoothed_landmasked_web_v1","local_cluster_link_m":10000.0,"model_version":"fire_progression_arrival_v1"},"geometry":{"type":"Polygon","coordinates":[[[3.1570413516684703,44.361393826280846],[3.1581264693178928,44.36452483908591],[3.1613550725056063,44.367268771200145],[3.1619459214752768,44.36842605985402],[3.161758365977235,44.369651152677285],[3.1595492324996064,44.372269379208596],[3.1588618334245018,44.37418752104585],[3.1589936322015126,44.376220551749086],[3.1599673842019746,44.37813220373604],[3.162264742943285,44.38011668829425],[3.165507038735236,44.381353373969006],[3.1691624925395057,44.38160596511537],[3.1727412865982525,44.38080868602341],[3.1760123553324164,44.37867298822137],[3.1782496513592076,44.37540018785513],[3.1777387589779282,44.3720759405152],[3.1787922183118025,44.36996064141436],[3.1791573992692097,44.367011210905254],[3.1843526344205535,44.36429005228925],[3.186440661630713,44.36205866518171],[3.187106678621453,44.358867913535285],[3.185988882819433,44.35624649241201],[3.182948862245823,44.35386917244598],[3.178640994991436,44.35277119939382],[3.1749159721714,44.3530526381892],[3.1701876382901415,44.354816005802896],[3.164520213245931,44.35477484213936],[3.161271767451072,44.35574588877601],[3.1591649855683177,44.35710871596124],[3.1574650239984314,44.35938143794605],[3.1570413516684703,44.361393826280846]]]}},{"type":"Feature","properties":{"category":"historical_support","snapshot_index":6,"pass_time_utc":"2026-08-09T20:10:00+00:00","dt_local":"2026-08-09T22:10:00+02:00","area_km2":5.25,"label":"Isoline temporelle","coherence_level":"indisponible","coherence_fraction":0.0,"projection_displayed":false,"model_version":"fire_progression_arrival_v1"},"geometry":{"type":"Polygon","coordinates":[[[3.163161904760183,44.37716514400269],[3.1631489386907514,44.372664325539425],[3.1600114677739,44.37266893053386],[3.1599796848045623,44.36141692459402],[3.1568428365729777,44.36142143925092],[3.156824146646641,44.35467026349017],[3.159960621082737,44.35466574938553],[3.159954267518397,44.35241536239526],[3.1630906168710924,44.35241075909048],[3.163084139242709,44.350160374666416],[3.1724928104677703,44.3501460290322],[3.172499661802014,44.352396412871315],[3.1819087018343755,44.352381262195294],[3.181915927447868,44.35463164779504],[3.185052397568758,44.35462641858841],[3.18509651098395,44.368128780668],[3.1819592931860634,44.36813401115419],[3.1819737530270062,44.37263481781705],[3.178836285349646,44.372639959313],[3.178843391464595,44.374890366378445],[3.175705798555115,44.37489541866355],[3.175712780557468,44.37714582828016],[3.163161904760183,44.37716514400269]]]}},{"type":"Feature","properties":{"category":"observed_front","snapshot_index":6,"pass_time_utc":"2026-08-09T20:10:00+00:00","dt_local":"2026-08-09T22:10:00+02:00","area_km2":4.062,"label":"Activité observée","coherence_level":"indisponible","coherence_fraction":0.0,"projection_displayed":false,"model_version":"fire_progression_arrival_v1"},"geometry":{"type":"Polygon","coordinates":[[[3.163161904760183,44.37716514400269],[3.1631489386907514,44.372664325539425],[3.1600114677739,44.37266893053386],[3.1599923964770515,44.36591771989775],[3.163129493450068,44.365913115466604],[3.163116532531205,44.36141232053837],[3.166253379743006,44.36140762708397],[3.166240171676863,44.356906841999134],[3.169376769157399,44.35690205953605],[3.1693700413228716,44.3546516707447],[3.1725065136805415,44.35464679908887],[3.172499661802014,44.352396412871315],[3.1819087018343755,44.352381262195294],[3.181915927447868,44.35463164779504],[3.185052397568758,44.35462641858841],[3.18509651098395,44.368128780668],[3.1819592931860634,44.36813401115419],[3.1819737530270062,44.37263481781705],[3.178836285349646,44.372639959313],[3.178843391464595,44.374890366378445],[3.175705798555115,44.37489541866355],[3.175712780557468,44.37714582828016],[3.163161904760183,44.37716514400269]]]}}]}