{"type":"FeatureCollection","name":"detection_envelopes","crs":{"type":"name","properties":{"name":"urn:ogc:def:crs:OGC:1.3:CRS84"}},"features":[{"type":"Feature","properties":{"cluster_id":1,"snapshot_index":1,"estimated_time_utc":"2026-09-27T01:15:00Z","observed_until_utc":"2026-09-27T01:15:00Z","target_time_utc":"2026-09-27T01:15:00Z","arrival_h":0.0,"hours_ago":73.68333333333334,"supported_detections_cumulative":7,"sources_cumulative":"VIIRS_NOAA21_NRT","last_source":"VIIRS_NOAA21_NRT","last_satellite":"N21","last_instrument":"VIIRS","detected_area_km2":1.5936573403420191,"product_type":"cumulative_active_fire_detection_extent"},"geometry":{"type":"LineString","coordinates":[[4.887769002681002,43.43764575703259],[4.887700373524348,43.440297969876376],[4.888787244947373,43.44169803700374],[4.890714658582751,43.4423916920607],[4.893715102574563,43.44198878983924],[4.89472762486883,43.44240727360957],[4.896069656101806,43.445016165887125],[4.895671005741171,43.447046984950774],[4.896564618132238,43.44851787868712],[4.89910596968975,43.44943214196597],[4.901790287043423,43.448769321028394],[4.903052563479934,43.446697100417275],[4.901877928829327,43.444530726039225],[4.902322316266264,43.442847125482196],[4.90185738324604,43.441580529584655],[4.899580111119569,43.44028428638518],[4.89554415688751,43.44046721138575],[4.893837301431278,43.43747257949643],[4.894525887829152,43.43626405250567],[4.898006758195359,43.43579895033494],[4.899785559087302,43.434139622603226],[4.899975745654693,43.430778694196526],[4.8986967075337,43.428290636808306],[4.897467626847418,43.4273332598745],[4.894680447944633,43.42696253301407],[4.892349869539287,43.42813673832399],[4.891759981008654,43.42968674436473],[4.89267732232803,43.43263914797571],[4.891833919842584,43.43322365346038],[4.889109489430139,43.433413969348976],[4.887644190662425,43.43424623671476],[4.886879569207655,43.43597657810647],[4.887769002681002,43.43764575703259]]}},{"type":"Feature","properties":{"cluster_id":1,"snapshot_index":2,"estimated_time_utc":"2026-09-27T01:52:00Z","observed_until_utc":"2026-09-27T01:52:00Z","target_time_utc":"2026-09-27T07:15:00Z","arrival_h":0.6166666666666667,"hours_ago":73.06666666666666,"supported_detections_cumulative":13,"sources_cumulative":"VIIRS_NOAA21_NRT, VIIRS_SNPP_NRT","last_source":"VIIRS_SNPP_NRT","last_satellite":"N","last_instrument":"VIIRS","detected_area_km2":2.1604133061487922,"product_type":"cumulative_active_fire_detection_extent"},"geometry":{"type":"LineString","coordinates":[[4.882723430197601,43.43900951263022],[4.882250976125994,43.439784698319805],[4.879959360319083,43.44072424810978],[4.879084125353924,43.4418698079388],[4.879152848051152,43.44343538102004],[4.880651258093585,43.44483649110659],[4.882718009148229,43.44526766720821],[4.884814733515984,43.44476414663434],[4.886124574541192,43.44352209736204],[4.88646431070835,43.44158093786971],[4.888016813260118,43.44094394278004],[4.890359524046525,43.44233563935518],[4.893593970003013,43.44199090694999],[4.894544258185527,43.442244177005925],[4.894071198631401,43.44389692993082],[4.895184976169723,43.44571682002444],[4.895133232686253,43.447481271893245],[4.896731741496771,43.44913679626647],[4.899520007932399,43.449507476386444],[4.902461314209427,43.44820308072562],[4.903051104271711,43.446652995326126],[4.901877928829327,43.444530726039225],[4.902322316266264,43.442847125482196],[4.901827564011122,43.44154213335317],[4.899580111119569,43.44028428638518],[4.895646488090255,43.44051448566212],[4.89462872939607,43.4385241945736],[4.895015683139449,43.43665648709267],[4.898364908269887,43.43563386246047],[4.899852054719212,43.43392431454102],[4.899975745654693,43.430778694196526],[4.8986967075337,43.428290636808306],[4.897467626847418,43.4273332598745],[4.895038901236138,43.42691954537247],[4.89275955846631,43.4277545847511],[4.891758530886368,43.42964263967378],[4.892666478971748,43.43153495891115],[4.891150463296405,43.4332251767499],[4.889392101142636,43.433334669971146],[4.887921191592504,43.43401252191523],[4.886880636567716,43.435859767895515],[4.885182233603269,43.43597461885512],[4.883711206977944,43.43665241496549],[4.882810519620233,43.43778742117942],[4.882723430197601,43.43900951263022]]}},{"type":"Feature","properties":{"cluster_id":1,"snapshot_index":3,"estimated_time_utc":"2026-09-27T12:40:00Z","observed_until_utc":"2026-09-27T12:40:00Z","target_time_utc":"2026-09-27T13:15:00Z","arrival_h":11.416666666666666,"hours_ago":62.266666666666666,"supported_detections_cumulative":16,"sources_cumulative":"VIIRS_NOAA21_NRT, VIIRS_SNPP_NRT","last_source":"VIIRS_NOAA21_NRT","last_satellite":"N21","last_instrument":"VIIRS","detected_area_km2":2.1924212806509256,"product_type":"cumulative_active_fire_detection_extent"},"geometry":{"type":"LineString","coordinates":[[4.882726318806019,43.43909777605401],[4.882250976125994,43.439784698319805],[4.880001141361741,43.44069231835993],[4.879084125353924,43.4418698079388],[4.879261646171948,43.44364134737089],[4.880702390607355,43.444860121115084],[4.882778542582559,43.44526661538001],[4.884814733515984,43.44476414663434],[4.886124574541192,43.44352209736204],[4.88646431070835,43.44158093786971],[4.88782683384035,43.44100991768289],[4.890359524046525,43.44233563935518],[4.893593970003013,43.44199090694999],[4.894544258185527,43.442244177005925],[4.894071198631401,43.44389692993082],[4.89505631478296,43.44547271233742],[4.894518367860877,43.44726073471486],[4.89618171842923,43.449176786141145],[4.899520007932399,43.449507476386444],[4.901200004092004,43.44907719355319],[4.902493733334633,43.44816581814748],[4.903044995608476,43.446917727476816],[4.902190083728125,43.44500981157796],[4.902750901448464,43.44349300577634],[4.901827564011122,43.44154213335317],[4.899580111119569,43.44028428638518],[4.895646488090255,43.44051448566212],[4.89462872939607,43.4385241945736],[4.895015683139449,43.43665648709267],[4.898364908269887,43.43563386246047],[4.899852054719212,43.43392431454102],[4.899975745654693,43.430778694196526],[4.8986967075337,43.428290636808306],[4.897416503023384,43.42730963808145],[4.894978821087576,43.42692492193956],[4.89275955846631,43.4277545847511],[4.891758530886368,43.42964263967378],[4.892666478971748,43.43153495891115],[4.891150463296405,43.4332251767499],[4.889392101142636,43.433334669971146],[4.887921191592504,43.43401252191523],[4.886880636567716,43.435859767895515],[4.885182233603269,43.43597461885512],[4.883711206977944,43.43665241496549],[4.882810519620233,43.43778742117942],[4.882726318806019,43.43909777605401]]}},{"type":"Feature","properties":{"cluster_id":1,"snapshot_index":4,"estimated_time_utc":"2026-09-27T13:16:00Z","observed_until_utc":"2026-09-27T13:16:00Z","target_time_utc":"2026-09-27T19:15:00Z","arrival_h":12.016666666666667,"hours_ago":61.666666666666664,"supported_detections_cumulative":17,"sources_cumulative":"VIIRS_NOAA21_NRT, VIIRS_SNPP_NRT","last_source":"VIIRS_SNPP_NRT","last_satellite":"N","last_instrument":"VIIRS","detected_area_km2":2.2035489310332137,"product_type":"cumulative_active_fire_detection_extent"},"geometry":{"type":"LineString","coordinates":[[4.882717320984849,43.43918582078597],[4.882250976125994,43.439784698319805],[4.880001141361741,43.44069231835993],[4.879084125353924,43.4418698079388],[4.879261646171948,43.44364134737089],[4.880702390607355,43.444860121115084],[4.882778542582559,43.44526661538001],[4.884814733515984,43.44476414663434],[4.886124574541192,43.44352209736204],[4.88646431070835,43.44158093786971],[4.88782683384035,43.44100991768289],[4.890359524046525,43.44233563935518],[4.893593970003013,43.44199090694999],[4.894544258185527,43.442244177005925],[4.894071198631401,43.44389692993082],[4.895034430827392,43.44544703657219],[4.894348358528042,43.44739072898881],[4.896011707192685,43.44930678320679],[4.898859067725717,43.44966783695963],[4.901200004092004,43.44907719355319],[4.902493733334633,43.44816581814748],[4.903044995608476,43.446917727476816],[4.902190083728125,43.44500981157796],[4.902750901448464,43.44349300577634],[4.901827564011122,43.44154213335317],[4.899580111119569,43.44028428638518],[4.895646488090255,43.44051448566212],[4.89462872939607,43.4385241945736],[4.895015683139449,43.43665648709267],[4.898364908269887,43.43563386246047],[4.899852054719212,43.43392431454102],[4.899975745654693,43.430778694196526],[4.8986967075337,43.428290636808306],[4.897416503023384,43.42730963808145],[4.894978821087576,43.42692492193956],[4.89275955846631,43.4277545847511],[4.891758530886368,43.42964263967378],[4.892666478971748,43.43153495891115],[4.891150463296405,43.4332251767499],[4.889392101142636,43.433334669971146],[4.887921191592504,43.43401252191523],[4.886880636567716,43.435859767895515],[4.885182233603269,43.43597461885512],[4.883669430927451,43.43668434605088],[4.88279433127679,43.43782993244161],[4.882717320984849,43.43918582078597]]}},{"type":"Feature","properties":{"cluster_id":1,"snapshot_index":5,"estimated_time_utc":"2026-09-28T00:56:00Z","observed_until_utc":"2026-09-28T00:56:00Z","target_time_utc":"2026-09-28T01:15:00Z","arrival_h":23.683333333333334,"hours_ago":50.0,"supported_detections_cumulative":27,"sources_cumulative":"VIIRS_NOAA21_NRT, VIIRS_SNPP_NRT","last_source":"VIIRS_NOAA21_NRT","last_satellite":"N21","last_instrument":"VIIRS","detected_area_km2":2.9890793314474697,"product_type":"cumulative_active_fire_detection_extent"},"geometry":{"type":"LineString","coordinates":[[4.889433614761692,43.42949989457857],[4.889286913348653,43.4333641852306],[4.88768146662162,43.434211474161785],[4.886948798554221,43.43537010857684],[4.884772263370151,43.435414615414146],[4.883024216525259,43.43632610902595],[4.88227012829275,43.43774769544089],[4.882664126095357,43.43935787275462],[4.879517064023451,43.44114361244505],[4.878965346720685,43.442391578098686],[4.879261646171948,43.44364134737089],[4.880965829498908,43.44496904066314],[4.883140736967213,43.44524516354655],[4.885596091676467,43.444213908380526],[4.886366080855109,43.44174212542899],[4.887094589051474,43.441185299360384],[4.88782683384035,43.44100991768289],[4.890714658582751,43.4423916920607],[4.89407206892756,43.44203407188477],[4.89228886105775,43.44293455240923],[4.891413837971323,43.44408021366487],[4.890827391394606,43.44734260843686],[4.891483853028186,43.44883418204077],[4.89428574175406,43.44999213221214],[4.900821291938825,43.44921591588438],[4.902286781335434,43.44838346117685],[4.903042364826772,43.44694355640286],[4.905326743109122,43.44593337584784],[4.906090942062379,43.44420289166821],[4.904763330488709,43.44085761970511],[4.903083230560153,43.43957064541704],[4.900610008530346,43.4393325516578],[4.896345796970157,43.44062919702592],[4.895103461094712,43.4400552717661],[4.896872629893628,43.43851290266729],[4.897327044051942,43.436011822932585],[4.898869052379059,43.435317273890185],[4.899785559087302,43.434139622603226],[4.90004798957135,43.43108299487207],[4.898857223033373,43.428528155787006],[4.897715106470712,43.427460428985285],[4.89578449509552,43.4269129815377],[4.894277688302014,43.42549332206717],[4.891788984745362,43.42508491141004],[4.889876797512548,43.42570170022439],[4.888828092750169,43.4267669589907],[4.888599553555059,43.428110529236434],[4.889433614761692,43.42949989457857]]}},{"type":"Feature","properties":{"cluster_id":1,"snapshot_index":6,"estimated_time_utc":"2026-09-28T02:36:00Z","observed_until_utc":"2026-09-28T02:36:00Z","target_time_utc":"2026-09-28T07:15:00Z","arrival_h":25.35,"hours_ago":48.333333333333336,"supported_detections_cumulative":49,"sources_cumulative":"VIIRS_NOAA20_NRT, VIIRS_NOAA21_NRT, VIIRS_SNPP_NRT","last_source":"VIIRS_NOAA21_NRT","last_satellite":"N21","last_instrument":"VIIRS","detected_area_km2":3.927518585502712,"product_type":"cumulative_active_fire_detection_extent"},"geometry":{"type":"LineString","coordinates":[[4.900446736133162,43.431888903075304],[4.901792775825681,43.430955820423755],[4.902343888444715,43.429707749111635],[4.901886631012408,43.42822054157952],[4.90060637368666,43.42723958059691],[4.898954332282289,43.42684116572357],[4.89578449509552,43.4269129815377],[4.894572851051782,43.42564765974673],[4.892875115589237,43.42509832794475],[4.89108219391241,43.425204703824576],[4.889476728311455,43.425993004936984],[4.88786039216768,43.42532441896326],[4.885769916059553,43.425360833615485],[4.883608327067313,43.42669569771132],[4.883374855595283,43.42875360871614],[4.884644473055897,43.43006934662218],[4.889233725626307,43.43207247907585],[4.889286913348653,43.4333641852306],[4.88768146662162,43.434211474161785],[4.886948798554221,43.43537010857684],[4.884489635076125,43.43549390286356],[4.882783738583519,43.43658672942833],[4.880739222645914,43.435506260655124],[4.878194534984401,43.435641665660846],[4.87678438817571,43.43645593981571],[4.876067453286225,43.43765846945075],[4.876934429939438,43.43987736285598],[4.879875938272206,43.44079461210023],[4.87895912768704,43.44265630805185],[4.880126823712586,43.44453783868679],[4.882354822988129,43.44525881957795],[4.884509191965065,43.444907471255874],[4.885952560800447,43.44380434551503],[4.886366080855109,43.44174212542899],[4.887172820622053,43.44142326909602],[4.888986407131499,43.44328229461362],[4.891457532003828,43.44397714465129],[4.891412732214409,43.44554756033094],[4.889836733076445,43.447338930460425],[4.89047863806818,43.44935023884394],[4.892127067512103,43.45028863110146],[4.894621440492505,43.450348990943496],[4.896964853165144,43.45138174451388],[4.898758579812622,43.45127526922352],[4.900229803036229,43.450597261570444],[4.904186782010346,43.44733340842631],[4.906043169499759,43.444730645398394],[4.904787842926468,43.440897960076946],[4.903346687589804,43.4396795101335],[4.899218617076489,43.43913953749581],[4.897534329738154,43.43960076810676],[4.896324533805899,43.440618240731965],[4.895994657509943,43.44024606646353],[4.895820973497111,43.43963909152946],[4.897433857112139,43.439058202852245],[4.898482626561599,43.437992851137594],[4.898269266084882,43.43568051001424],[4.899652433764204,43.43443281136733],[4.900446736133162,43.431888903075304]]}},{"type":"Feature","properties":{"cluster_id":1,"snapshot_index":7,"estimated_time_utc":"2026-09-28T12:19:00Z","observed_until_utc":"2026-09-28T12:19:00Z","target_time_utc":"2026-09-28T13:15:00Z","arrival_h":35.06666666666667,"hours_ago":38.61666666666667,"supported_detections_cumulative":50,"sources_cumulative":"VIIRS_NOAA20_NRT, VIIRS_NOAA21_NRT, VIIRS_SNPP_NRT","last_source":"VIIRS_NOAA21_NRT","last_satellite":"N21","last_instrument":"VIIRS","detected_area_km2":3.927518585502721,"product_type":"cumulative_active_fire_detection_extent"},"geometry":{"type":"LineString","coordinates":[[4.900499422390725,43.431867175937235],[4.901942157606785,43.430763847838854],[4.902351456740848,43.42948712489356],[4.901886631012408,43.42822054157952],[4.90060637368666,43.42723958059691],[4.898954332282289,43.42684116572357],[4.89578449509552,43.4269129815377],[4.894572851051782,43.42564765974673],[4.892875115589237,43.42509832794475],[4.89108219391241,43.425204703824576],[4.889476728311455,43.425993004936984],[4.88786039216768,43.42532441896326],[4.885769916059553,43.425360833615485],[4.883608327067313,43.42669569771132],[4.883374855595283,43.42875360871614],[4.884644473055897,43.43006934662218],[4.889233725626307,43.43207247907585],[4.889286913348653,43.4333641852306],[4.88768146662162,43.434211474161785],[4.886948798554221,43.43537010857684],[4.884489635076125,43.43549390286356],[4.882783738583519,43.43658672942833],[4.880739222645914,43.435506260655124],[4.878194534984401,43.435641665660846],[4.87678438817571,43.43645593981571],[4.876067453286225,43.43765846945075],[4.876934429939438,43.43987736285598],[4.879875938272206,43.44079461210023],[4.87895912768704,43.44265630805185],[4.880126823712586,43.44453783868679],[4.882354822988129,43.44525881957795],[4.884509191965065,43.444907471255874],[4.885952560800447,43.44380434551503],[4.886366080855109,43.44174212542899],[4.887172820622053,43.44142326909602],[4.888986407131499,43.44328229461362],[4.891457532003828,43.44397714465129],[4.891412732214409,43.44554756033094],[4.889836733076445,43.447338930460425],[4.89047863806818,43.44935023884394],[4.892127067512103,43.45028863110146],[4.894621440492505,43.450348990943496],[4.896964853165144,43.45138174451388],[4.898758579812622,43.45127526922352],[4.900229803036229,43.450597261570444],[4.904186782010346,43.44733340842631],[4.906043169499759,43.444730645398394],[4.904787842926468,43.440897960076946],[4.903346687589804,43.4396795101335],[4.899218617076489,43.43913953749581],[4.897534329738154,43.43960076810676],[4.896324533805899,43.440618240731965],[4.895994657509943,43.44024606646353],[4.895820973497111,43.43963909152946],[4.897433857112139,43.439058202852245],[4.898482626561599,43.437992851137594],[4.898269266084882,43.43568051001424],[4.899652433764204,43.43443281136733],[4.900499422390725,43.431867175937235]]}},{"type":"Feature","properties":{"cluster_id":1,"snapshot_index":8,"estimated_time_utc":"2026-09-29T00:37:00Z","observed_until_utc":"2026-09-29T00:37:00Z","target_time_utc":"2026-09-29T01:15:00Z","arrival_h":47.36666666666667,"hours_ago":26.316666666666666,"supported_detections_cumulative":52,"sources_cumulative":"VIIRS_NOAA20_NRT, VIIRS_NOAA21_NRT, VIIRS_SNPP_NRT","last_source":"VIIRS_NOAA21_NRT","last_satellite":"N21","last_instrument":"VIIRS","detected_area_km2":4.168262915447759,"product_type":"cumulative_active_fire_detection_extent"},"geometry":{"type":"LineString","coordinates":[[4.900755344785884,43.43174919376425],[4.90196939969282,43.430724450183405],[4.902327858529099,43.42922291789922],[4.901694934137809,43.42799563835033],[4.900288923539281,43.427110855773016],[4.89578449509552,43.4269129815377],[4.894572851051782,43.42564765974673],[4.89257462099388,43.42507118716828],[4.890799624451101,43.425284007134834],[4.889476728311455,43.425993004936984],[4.88714451009062,43.425237928136184],[4.884506982506547,43.4258715813515],[4.88332498341825,43.427229955410034],[4.883527082106777,43.429041813625105],[4.884644473055897,43.43006934662218],[4.889233725626307,43.43207247907585],[4.889286913348653,43.4333641852306],[4.88768146662162,43.434211474161785],[4.886948798554221,43.43537010857684],[4.884489635076125,43.43549390286356],[4.882783738583519,43.43658672942833],[4.881414020202475,43.43570099092383],[4.879662138627622,43.43540234539789],[4.877923919677929,43.435740742503505],[4.876609810450574,43.43663627735213],[4.876025642862115,43.43792147845603],[4.876512110140109,43.439447208826714],[4.878025838534532,43.44049898682402],[4.879875938272206,43.44079461210023],[4.877291067545978,43.44128243934379],[4.875675535164638,43.44266767927913],[4.875533228317535,43.44423061813699],[4.876994598543861,43.44643394530458],[4.879214074345283,43.447351637480075],[4.881974704603675,43.44688420651313],[4.883453220077673,43.44520529929897],[4.885770664226412,43.44403355536307],[4.886834852314428,43.44132809198283],[4.888986407131499,43.44328229461362],[4.891457532003828,43.44397714465129],[4.891412732214409,43.44554756033094],[4.890346510915559,43.44635392109618],[4.889794978566183,43.44760194664383],[4.890913132651214,43.44971765913665],[4.892529487932271,43.4503856739725],[4.894621440492505,43.450348990943496],[4.896964853165144,43.45138174451388],[4.899964435327012,43.450778164654096],[4.904186782010346,43.44733340842631],[4.906084847646601,43.44446762351438],[4.904787842926468,43.440897960076946],[4.903346687589804,43.4396795101335],[4.899218617076489,43.43913953749581],[4.897534329738154,43.43960076810676],[4.896324533805899,43.440618240731965],[4.895994657509943,43.44024606646353],[4.895820973497111,43.43963909152946],[4.897433857112139,43.439058202852245],[4.898482626561599,43.437992851137594],[4.898269266084882,43.43568051001424],[4.89952957459561,43.43463452837736],[4.900154900158733,43.431994899574335],[4.900755344785884,43.43174919376425]]}},{"type":"Feature","properties":{"cluster_id":1,"snapshot_index":9,"estimated_time_utc":"2026-09-29T01:34:00Z","observed_until_utc":"2026-09-29T01:34:00Z","target_time_utc":"2026-09-29T07:15:00Z","arrival_h":48.31666666666667,"hours_ago":25.366666666666667,"supported_detections_cumulative":53,"sources_cumulative":"VIIRS_NOAA20_NRT, VIIRS_NOAA21_NRT, VIIRS_SNPP_NRT","last_source":"VIIRS_NOAA20_NRT","last_satellite":"N20","last_instrument":"VIIRS","detected_area_km2":4.229226398600069,"product_type":"cumulative_active_fire_detection_extent"},"geometry":{"type":"LineString","coordinates":[[4.90080485487265,43.43172380761173],[4.902092241961419,43.430522730988436],[4.902327858529099,43.42922291789922],[4.901694934137809,43.42799563835033],[4.900288923539281,43.427110855773016],[4.89578449509552,43.4269129815377],[4.894572851051782,43.42564765974673],[4.89257462099388,43.42507118716828],[4.890799624451101,43.425284007134834],[4.889476728311455,43.425993004936984],[4.88714451009062,43.425237928136184],[4.884506982506547,43.4258715813515],[4.88332498341825,43.427229955410034],[4.883527082106777,43.429041813625105],[4.884644473055897,43.43006934662218],[4.889233725626307,43.43207247907585],[4.889286913348653,43.4333641852306],[4.88768146662162,43.434211474161785],[4.886948798554221,43.43537010857684],[4.884489635076125,43.43549390286356],[4.882783738583519,43.43658672942833],[4.881414020202475,43.43570099092383],[4.879662138627622,43.43540234539789],[4.877923919677929,43.435740742503505],[4.876609810450574,43.43663627735213],[4.87604145357464,43.438406316640084],[4.877127217600315,43.440025141638245],[4.875194202993876,43.44097589127564],[4.874429117686538,43.4427061533525],[4.876994598543861,43.44643394530458],[4.879214074345283,43.447351637480075],[4.881974704603675,43.44688420651313],[4.883453220077673,43.44520529929897],[4.885770664226412,43.44403355536307],[4.886834852314428,43.44132809198283],[4.888986407131499,43.44328229461362],[4.891457532003828,43.44397714465129],[4.891412732214409,43.44554756033094],[4.890346510915559,43.44635392109618],[4.889794978566183,43.44760194664383],[4.890913132651214,43.44971765913665],[4.892529487932271,43.4503856739725],[4.894621440492505,43.450348990943496],[4.896964853165144,43.45138174451388],[4.899964435327012,43.450778164654096],[4.904186782010346,43.44733340842631],[4.906084847646601,43.44446762351438],[4.904787842926468,43.440897960076946],[4.903346687589804,43.4396795101335],[4.899218617076489,43.43913953749581],[4.897534329738154,43.43960076810676],[4.896324533805899,43.440618240731965],[4.895994657509943,43.44024606646353],[4.895820973497111,43.43963909152946],[4.897433857112139,43.439058202852245],[4.898482626561599,43.437992851137594],[4.898269266084882,43.43568051001424],[4.89952957459561,43.43463452837736],[4.900154900158733,43.431994899574335],[4.90080485487265,43.43172380761173]]}},{"type":"Feature","properties":{"cluster_id":1,"snapshot_index":10,"estimated_time_utc":"2026-09-29T12:38:00Z","observed_until_utc":"2026-09-29T12:38:00Z","target_time_utc":"2026-09-29T13:15:00Z","arrival_h":59.38333333333333,"hours_ago":14.3,"supported_detections_cumulative":57,"sources_cumulative":"VIIRS_NOAA20_NRT, VIIRS_NOAA21_NRT, VIIRS_SNPP_NRT","last_source":"VIIRS_SNPP_NRT","last_satellite":"N","last_instrument":"VIIRS","detected_area_km2":4.259017005439332,"product_type":"cumulative_active_fire_detection_extent"},"geometry":{"type":"LineString","coordinates":[[4.901089532558287,43.43155931112207],[4.902114053942266,43.430481577020345],[4.902320475720833,43.42917912990821],[4.901660101842836,43.42795955702733],[4.900288923539281,43.427110855773016],[4.89578449509552,43.4269129815377],[4.894572851051782,43.42564765974673],[4.89257462099388,43.42507118716828],[4.890799624451101,43.425284007134834],[4.889476728311455,43.425993004936984],[4.88714451009062,43.425237928136184],[4.884506982506547,43.4258715813515],[4.88332498341825,43.427229955410034],[4.883527082106777,43.429041813625105],[4.884644473055897,43.43006934662218],[4.889233725626307,43.43207247907585],[4.889286913348653,43.4333641852306],[4.88768146662162,43.434211474161785],[4.886948798554221,43.43537010857684],[4.884489635076125,43.43549390286356],[4.882783738583519,43.43658672942833],[4.881414020202475,43.43570099092383],[4.879662138627622,43.43540234539789],[4.877923919677929,43.435740742503505],[4.876609810450574,43.43663627735213],[4.87604145357464,43.438406316640084],[4.877127217600315,43.440025141638245],[4.875194202993876,43.44097589127564],[4.874429117686538,43.4427061533525],[4.876994598543861,43.44643394530458],[4.879214074345283,43.447351637480075],[4.881925173162529,43.44690958434335],[4.883453220077673,43.44520529929897],[4.885770664226412,43.44403355536307],[4.886366080855109,43.44174212542899],[4.886951608294616,43.441351694797646],[4.888986407131499,43.44328229461362],[4.891457532003828,43.44397714465129],[4.891412732214409,43.44554756033094],[4.889799470014168,43.44755795024134],[4.890704386691038,43.449557729428285],[4.892183553096027,43.45030453286925],[4.894013415433812,43.45044981729479],[4.896359637036296,43.4518457106982],[4.898099974963188,43.45187749118297],[4.899714448026629,43.451298170960555],[4.901123202079926,43.44947783306831],[4.904361305741554,43.44715302505417],[4.906084847646601,43.44446762351438],[4.904787842926468,43.440897960076946],[4.903346687589804,43.4396795101335],[4.899218617076489,43.43913953749581],[4.897534329738154,43.43960076810676],[4.896324533805899,43.440618240731965],[4.895994657509943,43.44024606646353],[4.895820973497111,43.43963909152946],[4.897433857112139,43.439058202852245],[4.898482626561599,43.437992851137594],[4.898269266084882,43.43568051001424],[4.899674248972083,43.43439165777184],[4.900154900158733,43.431994899574335],[4.901089532558287,43.43155931112207]]}},{"type":"Feature","properties":{"cluster_id":1,"snapshot_index":11,"estimated_time_utc":"2026-09-30T01:13:00Z","observed_until_utc":"2026-09-30T01:13:00Z","target_time_utc":"2026-09-30T01:15:00Z","arrival_h":71.96666666666667,"hours_ago":1.7166666666666666,"supported_detections_cumulative":61,"sources_cumulative":"VIIRS_NOAA20_NRT, VIIRS_NOAA21_NRT, VIIRS_SNPP_NRT","last_source":"VIIRS_NOAA20_NRT","last_satellite":"N20","last_instrument":"VIIRS","detected_area_km2":4.259017005439327,"product_type":"cumulative_active_fire_detection_extent"},"geometry":{"type":"LineString","coordinates":[[4.901548617475381,43.43120822661953],[4.902255604892237,43.42891861916159],[4.901434398444712,43.4277520925597],[4.900012156541139,43.427021325177286],[4.89578449509552,43.4269129815377],[4.894572851051782,43.42564765974673],[4.89257462099388,43.42507118716828],[4.890799624451101,43.425284007134834],[4.889476728311455,43.425993004936984],[4.88714451009062,43.425237928136184],[4.884506982506547,43.4258715813515],[4.88332498341825,43.427229955410034],[4.883527082106777,43.429041813625105],[4.884644473055897,43.43006934662218],[4.889233725626307,43.43207247907585],[4.889286913348653,43.4333641852306],[4.88768146662162,43.434211474161785],[4.886948798554221,43.43537010857684],[4.884489635076125,43.43549390286356],[4.882783738583519,43.43658672942833],[4.881414020202475,43.43570099092383],[4.879662138627622,43.43540234539789],[4.877923919677929,43.435740742503505],[4.876609810450574,43.43663627735213],[4.87604145357464,43.438406316640084],[4.877127217600315,43.440025141638245],[4.875194202993876,43.44097589127564],[4.874429117686538,43.4427061533525],[4.876994598543861,43.44643394530458],[4.879214074345283,43.447351637480075],[4.881925173162529,43.44690958434335],[4.883453220077673,43.44520529929897],[4.885770664226412,43.44403355536307],[4.886366080855109,43.44174212542899],[4.886951608294616,43.441351694797646],[4.888986407131499,43.44328229461362],[4.891457532003828,43.44397714465129],[4.891412732214409,43.44554756033094],[4.889799470014168,43.44755795024134],[4.890704386691038,43.449557729428285],[4.892183553096027,43.45030453286925],[4.894013415433812,43.45044981729479],[4.896359637036296,43.4518457106982],[4.898099974963188,43.45187749118297],[4.899714448026629,43.451298170960555],[4.901123202079926,43.44947783306831],[4.904361305741554,43.44715302505417],[4.906084847646601,43.44446762351438],[4.904787842926468,43.440897960076946],[4.903346687589804,43.4396795101335],[4.899218617076489,43.43913953749581],[4.897534329738154,43.43960076810676],[4.896324533805899,43.440618240731965],[4.895961017896346,43.440158701048524],[4.895820973497111,43.43963909152946],[4.898359755690579,43.43819456734971],[4.898740484300971,43.436913143146406],[4.898269266084882,43.43568051001424],[4.899674248972083,43.43439165777184],[4.900154900158733,43.431994899574335],[4.901548617475381,43.43120822661953]]}},{"type":"Feature","properties":{"cluster_id":1,"snapshot_index":12,"estimated_time_utc":"2026-09-30T02:56:00Z","observed_until_utc":"2026-09-30T02:56:00Z","target_time_utc":"2026-09-30T02:56:00Z","arrival_h":73.68333333333334,"hours_ago":0.0,"supported_detections_cumulative":77,"sources_cumulative":"VIIRS_NOAA20_NRT, VIIRS_NOAA21_NRT, VIIRS_SNPP_NRT","last_source":"VIIRS_NOAA20_NRT","last_satellite":"N20","last_instrument":"VIIRS","detected_area_km2":19.862876383802856,"product_type":"cumulative_active_fire_detection_extent"},"geometry":{"type":"MultiLineString","coordinates":[[[4.998986689696623,43.378190174099565],[4.995778280688909,43.37836457279118],[4.993487330005254,43.38051149041834],[4.99371816042063,43.38277225171337],[4.9960796074663,43.38420565917948],[4.998909121284063,43.38413655505309],[5.000842804350765,43.38262838590329],[5.00115056575299,43.379872704359094],[4.998986689696623,43.378190174099565]],[[5.016854225428962,43.37998746063808],[5.019726587785352,43.37893019241176],[5.020429513764517,43.3777702408981],[5.02031008200811,43.37646208342446],[5.018791026727969,43.37502110286896],[5.016501617573718,43.37456721955116],[5.015357778165281,43.37301261674472],[5.01383945754887,43.372234161125995],[5.012053842743917,43.372085554300014],[5.010383022874793,43.372568509901505],[5.009221535707735,43.37356898824902],[5.00886524047018,43.37506133901388],[5.007728185533249,43.37568152457328],[5.004624163000829,43.37501551503593],[5.00199988986832,43.37622994385552],[5.001419133403147,43.3775157615039],[5.001742309613073,43.37880545075212],[5.002860833637842,43.37983172499317],[5.004723463708129,43.38037122171514],[5.003680309995388,43.381809316719405],[5.003927526025644,43.38336520717228],[5.00531826881093,43.38455869746123],[5.007261057564375,43.3849853575773],[5.006256786611446,43.386051894928514],[5.005328403099111,43.38872589333709],[5.005651729773723,43.39001558177295],[5.007018106012566,43.39116874014357],[5.009625758698006,43.39213659636136],[5.01171494774022,43.39209779282151],[5.013898627847047,43.390722123456555],[5.016248275803335,43.390246878813976],[5.018391045188731,43.388769686720146],[5.018947070135761,43.38695519035609],[5.017576719069356,43.385195111418085],[5.013064031662337,43.38366339321575],[5.010246455965092,43.38393992852082],[5.010673695052442,43.38342372861005],[5.012243274623645,43.38340682728567],[5.013795675918289,43.382835544090696],[5.014862981035279,43.38172793680156],[5.01504226643311,43.380323296307274],[5.016854225428962,43.37998746063808]],[[5.098326564883054,43.392612694584834],[5.097740979674842,43.39411967524551],[5.098437127886152,43.39564594879563],[5.100143893278635,43.39659693040561],[5.102554003195441,43.396641950612015],[5.10314215520596,43.39871006824618],[5.105525406764109,43.399825348520075],[5.108341543439504,43.39935961994158],[5.110515003276297,43.39721618241464],[5.113188757894249,43.39751743694833],[5.114924432558678,43.39717527703193],[5.116761422413492,43.395297008096634],[5.115935705245908,43.39306997358697],[5.112073784098326,43.391106966992595],[5.112558699813265,43.38922994510438],[5.112059645985291,43.38792596929751],[5.109514319618915,43.38662465228373],[5.106363438727644,43.38676714668813],[5.104446666820613,43.387862875746386],[5.103893327465512,43.38967781137343],[5.105208658053762,43.39140062010616],[5.10368075809303,43.391923497663846],[5.100592500844478,43.39144384815032],[5.098326564883054,43.392612694584834]],[[4.838613567094667,43.42025338121254],[4.836031690122224,43.42110318035583],[4.835030324035227,43.42303480659716],[4.836196185659685,43.42491678307769],[4.838846443816429,43.42564662404242],[4.841428483048706,43.42479675495541],[4.842429665053674,43.42286506706192],[4.841263641169383,43.42098316052512],[4.838613567094667,43.42025338121254]],[[4.902209173934175,43.43027205399661],[4.902174973271143,43.42870589382632],[4.900952687693255,43.42741752138286],[4.899254839127069,43.426868288840076],[4.89578449509552,43.4269129815377],[4.893575931350696,43.42523550795683],[4.891490619057419,43.425122513648525],[4.889491084119203,43.42575598854921],[4.887204872777263,43.425241201935336],[4.881884651967351,43.425281736390104],[4.880512086222926,43.4260612924689],[4.879768475117552,43.42725513502635],[4.880012535867965,43.42881135920714],[4.881270997550033,43.429939237315715],[4.880392980310793,43.43128774988489],[4.878441052785061,43.43228688207529],[4.875331146602465,43.432910158857105],[4.874194659010199,43.43423965052164],[4.874009688737832,43.436605246576065],[4.872061418827986,43.43696235754157],[4.868657240269013,43.438926730778974],[4.866115925691726,43.43796123617225],[4.863371326532784,43.43861988115321],[4.861911451730892,43.44089245051836],[4.859807649290915,43.44255602555663],[4.859875709513571,43.44466109006387],[4.861942322311172,43.446074160330745],[4.864872513118654,43.44597289201138],[4.865653727410236,43.44915877629861],[4.868430712794124,43.451738592149624],[4.877244266675351,43.45468479275014],[4.881551255832075,43.45480251131227],[4.883646053520516,43.456119195047165],[4.886873207469359,43.45703817117317],[4.888894009639092,43.460026943712016],[4.892563814753993,43.46192510953756],[4.895213517714794,43.46236628800957],[4.897924944676222,43.46222813564354],[4.901617633266677,43.460955443898115],[4.908877315382569,43.45935981967342],[4.912727928097929,43.45701414560726],[4.915528335741909,43.4562601688353],[4.918220097899523,43.45456958736566],[4.919872170292994,43.45217996418992],[4.920127010273779,43.44955417926859],[4.918513485524107,43.44524476712451],[4.917284487832021,43.44347903991623],[4.914660608522457,43.44166965452441],[4.911261902901708,43.4407273511245],[4.91183258669556,43.43746867802852],[4.910228614014295,43.434405639037],[4.906832866070096,43.432255199285684],[4.902434611421305,43.43152529716486],[4.902209173934175,43.43027205399661]],[[4.857929929568415,43.44434637049984],[4.858908918848516,43.442194388931966],[4.858238648273908,43.43985942064028],[4.857097060693254,43.43879125687683],[4.854062156479536,43.438292219083856],[4.849664985730353,43.43993520099434],[4.848188989300759,43.44385411134155],[4.849812575944648,43.445428645474166],[4.85284781975295,43.44592780489605],[4.857929929568415,43.44434637049984]],[[4.836811896098128,43.45043838249695],[4.839488647285609,43.450980713633996],[4.842148566623846,43.44982388250633],[4.845362095952484,43.44980118729782],[4.842747357133459,43.45236547652013],[4.842790329890081,43.45443021203932],[4.844548053770207,43.45577837190236],[4.847191237674736,43.45595524637116],[4.848063164121572,43.4577832054194],[4.850282616126703,43.45870149764884],[4.852359443611879,43.45851659014076],[4.853788559423898,43.45771953671636],[4.854590032158334,43.45608881109357],[4.856019843806772,43.454965879023085],[4.857013291792544,43.4525823006237],[4.856496916923689,43.44975736739126],[4.855227508811086,43.448441280681756],[4.85321619407552,43.44788796010914],[4.848316577612591,43.44807813614444],[4.84837682152117,43.44630763371056],[4.846802480764427,43.44483777783022],[4.846297006459464,43.44181047579465],[4.84547675074941,43.44064351426311],[4.84399843918901,43.43989607881661],[4.841759598261061,43.43981060934799],[4.839807717660616,43.43909859749801],[4.837731550747555,43.43928326190205],[4.836090643856559,43.44029511059279],[4.834774598084016,43.44294834538779],[4.834731843903571,43.44422351181093],[4.83325768604514,43.445923565148405],[4.833690644546754,43.44775594920031],[4.836811896098128,43.45043838249695]],[[4.92448373767319,43.486610264065206],[4.92613582742949,43.48713197637661],[4.927930615311071,43.48702501553895],[4.929444195955483,43.486314644452136],[4.930385544189672,43.48495330623505],[4.930267938709788,43.48364494683349],[4.928809152724942,43.48136129570986],[4.926263844654301,43.480055584268975],[4.923491830416346,43.48049120651104],[4.921954638281218,43.48222653367936],[4.92220007423016,43.48378272509161],[4.92448373767319,43.486610264065206]]]}}],"metadata":{"generated_at_utc":"2026-10-01T20:29:30.092535Z","product_type":"cumulative_active_fire_detection_extent","product_label":"Emprises cumulées des détections actives FIRMS","not_a_burn_perimeter":true,"not_a_continuous_fire_front":true,"not_an_arrival_time_interpolation":true,"snapshot_step_hours":6,"confidence_filter":{"VIIRS":["nominal","high"],"MODIS_minimum":30},"footprint_radius_m":{"VIIRS":300.0,"MODIS":750.0},"same_pass_neighbour_m":2000.0,"continuity_distance_m":3000.0,"clusters":[{"cluster_id":1,"first_supported_detection_utc":"2026-09-27T01:15:00Z","last_supported_detection_utc":"2026-09-30T02:56:00Z","pass_states":18,"published_snapshots":12,"final_detected_area_km2":4.374332828147591}]},"bbox":[4.8332576860451395,43.372085554300014,5.116761422413492,43.48713197637661]}