{"type":"FeatureCollection","name":"fire_progression_arrival_v1","features":[{"type":"Feature","properties":{"category":"arrival_step","arrival_snapshot_index":1,"first_detected_utc":"2026-09-27T01:15:00+00:00","first_detected_local":"2026-09-27T03:15:00+02:00","area_km2":4.188,"label":"Première détection FIRMS","model_version":"fire_progression_arrival_v1"},"geometry":{"type":"MultiPolygon","coordinates":[[[[4.904055422001228,43.422373951020056],[4.891716202674224,43.422590163623475],[4.891790123134112,43.424838644557475],[4.897959985284022,43.42473070953633],[4.89803415243674,43.426979189761255],[4.90420423232089,43.426870898961646],[4.904055422001228,43.422373951020056]]],[[[4.904278646202007,43.42911937845956],[4.8919379813829655,43.42933561748408],[4.891864049370134,43.42708712917876],[4.888778989166915,43.42714096711857],[4.888705183390258,43.424892480304464],[4.885620237879671,43.42494622820875],[4.885693923196287,43.4271947172121],[4.882608851467656,43.427248379459066],[4.882976761989683,43.43849089060333],[4.88606243616295,43.438437217426646],[4.886209881674553,43.44293424321033],[4.88929579112879,43.44288047778951],[4.889369643063641,43.44512899398494],[4.892455667280349,43.445075138499234],[4.892529645532043,43.447323656158915],[4.904874166651784,43.44710734666176],[4.904799706230783,43.44485883781244],[4.907885701442238,43.44480454295604],[4.907289263546038,43.426816621794195],[4.90420423232089,43.426870898961646],[4.904278646202007,43.42911937845956]]]]}},{"type":"Feature","properties":{"category":"arrival_step","arrival_snapshot_index":2,"first_detected_utc":"2026-09-27T01:52:00+00:00","first_detected_local":"2026-09-27T03:52:00+02:00","area_km2":1.0,"label":"Première détection FIRMS","model_version":"fire_progression_arrival_v1"},"geometry":{"type":"Polygon","coordinates":[[[4.886357350237082,43.447431283639155],[4.886283613074114,43.44518276159574],[4.880111535814252,43.44529003319156],[4.880038045487296,43.44304151043692],[4.8769521187730955,43.443095012242175],[4.876658696952813,43.43410094915503],[4.879744141611852,43.434047456065855],[4.87967067999772,43.43179895165136],[4.882755998425941,43.43174537288675],[4.882976761989683,43.43849089060333],[4.88606243616295,43.438437217426646],[4.886209881674553,43.44293424321033],[4.88929579112879,43.44288047778951],[4.889369643063641,43.44512899398494],[4.892455667280349,43.445075138499234],[4.892529645532043,43.447323656158915],[4.886357350237082,43.447431283639155]]]}},{"type":"Feature","properties":{"category":"arrival_step","arrival_snapshot_index":4,"first_detected_utc":"2026-09-27T12:40:00+00:00","first_detected_local":"2026-09-27T14:40:00+02:00","area_km2":0.312,"label":"Première détection FIRMS","model_version":"fire_progression_arrival_v1"},"geometry":{"type":"Polygon","coordinates":[[[4.889517364252473,43.44962603734628],[4.88944350077131,43.44737751383828],[4.904874166651784,43.44710734666176],[4.9049486328933405,43.449355859165216],[4.889517364252473,43.44962603734628]]]}},{"type":"Feature","properties":{"category":"arrival_step","arrival_snapshot_index":11,"first_detected_utc":"2026-09-29T00:37:00+00:00","first_detected_local":"2026-09-29T02:37:00+02:00","area_km2":1.312,"label":"Première détection FIRMS","model_version":"fire_progression_arrival_v1"},"geometry":{"type":"Polygon","coordinates":[[[4.874085951257319,43.4498940184757],[4.874012690553469,43.44764548405262],[4.870926511292954,43.447698814457205],[4.870853376863604,43.44545028151705],[4.867767312434807,43.445503521873],[4.867548305031927,43.43875793851121],[4.870634007870974,43.438704704660566],[4.870560896303003,43.43645618637397],[4.873646472917283,43.43640286682943],[4.873573246561961,43.43415435438616],[4.876658696952813,43.43410094915503],[4.8769521187730955,43.443095012242175],[4.880038045487296,43.44304151043692],[4.880111535814252,43.44529003319156],[4.886283613074114,43.44518276159574],[4.886357350237082,43.447431283639155],[4.883271193938771,43.44748496556128],[4.883344816311033,43.44973349344603],[4.874085951257319,43.4498940184757]]]}},{"type":"Feature","properties":{"category":"arrival_step","arrival_snapshot_index":14,"first_detected_utc":"2026-09-29T12:38:00+00:00","first_detected_local":"2026-09-29T14:38:00+02:00","area_km2":0.375,"label":"Première détection FIRMS","model_version":"fire_progression_arrival_v1"},"geometry":{"type":"Polygon","coordinates":[[[4.895838115651619,43.45401527890235],[4.895763999477585,43.45176675248635],[4.889591233507809,43.45187456450564],[4.889517364252473,43.44962603734628],[4.9049486328933405,43.449355859165216],[4.905023104956133,43.45160437531961],[4.898850373776663,43.45171271464889],[4.898924610521605,43.4539612388638],[4.895838115651619,43.45401527890235]]]}},{"type":"Feature","properties":{"category":"arrival_step","arrival_snapshot_index":18,"first_detected_utc":"2026-09-30T02:36:00+00:00","first_detected_local":"2026-09-30T04:36:00+02:00","area_km2":0.312,"label":"Première détection FIRMS","model_version":"fire_progression_arrival_v1"},"geometry":{"type":"Polygon","coordinates":[[[4.9049486328933405,43.449355859165216],[4.904799706230783,43.44485883781244],[4.907885701442238,43.44480454295604],[4.907736557006153,43.44030754065588],[4.910822305336673,43.44025316235607],[4.911046392325976,43.44699866464894],[4.907960282403863,43.44705304959382],[4.908034869195454,43.44930155988565],[4.9049486328933405,43.449355859165216]]]}},{"type":"Feature","properties":{"category":"arrival_step","arrival_snapshot_index":19,"first_detected_utc":"2026-09-30T02:56:00+00:00","first_detected_local":"2026-09-30T04:56:00+02:00","area_km2":0.25,"label":"Première détection FIRMS","model_version":"fire_progression_arrival_v1"},"geometry":{"type":"Polygon","coordinates":[[[4.873573246561961,43.43415435438616],[4.8735000259290455,43.43190584561766],[4.876585355828953,43.43185244256175],[4.876512020436234,43.429603939646405],[4.882682422072161,43.4294968743324],[4.882755998425941,43.43174537288675],[4.87967067999772,43.43179895165136],[4.879744141611852,43.434047456065855],[4.873573246561961,43.43415435438616]]]}},{"type":"Feature","properties":{"category":"firms_extent_snapshot","snapshot_index":1,"pass_time_utc":"2026-09-27T01:15:00+00:00","dt_local":"2026-09-27T03:15:00+02:00","label":"Emprise FIRMS cumulée à ce passage","interpretation":"Enveloppe des détections FIRMS, pas une surface brûlée","cumulative":true,"point_count":7,"extent_method":"cumulative_detection_extent_smoothed_landmasked_web_v1","local_cluster_link_m":10000.0,"model_version":"fire_progression_arrival_v1"},"geometry":{"type":"Polygon","coordinates":[[[4.888097710439744,43.44105822010152],[4.8896534748610305,43.442138858488015],[4.893061760098385,43.442554620187295],[4.894681891033364,43.443353708309026],[4.895747292827411,43.444886502863156],[4.8956861340878195,43.44712341270158],[4.896545136463805,43.44850099056143],[4.8990758029251085,43.44943023748676],[4.901767108447578,43.44878351593727],[4.903046131442818,43.44688461446843],[4.902175242169002,43.44457224243214],[4.902135954989326,43.44204502309912],[4.9009576302435525,43.44079914818608],[4.898003725363123,43.43954857618429],[4.897061329422043,43.43812092235725],[4.897380636153606,43.436553879028814],[4.899336407294582,43.434884380520714],[4.899901518898196,43.43363981088139],[4.899981999439414,43.430800278620744],[4.898728871497979,43.42879297763978],[4.897770143678937,43.42833368511298],[4.894376509712109,43.42839308706492],[4.893473170068105,43.429083815587646],[4.89256693709005,43.42804055398065],[4.8918282396147434,43.42908322553476],[4.89147480382808,43.432074533929665],[4.887711176670876,43.43418640690007],[4.886879218555713,43.43595451913613],[4.887760039676009,43.438064667546],[4.888097710439744,43.44105822010152]]]}},{"type":"Feature","properties":{"category":"historical_support","snapshot_index":1,"pass_time_utc":"2026-09-27T01:15:00+00:00","dt_local":"2026-09-27T03:15:00+02:00","area_km2":4.188,"label":"Isoline temporelle","coherence_level":"indisponible","coherence_fraction":0.0,"projection_displayed":false,"model_version":"fire_progression_arrival_v1"},"geometry":{"type":"MultiPolygon","coordinates":[[[[4.904055422001228,43.422373951020056],[4.891716202674224,43.422590163623475],[4.891790123134112,43.424838644557475],[4.897959985284022,43.42473070953633],[4.89803415243674,43.426979189761255],[4.90420423232089,43.426870898961646],[4.904055422001228,43.422373951020056]]],[[[4.904278646202007,43.42911937845956],[4.8919379813829655,43.42933561748408],[4.891864049370134,43.42708712917876],[4.888778989166915,43.42714096711857],[4.888705183390258,43.424892480304464],[4.885620237879671,43.42494622820875],[4.885693923196287,43.4271947172121],[4.882608851467656,43.427248379459066],[4.882976761989683,43.43849089060333],[4.88606243616295,43.438437217426646],[4.886209881674553,43.44293424321033],[4.88929579112879,43.44288047778951],[4.889369643063641,43.44512899398494],[4.892455667280349,43.445075138499234],[4.892529645532043,43.447323656158915],[4.904874166651784,43.44710734666176],[4.904799706230783,43.44485883781244],[4.907885701442238,43.44480454295604],[4.907289263546038,43.426816621794195],[4.90420423232089,43.426870898961646],[4.904278646202007,43.42911937845956]]]]}},{"type":"Feature","properties":{"category":"observed_front","snapshot_index":1,"pass_time_utc":"2026-09-27T01:15:00+00:00","dt_local":"2026-09-27T03:15:00+02:00","area_km2":4.188,"label":"Activité observée","coherence_level":"indisponible","coherence_fraction":0.0,"projection_displayed":false,"model_version":"fire_progression_arrival_v1"},"geometry":{"type":"MultiPolygon","coordinates":[[[[4.904055422001228,43.422373951020056],[4.891716202674224,43.422590163623475],[4.891790123134112,43.424838644557475],[4.897959985284022,43.42473070953633],[4.89803415243674,43.426979189761255],[4.90420423232089,43.426870898961646],[4.904055422001228,43.422373951020056]]],[[[4.904278646202007,43.42911937845956],[4.8919379813829655,43.42933561748408],[4.891864049370134,43.42708712917876],[4.888778989166915,43.42714096711857],[4.888705183390258,43.424892480304464],[4.885620237879671,43.42494622820875],[4.885693923196287,43.4271947172121],[4.882608851467656,43.427248379459066],[4.882976761989683,43.43849089060333],[4.88606243616295,43.438437217426646],[4.886209881674553,43.44293424321033],[4.88929579112879,43.44288047778951],[4.889369643063641,43.44512899398494],[4.892455667280349,43.445075138499234],[4.892529645532043,43.447323656158915],[4.904874166651784,43.44710734666176],[4.904799706230783,43.44485883781244],[4.907885701442238,43.44480454295604],[4.907289263546038,43.426816621794195],[4.90420423232089,43.426870898961646],[4.904278646202007,43.42911937845956]]]]}},{"type":"Feature","properties":{"category":"firms_extent_snapshot","snapshot_index":2,"pass_time_utc":"2026-09-27T01:52:00+00:00","dt_local":"2026-09-27T03:52:00+02:00","label":"Emprise FIRMS cumulée à ce passage","interpretation":"Enveloppe des détections FIRMS, pas une surface brûlée","cumulative":true,"point_count":13,"extent_method":"cumulative_detection_extent_smoothed_landmasked_web_v1","local_cluster_link_m":10000.0,"model_version":"fire_progression_arrival_v1"},"geometry":{"type":"Polygon","coordinates":[[[4.882748266977981,43.445266869760296],[4.884850590972535,43.44474378573324],[4.887894638524869,43.442436292197925],[4.891968144994764,43.44258310370879],[4.893945260206255,43.44388135631813],[4.894985990768581,43.44574149698437],[4.89524916672316,43.447766814446155],[4.896460541132523,43.44899582830479],[4.899116074502762,43.449552900006964],[4.902030386961821,43.44860105856943],[4.903051427652998,43.44673021342116],[4.902175242169002,43.44457224243214],[4.902135954989326,43.44204502309912],[4.9009576302435525,43.44079914818608],[4.898003725363123,43.43954857618429],[4.897061329422043,43.43812092235725],[4.897380636153606,43.436553879028814],[4.899336407294582,43.434884380520714],[4.899901518898196,43.43363981088139],[4.899981999439414,43.430800278620744],[4.898728871497979,43.42879297763978],[4.897770143678937,43.42833368511298],[4.894376509712109,43.42839308706492],[4.893473170068105,43.429083815587646],[4.892558815983854,43.428031204705974],[4.8918747919336925,43.42893255085277],[4.891912918010707,43.431064822921144],[4.891350198218612,43.432227184359064],[4.888163830442163,43.43384625395028],[4.886319513611237,43.43552054621037],[4.88363971782774,43.436709412250444],[4.882100744627134,43.43936989803634],[4.8794946287176275,43.44117242040916],[4.878958780031085,43.44263424894769],[4.880105169741503,43.44452241987669],[4.882748266977981,43.445266869760296]]]}},{"type":"Feature","properties":{"category":"historical_support","snapshot_index":2,"pass_time_utc":"2026-09-27T01:52:00+00:00","dt_local":"2026-09-27T03:52:00+02:00","area_km2":5.188,"label":"Isoline temporelle","coherence_level":"indisponible","coherence_fraction":0.0,"projection_displayed":false,"model_version":"fire_progression_arrival_v1"},"geometry":{"type":"MultiPolygon","coordinates":[[[[4.904055422001228,43.422373951020056],[4.891716202674224,43.422590163623475],[4.891790123134112,43.424838644557475],[4.897959985284022,43.42473070953633],[4.89803415243674,43.426979189761255],[4.90420423232089,43.426870898961646],[4.904055422001228,43.422373951020056]]],[[[4.904278646202007,43.42911937845956],[4.8919379813829655,43.42933561748408],[4.891864049370134,43.42708712917876],[4.888778989166915,43.42714096711857],[4.888705183390258,43.424892480304464],[4.885620237879671,43.42494622820875],[4.885693923196287,43.4271947172121],[4.882608851467656,43.427248379459066],[4.882755998425941,43.43174537288675],[4.87967067999772,43.43179895165136],[4.879744141611852,43.434047456065855],[4.876658696952813,43.43410094915503],[4.8769521187730955,43.443095012242175],[4.880038045487296,43.44304151043692],[4.880111535814252,43.44529003319156],[4.886283613074114,43.44518276159574],[4.886357350237082,43.447431283639155],[4.904874166651784,43.44710734666176],[4.904799706230783,43.44485883781244],[4.907885701442238,43.44480454295604],[4.907289263546038,43.426816621794195],[4.90420423232089,43.426870898961646],[4.904278646202007,43.42911937845956]]]]}},{"type":"Feature","properties":{"category":"observed_front","snapshot_index":2,"pass_time_utc":"2026-09-27T01:52:00+00:00","dt_local":"2026-09-27T03:52:00+02:00","area_km2":4.188,"label":"Activité observée","coherence_level":"indisponible","coherence_fraction":0.0,"projection_displayed":false,"model_version":"fire_progression_arrival_v1"},"geometry":{"type":"Polygon","coordinates":[[[4.886357350237082,43.447431283639155],[4.886283613074114,43.44518276159574],[4.880111535814252,43.44529003319156],[4.880038045487296,43.44304151043692],[4.8769521187730955,43.443095012242175],[4.876658696952813,43.43410094915503],[4.879744141611852,43.434047456065855],[4.87967067999772,43.43179895165136],[4.882755998425941,43.43174537288675],[4.882682422072161,43.4294968743324],[4.88576761427091,43.42944320989968],[4.885693923196287,43.4271947172121],[4.891864049370134,43.42708712917876],[4.8919379813829655,43.42933561748408],[4.9011934886963875,43.429173569989224],[4.9013420929442875,43.43367054443766],[4.904427491410221,43.433616348493295],[4.9046508028477165,43.440361831089476],[4.907736557006153,43.44030754065588],[4.907885701442238,43.44480454295604],[4.904799706230783,43.44485883781244],[4.904874166651784,43.44710734666176],[4.886357350237082,43.447431283639155]]]}},{"type":"Feature","properties":{"category":"historical_support","snapshot_index":3,"pass_time_utc":"2026-09-27T11:55:00+00:00","dt_local":"2026-09-27T13:55:00+02:00","area_km2":5.188,"label":"Isoline temporelle","coherence_level":"indisponible","coherence_fraction":0.0,"projection_displayed":false,"model_version":"fire_progression_arrival_v1"},"geometry":{"type":"MultiPolygon","coordinates":[[[[4.904055422001228,43.422373951020056],[4.891716202674224,43.422590163623475],[4.891790123134112,43.424838644557475],[4.897959985284022,43.42473070953633],[4.89803415243674,43.426979189761255],[4.90420423232089,43.426870898961646],[4.904055422001228,43.422373951020056]]],[[[4.904278646202007,43.42911937845956],[4.8919379813829655,43.42933561748408],[4.891864049370134,43.42708712917876],[4.888778989166915,43.42714096711857],[4.888705183390258,43.424892480304464],[4.885620237879671,43.42494622820875],[4.885693923196287,43.4271947172121],[4.882608851467656,43.427248379459066],[4.882755998425941,43.43174537288675],[4.87967067999772,43.43179895165136],[4.879744141611852,43.434047456065855],[4.876658696952813,43.43410094915503],[4.8769521187730955,43.443095012242175],[4.880038045487296,43.44304151043692],[4.880111535814252,43.44529003319156],[4.886283613074114,43.44518276159574],[4.886357350237082,43.447431283639155],[4.904874166651784,43.44710734666176],[4.904799706230783,43.44485883781244],[4.907885701442238,43.44480454295604],[4.907289263546038,43.426816621794195],[4.90420423232089,43.426870898961646],[4.904278646202007,43.42911937845956]]]]}},{"type":"Feature","properties":{"category":"observed_front","snapshot_index":3,"pass_time_utc":"2026-09-27T11:55:00+00:00","dt_local":"2026-09-27T13:55:00+02:00","area_km2":2.188,"label":"Activité observée","coherence_level":"indisponible","coherence_fraction":0.0,"projection_displayed":false,"model_version":"fire_progression_arrival_v1"},"geometry":{"type":"Polygon","coordinates":[[[4.88929579112879,43.44288047778951],[4.8892219449660805,43.44063196525529],[4.886136156037724,43.4406857284862],[4.88606243616295,43.438437217426646],[4.882976761989683,43.43849089060333],[4.882755998425941,43.43174537288675],[4.885841311104213,43.43169170626818],[4.88576761427091,43.42944320989968],[4.888852800710979,43.42938945761681],[4.888778989166915,43.42714096711857],[4.891864049370134,43.42708712917876],[4.8919379813829655,43.42933561748408],[4.9011934886963875,43.429173569989224],[4.901267787917149,43.43142205537484],[4.904353065898223,43.43136786163789],[4.904576359884285,43.438113333222375],[4.901490720420418,43.438167533581826],[4.901565042870771,43.44041603365661],[4.898479277084726,43.44047014835701],[4.8985534848210115,43.44271865430011],[4.88929579112879,43.44288047778951]]]}},{"type":"Feature","properties":{"category":"firms_extent_snapshot","snapshot_index":4,"pass_time_utc":"2026-09-27T12:40:00+00:00","dt_local":"2026-09-27T14:40:00+02:00","label":"Emprise FIRMS cumulée à ce passage","interpretation":"Enveloppe des détections FIRMS, pas une surface brûlée","cumulative":true,"point_count":16,"extent_method":"cumulative_detection_extent_smoothed_landmasked_web_v1","local_cluster_link_m":10000.0,"model_version":"fire_progression_arrival_v1"},"geometry":{"type":"Polygon","coordinates":[[[4.882748266977981,43.445266869760296],[4.884850590972535,43.44474378573324],[4.887894638524869,43.442436292197925],[4.891968144994764,43.44258310370879],[4.89404986294473,43.44404474984508],[4.8946379409378515,43.445424675579844],[4.894595325709714,43.447553181967415],[4.895910519224233,43.44903581679901],[4.898566049114531,43.44959290199406],[4.902030386961821,43.44860105856943],[4.903042383201407,43.44693970584042],[4.902565990839301,43.442735008719474],[4.9014245265012235,43.4411289629938],[4.89817600224251,43.439675647662575],[4.897061329422043,43.43812092235725],[4.897380636153606,43.436553879028814],[4.899336407294582,43.434884380520714],[4.899901518898196,43.43363981088139],[4.899981999439414,43.430800278620744],[4.898728871497979,43.42879297763978],[4.897770143678937,43.42833368511298],[4.894376509712109,43.42839308706492],[4.893473170068105,43.429083815587646],[4.892558815983854,43.428031204705974],[4.8918747919336925,43.42893255085277],[4.891912918010707,43.431064822921144],[4.891350198218612,43.432227184359064],[4.888163830442163,43.43384625395028],[4.886319513611237,43.43552054621037],[4.88363971782774,43.436709412250444],[4.882100744627134,43.43936989803634],[4.8794946287176275,43.44117242040916],[4.878958780031085,43.44263424894769],[4.880105169741503,43.44452241987669],[4.882748266977981,43.445266869760296]]]}},{"type":"Feature","properties":{"category":"historical_support","snapshot_index":4,"pass_time_utc":"2026-09-27T12:40:00+00:00","dt_local":"2026-09-27T14:40:00+02:00","area_km2":5.5,"label":"Isoline temporelle","coherence_level":"indisponible","coherence_fraction":0.0,"projection_displayed":false,"model_version":"fire_progression_arrival_v1"},"geometry":{"type":"MultiPolygon","coordinates":[[[[4.904055422001228,43.422373951020056],[4.891716202674224,43.422590163623475],[4.891790123134112,43.424838644557475],[4.897959985284022,43.42473070953633],[4.89803415243674,43.426979189761255],[4.90420423232089,43.426870898961646],[4.904055422001228,43.422373951020056]]],[[[4.904278646202007,43.42911937845956],[4.8919379813829655,43.42933561748408],[4.891864049370134,43.42708712917876],[4.888778989166915,43.42714096711857],[4.888705183390258,43.424892480304464],[4.885620237879671,43.42494622820875],[4.885693923196287,43.4271947172121],[4.882608851467656,43.427248379459066],[4.882755998425941,43.43174537288675],[4.87967067999772,43.43179895165136],[4.879744141611852,43.434047456065855],[4.876658696952813,43.43410094915503],[4.8769521187730955,43.443095012242175],[4.880038045487296,43.44304151043692],[4.880111535814252,43.44529003319156],[4.886283613074114,43.44518276159574],[4.886357350237082,43.447431283639155],[4.88944350077131,43.44737751383828],[4.889517364252473,43.44962603734628],[4.9049486328933405,43.449355859165216],[4.904799706230783,43.44485883781244],[4.907885701442238,43.44480454295604],[4.907289263546038,43.426816621794195],[4.90420423232089,43.426870898961646],[4.904278646202007,43.42911937845956]]]]}},{"type":"Feature","properties":{"category":"observed_front","snapshot_index":4,"pass_time_utc":"2026-09-27T12:40:00+00:00","dt_local":"2026-09-27T14:40:00+02:00","area_km2":2.688,"label":"Activité observée","coherence_level":"indisponible","coherence_fraction":0.0,"projection_displayed":false,"model_version":"fire_progression_arrival_v1"},"geometry":{"type":"Polygon","coordinates":[[[4.889517364252473,43.44962603734628],[4.889369643063641,43.44512899398494],[4.886283613074114,43.44518276159574],[4.885915013696869,43.43394020631436],[4.9013420929442875,43.43367054443766],[4.901416403778484,43.4359190371744],[4.907587435881733,43.43581055301138],[4.907885701442238,43.44480454295604],[4.904799706230783,43.44485883781244],[4.9049486328933405,43.449355859165216],[4.889517364252473,43.44962603734628]]]}},{"type":"Feature","properties":{"category":"firms_extent_snapshot","snapshot_index":5,"pass_time_utc":"2026-09-27T13:16:00+00:00","dt_local":"2026-09-27T15:16:00+02:00","label":"Emprise FIRMS cumulée à ce passage","interpretation":"Enveloppe des détections FIRMS, pas une surface brûlée","cumulative":true,"point_count":17,"extent_method":"cumulative_detection_extent_smoothed_landmasked_web_v1","local_cluster_link_m":10000.0,"model_version":"fire_progression_arrival_v1"},"geometry":{"type":"Polygon","coordinates":[[[4.882748266977981,43.445266869760296],[4.884850590972535,43.44474378573324],[4.887894638524869,43.442436292197925],[4.891968144994764,43.44258310370879],[4.89404986294473,43.44404474984508],[4.894568087445363,43.44535085129428],[4.894406960852078,43.44762966299471],[4.895740507791465,43.44916581342582],[4.898471391310669,43.449717523826905],[4.902030386961821,43.44860105856943],[4.903042383201407,43.44693970584042],[4.902565990839301,43.442735008719474],[4.9014245265012235,43.4411289629938],[4.89817600224251,43.439675647662575],[4.897061329422043,43.43812092235725],[4.897380636153606,43.436553879028814],[4.899336407294582,43.434884380520714],[4.899901518898196,43.43363981088139],[4.899981999439414,43.430800278620744],[4.898728871497979,43.42879297763978],[4.897770143678937,43.42833368511298],[4.894376509712109,43.42839308706492],[4.893473170068105,43.429083815587646],[4.892558815983854,43.428031204705974],[4.8918747919336925,43.42893255085277],[4.891912918010707,43.431064822921144],[4.891350198218612,43.432227184359064],[4.888163830442163,43.43384625395028],[4.886319513611237,43.43552054621037],[4.88363971782774,43.436709412250444],[4.882100744627134,43.43936989803634],[4.8794946287176275,43.44117242040916],[4.878958780031085,43.44263424894769],[4.880105169741503,43.44452241987669],[4.882748266977981,43.445266869760296]]]}},{"type":"Feature","properties":{"category":"historical_support","snapshot_index":5,"pass_time_utc":"2026-09-27T13:16:00+00:00","dt_local":"2026-09-27T15:16:00+02:00","area_km2":5.5,"label":"Isoline temporelle","coherence_level":"indisponible","coherence_fraction":0.0,"projection_displayed":false,"model_version":"fire_progression_arrival_v1"},"geometry":{"type":"MultiPolygon","coordinates":[[[[4.904055422001228,43.422373951020056],[4.891716202674224,43.422590163623475],[4.891790123134112,43.424838644557475],[4.897959985284022,43.42473070953633],[4.89803415243674,43.426979189761255],[4.90420423232089,43.426870898961646],[4.904055422001228,43.422373951020056]]],[[[4.904278646202007,43.42911937845956],[4.8919379813829655,43.42933561748408],[4.891864049370134,43.42708712917876],[4.888778989166915,43.42714096711857],[4.888705183390258,43.424892480304464],[4.885620237879671,43.42494622820875],[4.885693923196287,43.4271947172121],[4.882608851467656,43.427248379459066],[4.882755998425941,43.43174537288675],[4.87967067999772,43.43179895165136],[4.879744141611852,43.434047456065855],[4.876658696952813,43.43410094915503],[4.8769521187730955,43.443095012242175],[4.880038045487296,43.44304151043692],[4.880111535814252,43.44529003319156],[4.886283613074114,43.44518276159574],[4.886357350237082,43.447431283639155],[4.88944350077131,43.44737751383828],[4.889517364252473,43.44962603734628],[4.9049486328933405,43.449355859165216],[4.904799706230783,43.44485883781244],[4.907885701442238,43.44480454295604],[4.907289263546038,43.426816621794195],[4.90420423232089,43.426870898961646],[4.904278646202007,43.42911937845956]]]]}},{"type":"Feature","properties":{"category":"observed_front","snapshot_index":5,"pass_time_utc":"2026-09-27T13:16:00+00:00","dt_local":"2026-09-27T15:16:00+02:00","area_km2":1.75,"label":"Activité observée","coherence_level":"indisponible","coherence_fraction":0.0,"projection_displayed":false,"model_version":"fire_progression_arrival_v1"},"geometry":{"type":"Polygon","coordinates":[[[4.889517364252473,43.44962603734628],[4.889369643063641,43.44512899398494],[4.886283613074114,43.44518276159574],[4.886209881674553,43.44293424321033],[4.88929579112879,43.44288047778951],[4.8891481045748355,43.43838345638554],[4.895319424076835,43.43827567071101],[4.895245348444282,43.43602716989915],[4.898330879010549,43.435973147466704],[4.8984050751481325,43.43822164607813],[4.904576359884285,43.438113333222375],[4.904725251629654,43.44261033262059],[4.907811126309895,43.44255603997564],[4.907885701442238,43.44480454295604],[4.904799706230783,43.44485883781244],[4.9049486328933405,43.449355859165216],[4.889517364252473,43.44962603734628]]]}},{"type":"Feature","properties":{"category":"firms_extent_snapshot","snapshot_index":6,"pass_time_utc":"2026-09-28T00:56:00+00:00","dt_local":"2026-09-28T02:56:00+02:00","label":"Emprise FIRMS cumulée à ce passage","interpretation":"Enveloppe des détections FIRMS, pas une surface brûlée","cumulative":true,"point_count":27,"extent_method":"cumulative_detection_extent_smoothed_landmasked_web_v1","local_cluster_link_m":10000.0,"model_version":"fire_progression_arrival_v1"},"geometry":{"type":"Polygon","coordinates":[[[4.881670011301592,43.44516940772419],[4.8835421233834175,43.44518913484805],[4.886899294715801,43.44416843262099],[4.889220781301239,43.444624687741424],[4.8905851268311,43.445855669385246],[4.891459552702762,43.4488061871789],[4.8938949622545325,43.449957673786244],[4.900917282431259,43.44918317770588],[4.905517152042943,43.44573421370804],[4.906064718326097,43.44396092662367],[4.90461203372056,43.4406413837789],[4.903122771676432,43.439586984514],[4.899995520301496,43.438774556213225],[4.898651953498564,43.43737384519456],[4.898548681461937,43.436169270125085],[4.899795539174394,43.43410730790392],[4.900070440839228,43.431380315324375],[4.899035001793069,43.4289396305185],[4.897770143678937,43.42833368511298],[4.894376509712109,43.42839308706492],[4.893473170068105,43.429083815587646],[4.8925106424669815,43.42797574575388],[4.889388618422786,43.42690535775489],[4.8889356590822555,43.4269606081633],[4.888588866403119,43.42803370568673],[4.889654848169122,43.43076991362714],[4.888863684089364,43.433100805691545],[4.886972495856848,43.43476190859777],[4.883043150257924,43.43630889577334],[4.88189717547851,43.43924277014589],[4.879533593809859,43.44112513016888],[4.878958780031085,43.44263424894769],[4.879806846651392,43.444287888995525],[4.881670011301592,43.44516940772419]]]}},{"type":"Feature","properties":{"category":"historical_support","snapshot_index":6,"pass_time_utc":"2026-09-28T00:56:00+00:00","dt_local":"2026-09-28T02:56:00+02:00","area_km2":5.5,"label":"Isoline temporelle","coherence_level":"indisponible","coherence_fraction":0.0,"projection_displayed":false,"model_version":"fire_progression_arrival_v1"},"geometry":{"type":"MultiPolygon","coordinates":[[[[4.904055422001228,43.422373951020056],[4.891716202674224,43.422590163623475],[4.891790123134112,43.424838644557475],[4.897959985284022,43.42473070953633],[4.89803415243674,43.426979189761255],[4.90420423232089,43.426870898961646],[4.904055422001228,43.422373951020056]]],[[[4.904278646202007,43.42911937845956],[4.8919379813829655,43.42933561748408],[4.891864049370134,43.42708712917876],[4.888778989166915,43.42714096711857],[4.888705183390258,43.424892480304464],[4.885620237879671,43.42494622820875],[4.885693923196287,43.4271947172121],[4.882608851467656,43.427248379459066],[4.882755998425941,43.43174537288675],[4.87967067999772,43.43179895165136],[4.879744141611852,43.434047456065855],[4.876658696952813,43.43410094915503],[4.8769521187730955,43.443095012242175],[4.880038045487296,43.44304151043692],[4.880111535814252,43.44529003319156],[4.886283613074114,43.44518276159574],[4.886357350237082,43.447431283639155],[4.88944350077131,43.44737751383828],[4.889517364252473,43.44962603734628],[4.9049486328933405,43.449355859165216],[4.904799706230783,43.44485883781244],[4.907885701442238,43.44480454295604],[4.907289263546038,43.426816621794195],[4.90420423232089,43.426870898961646],[4.904278646202007,43.42911937845956]]]]}},{"type":"Feature","properties":{"category":"observed_front","snapshot_index":6,"pass_time_utc":"2026-09-28T00:56:00+00:00","dt_local":"2026-09-28T02:56:00+02:00","area_km2":4.25,"label":"Activité observée","coherence_level":"indisponible","coherence_fraction":0.0,"projection_displayed":false,"model_version":"fire_progression_arrival_v1"},"geometry":{"type":"MultiPolygon","coordinates":[[[[4.897885823926238,43.42248223299852],[4.891716202674224,43.422590163623475],[4.891790123134112,43.424838644557475],[4.897959985284022,43.42473070953633],[4.897885823926238,43.42248223299852]]],[[[4.901044907671274,43.424676610262686],[4.897959985284022,43.42473070953633],[4.89803415243674,43.426979189761255],[4.901119195281322,43.42692508828407],[4.901044907671274,43.424676610262686]]],[[[4.898701917695376,43.447215677165765],[4.904874166651784,43.44710734666176],[4.904799706230783,43.44485883781244],[4.907885701442238,43.44480454295604],[4.907512884059691,43.43356206469318],[4.904427491410221,43.433616348493295],[4.904278646202007,43.42911937845956],[4.8919379813829655,43.42933561748408],[4.891864049370134,43.42708712917876],[4.888778989166915,43.42714096711857],[4.888705183390258,43.424892480304464],[4.885620237879671,43.42494622820875],[4.885693923196287,43.4271947172121],[4.882608851467656,43.427248379459066],[4.882755998425941,43.43174537288675],[4.87967067999772,43.43179895165136],[4.879817608967203,43.43629596415494],[4.882903168384029,43.436242381025494],[4.883050361347311,43.440739403849115],[4.886136156037724,43.4406857284862],[4.886283613074114,43.44518276159574],[4.889369643063641,43.44512899398494],[4.88944350077131,43.44737751383828],[4.892529645532043,43.447323656158915],[4.892603629566643,43.44957217747316],[4.898776142834814,43.4494641940818],[4.898701917695376,43.447215677165765]]]]}},{"type":"Feature","properties":{"category":"historical_support","snapshot_index":7,"pass_time_utc":"2026-09-28T01:34:00+00:00","dt_local":"2026-09-28T03:34:00+02:00","area_km2":5.5,"label":"Isoline temporelle","coherence_level":"faible","coherence_fraction":1.0,"projection_displayed":false,"model_version":"fire_progression_arrival_v1"},"geometry":{"type":"MultiPolygon","coordinates":[[[[4.904055422001228,43.422373951020056],[4.891716202674224,43.422590163623475],[4.891790123134112,43.424838644557475],[4.897959985284022,43.42473070953633],[4.89803415243674,43.426979189761255],[4.90420423232089,43.426870898961646],[4.904055422001228,43.422373951020056]]],[[[4.904278646202007,43.42911937845956],[4.8919379813829655,43.42933561748408],[4.891864049370134,43.42708712917876],[4.888778989166915,43.42714096711857],[4.888705183390258,43.424892480304464],[4.885620237879671,43.42494622820875],[4.885693923196287,43.4271947172121],[4.882608851467656,43.427248379459066],[4.882755998425941,43.43174537288675],[4.87967067999772,43.43179895165136],[4.879744141611852,43.434047456065855],[4.876658696952813,43.43410094915503],[4.8769521187730955,43.443095012242175],[4.880038045487296,43.44304151043692],[4.880111535814252,43.44529003319156],[4.886283613074114,43.44518276159574],[4.886357350237082,43.447431283639155],[4.88944350077131,43.44737751383828],[4.889517364252473,43.44962603734628],[4.9049486328933405,43.449355859165216],[4.904799706230783,43.44485883781244],[4.907885701442238,43.44480454295604],[4.907289263546038,43.426816621794195],[4.90420423232089,43.426870898961646],[4.904278646202007,43.42911937845956]]]]}},{"type":"Feature","properties":{"category":"observed_front","snapshot_index":7,"pass_time_utc":"2026-09-28T01:34:00+00:00","dt_local":"2026-09-28T03:34:00+02:00","area_km2":4.188,"label":"Activité observée","coherence_level":"faible","coherence_fraction":1.0,"projection_displayed":false,"model_version":"fire_progression_arrival_v1"},"geometry":{"type":"Polygon","coordinates":[[[4.889517364252473,43.44962603734628],[4.88944350077131,43.44737751383828],[4.886357350237082,43.447431283639155],[4.886283613074114,43.44518276159574],[4.88319757732118,43.44523644133135],[4.882976761989683,43.43849089060333],[4.879891082064445,43.438544475915315],[4.87967067999772,43.43179895165136],[4.882755998425941,43.43174537288675],[4.882682422072161,43.4294968743324],[4.88576761427091,43.42944320989968],[4.885693923196287,43.4271947172121],[4.891864049370134,43.42708712917876],[4.8919379813829655,43.42933561748408],[4.9011934886963875,43.429173569989224],[4.9013420929442875,43.43367054443766],[4.904427491410221,43.433616348493295],[4.904501922738681,43.43586483902256],[4.907587435881733,43.43581055301138],[4.907885701442238,43.44480454295604],[4.904799706230783,43.44485883781244],[4.9049486328933405,43.449355859165216],[4.889517364252473,43.44962603734628]]]}},{"type":"Feature","properties":{"category":"historical_support","snapshot_index":8,"pass_time_utc":"2026-09-28T01:52:00+00:00","dt_local":"2026-09-28T03:52:00+02:00","area_km2":5.5,"label":"Isoline temporelle","coherence_level":"indisponible","coherence_fraction":0.0,"projection_displayed":false,"model_version":"fire_progression_arrival_v1"},"geometry":{"type":"MultiPolygon","coordinates":[[[[4.904055422001228,43.422373951020056],[4.891716202674224,43.422590163623475],[4.891790123134112,43.424838644557475],[4.897959985284022,43.42473070953633],[4.89803415243674,43.426979189761255],[4.90420423232089,43.426870898961646],[4.904055422001228,43.422373951020056]]],[[[4.904278646202007,43.42911937845956],[4.8919379813829655,43.42933561748408],[4.891864049370134,43.42708712917876],[4.888778989166915,43.42714096711857],[4.888705183390258,43.424892480304464],[4.885620237879671,43.42494622820875],[4.885693923196287,43.4271947172121],[4.882608851467656,43.427248379459066],[4.882755998425941,43.43174537288675],[4.87967067999772,43.43179895165136],[4.879744141611852,43.434047456065855],[4.876658696952813,43.43410094915503],[4.8769521187730955,43.443095012242175],[4.880038045487296,43.44304151043692],[4.880111535814252,43.44529003319156],[4.886283613074114,43.44518276159574],[4.886357350237082,43.447431283639155],[4.88944350077131,43.44737751383828],[4.889517364252473,43.44962603734628],[4.9049486328933405,43.449355859165216],[4.904799706230783,43.44485883781244],[4.907885701442238,43.44480454295604],[4.907289263546038,43.426816621794195],[4.90420423232089,43.426870898961646],[4.904278646202007,43.42911937845956]]]]}},{"type":"Feature","properties":{"category":"observed_front","snapshot_index":8,"pass_time_utc":"2026-09-28T01:52:00+00:00","dt_local":"2026-09-28T03:52:00+02:00","area_km2":4.125,"label":"Activité observée","coherence_level":"indisponible","coherence_fraction":0.0,"projection_displayed":false,"model_version":"fire_progression_arrival_v1"},"geometry":{"type":"Polygon","coordinates":[[[4.889517364252473,43.44962603734628],[4.88944350077131,43.44737751383828],[4.886357350237082,43.447431283639155],[4.886283613074114,43.44518276159574],[4.88319757732118,43.44523644133135],[4.8831239664575845,43.442987920759535],[4.880038045487296,43.44304151043692],[4.87967067999772,43.43179895165136],[4.882755998425941,43.43174537288675],[4.882608851467656,43.427248379459066],[4.885693923196287,43.4271947172121],[4.885620237879671,43.42494622820875],[4.888705183390258,43.424892480304464],[4.888778989166915,43.42714096711857],[4.891864049370134,43.42708712917876],[4.8919379813829655,43.42933561748408],[4.9011934886963875,43.429173569989224],[4.9013420929442875,43.43367054443766],[4.904427491410221,43.433616348493295],[4.904874166651784,43.44710734666176],[4.901788045079151,43.44716155585249],[4.901862390769989,43.44941007056401],[4.889517364252473,43.44962603734628]]]}},{"type":"Feature","properties":{"category":"firms_extent_snapshot","snapshot_index":9,"pass_time_utc":"2026-09-28T02:36:00+00:00","dt_local":"2026-09-28T04:36:00+02:00","label":"Emprise FIRMS cumulée à ce passage","interpretation":"Enveloppe des détections FIRMS, pas une surface brûlée","cumulative":true,"point_count":49,"extent_method":"cumulative_detection_extent_smoothed_landmasked_web_v1","local_cluster_link_m":10000.0,"model_version":"fire_progression_arrival_v1"},"geometry":{"type":"Polygon","coordinates":[[[4.878639570283429,43.44130329791223],[4.879143727023782,43.44341434531142],[4.880051678752767,43.44448338801518],[4.882309707915965,43.44525474174379],[4.886096594476757,43.44464654963969],[4.888175097196169,43.44510637072209],[4.889542483328777,43.446336147829065],[4.8902673096467915,43.44910829246592],[4.8924279728077265,43.450363474248185],[4.897009974080521,43.45138581626547],[4.899393459728938,43.451067854393656],[4.9041678509763456,43.447350625512186],[4.905935857527471,43.44506338646267],[4.9060027475807395,43.443700072323615],[4.904459822505981,43.440463539061064],[4.903122771676432,43.439586984514],[4.900004909646899,43.438670379807725],[4.8987572094491245,43.43700041082725],[4.900246456009952,43.432559919836415],[4.90216604715921,43.430310323311225],[4.901847681594232,43.43028698072356],[4.897770143678937,43.42833368511298],[4.894376509712109,43.42839308706492],[4.893473170068105,43.429083815587646],[4.8925106424669815,43.42797574575388],[4.889388618422786,43.42690535775489],[4.887236456901939,43.42716785314613],[4.886917474401829,43.42529596851603],[4.886449317908536,43.425252470926324],[4.884221065088161,43.42606859559013],[4.8833334350058255,43.4272087725291],[4.883306385118966,43.428572798536216],[4.884095672324174,43.42969064397944],[4.88712785875545,43.431690845396176],[4.887464245398804,43.43289597554962],[4.887032013820409,43.434084764815054],[4.8857187174573085,43.4351088845543],[4.883607032792289,43.435752103192996],[4.87970757721185,43.435403182745844],[4.8779645352734216,43.43572587251115],[4.876554946026436,43.43670233913111],[4.876019064284653,43.4381641483296],[4.8765363992400275,43.43947520684726],[4.878639570283429,43.44130329791223]]]}},{"type":"Feature","properties":{"category":"historical_support","snapshot_index":9,"pass_time_utc":"2026-09-28T02:36:00+00:00","dt_local":"2026-09-28T04:36:00+02:00","area_km2":5.5,"label":"Isoline temporelle","coherence_level":"indisponible","coherence_fraction":0.0,"projection_displayed":false,"model_version":"fire_progression_arrival_v1"},"geometry":{"type":"MultiPolygon","coordinates":[[[[4.904055422001228,43.422373951020056],[4.891716202674224,43.422590163623475],[4.891790123134112,43.424838644557475],[4.897959985284022,43.42473070953633],[4.89803415243674,43.426979189761255],[4.90420423232089,43.426870898961646],[4.904055422001228,43.422373951020056]]],[[[4.904278646202007,43.42911937845956],[4.8919379813829655,43.42933561748408],[4.891864049370134,43.42708712917876],[4.888778989166915,43.42714096711857],[4.888705183390258,43.424892480304464],[4.885620237879671,43.42494622820875],[4.885693923196287,43.4271947172121],[4.882608851467656,43.427248379459066],[4.882755998425941,43.43174537288675],[4.87967067999772,43.43179895165136],[4.879744141611852,43.434047456065855],[4.876658696952813,43.43410094915503],[4.8769521187730955,43.443095012242175],[4.880038045487296,43.44304151043692],[4.880111535814252,43.44529003319156],[4.886283613074114,43.44518276159574],[4.886357350237082,43.447431283639155],[4.88944350077131,43.44737751383828],[4.889517364252473,43.44962603734628],[4.9049486328933405,43.449355859165216],[4.904799706230783,43.44485883781244],[4.907885701442238,43.44480454295604],[4.907289263546038,43.426816621794195],[4.90420423232089,43.426870898961646],[4.904278646202007,43.42911937845956]]]]}},{"type":"Feature","properties":{"category":"observed_front","snapshot_index":9,"pass_time_utc":"2026-09-28T02:36:00+00:00","dt_local":"2026-09-28T04:36:00+02:00","area_km2":4.188,"label":"Activité observée","coherence_level":"indisponible","coherence_fraction":0.0,"projection_displayed":false,"model_version":"fire_progression_arrival_v1"},"geometry":{"type":"MultiPolygon","coordinates":[[[[4.904055422001228,43.422373951020056],[4.891716202674224,43.422590163623475],[4.891790123134112,43.424838644557475],[4.897959985284022,43.42473070953633],[4.89803415243674,43.426979189761255],[4.90420423232089,43.426870898961646],[4.904055422001228,43.422373951020056]]],[[[4.904278646202007,43.42911937845956],[4.8919379813829655,43.42933561748408],[4.891864049370134,43.42708712917876],[4.888778989166915,43.42714096711857],[4.888705183390258,43.424892480304464],[4.885620237879671,43.42494622820875],[4.885693923196287,43.4271947172121],[4.882608851467656,43.427248379459066],[4.882903168384029,43.436242381025494],[4.885988722049557,43.43618871003495],[4.886136156037724,43.4406857284862],[4.8892219449660805,43.44063196525529],[4.889369643063641,43.44512899398494],[4.892455667280349,43.445075138499234],[4.892603629566643,43.44957217747316],[4.901862390769989,43.44941007056401],[4.901788045079151,43.44716155585249],[4.904874166651784,43.44710734666176],[4.904725251629654,43.44261033262059],[4.907811126309895,43.44255603997564],[4.907289263546038,43.426816621794195],[4.90420423232089,43.426870898961646],[4.904278646202007,43.42911937845956]]]]}},{"type":"Feature","properties":{"category":"firms_extent_snapshot","snapshot_index":10,"pass_time_utc":"2026-09-28T12:19:00+00:00","dt_local":"2026-09-28T14:19:00+02:00","label":"Emprise FIRMS cumulée à ce passage","interpretation":"Enveloppe des détections FIRMS, pas une surface brûlée","cumulative":true,"point_count":50,"extent_method":"cumulative_detection_extent_smoothed_landmasked_web_v1","local_cluster_link_m":10000.0,"model_version":"fire_progression_arrival_v1"},"geometry":{"type":"Polygon","coordinates":[[[4.878639570283429,43.44130329791223],[4.879143727023782,43.44341434531142],[4.880051678752767,43.44448338801518],[4.882309707915965,43.44525474174379],[4.886096594476757,43.44464654963969],[4.888175097196169,43.44510637072209],[4.889542483328777,43.446336147829065],[4.8902673096467915,43.44910829246592],[4.8924279728077265,43.450363474248185],[4.897009974080521,43.45138581626547],[4.899393459728938,43.451067854393656],[4.9041678509763456,43.447350625512186],[4.905935857527471,43.44506338646267],[4.9060027475807395,43.443700072323615],[4.904459822505981,43.440463539061064],[4.903122771676432,43.439586984514],[4.900004909646899,43.438670379807725],[4.8987572094491245,43.43700041082725],[4.900246456009952,43.432559919836415],[4.90216604715921,43.430310323311225],[4.901847681594232,43.43028698072356],[4.897770143678937,43.42833368511298],[4.894376509712109,43.42839308706492],[4.893473170068105,43.429083815587646],[4.8925106424669815,43.42797574575388],[4.889388618422786,43.42690535775489],[4.887236456901939,43.42716785314613],[4.886917474401829,43.42529596851603],[4.886449317908536,43.425252470926324],[4.884221065088161,43.42606859559013],[4.8833334350058255,43.4272087725291],[4.883306385118966,43.428572798536216],[4.884095672324174,43.42969064397944],[4.88712785875545,43.431690845396176],[4.887464245398804,43.43289597554962],[4.887032013820409,43.434084764815054],[4.8857187174573085,43.4351088845543],[4.883607032792289,43.435752103192996],[4.87970757721185,43.435403182745844],[4.8779645352734216,43.43572587251115],[4.876554946026436,43.43670233913111],[4.876019064284653,43.4381641483296],[4.8765363992400275,43.43947520684726],[4.878639570283429,43.44130329791223]]]}},{"type":"Feature","properties":{"category":"historical_support","snapshot_index":10,"pass_time_utc":"2026-09-28T12:19:00+00:00","dt_local":"2026-09-28T14:19:00+02:00","area_km2":5.5,"label":"Isoline temporelle","coherence_level":"indisponible","coherence_fraction":0.0,"projection_displayed":false,"model_version":"fire_progression_arrival_v1"},"geometry":{"type":"MultiPolygon","coordinates":[[[[4.904055422001228,43.422373951020056],[4.891716202674224,43.422590163623475],[4.891790123134112,43.424838644557475],[4.897959985284022,43.42473070953633],[4.89803415243674,43.426979189761255],[4.90420423232089,43.426870898961646],[4.904055422001228,43.422373951020056]]],[[[4.904278646202007,43.42911937845956],[4.8919379813829655,43.42933561748408],[4.891864049370134,43.42708712917876],[4.888778989166915,43.42714096711857],[4.888705183390258,43.424892480304464],[4.885620237879671,43.42494622820875],[4.885693923196287,43.4271947172121],[4.882608851467656,43.427248379459066],[4.882755998425941,43.43174537288675],[4.87967067999772,43.43179895165136],[4.879744141611852,43.434047456065855],[4.876658696952813,43.43410094915503],[4.8769521187730955,43.443095012242175],[4.880038045487296,43.44304151043692],[4.880111535814252,43.44529003319156],[4.886283613074114,43.44518276159574],[4.886357350237082,43.447431283639155],[4.88944350077131,43.44737751383828],[4.889517364252473,43.44962603734628],[4.9049486328933405,43.449355859165216],[4.904799706230783,43.44485883781244],[4.907885701442238,43.44480454295604],[4.907289263546038,43.426816621794195],[4.90420423232089,43.426870898961646],[4.904278646202007,43.42911937845956]]]]}},{"type":"Feature","properties":{"category":"observed_front","snapshot_index":10,"pass_time_utc":"2026-09-28T12:19:00+00:00","dt_local":"2026-09-28T14:19:00+02:00","area_km2":1.25,"label":"Activité observée","coherence_level":"indisponible","coherence_fraction":0.0,"projection_displayed":false,"model_version":"fire_progression_arrival_v1"},"geometry":{"type":"Polygon","coordinates":[[[4.895689889097228,43.44951822971824],[4.895615784509868,43.447269710601326],[4.892529645532043,43.447323656158915],[4.892307728122972,43.440578114156615],[4.8953935054989905,43.44052417519044],[4.895319424076835,43.43827567071101],[4.904576359884285,43.438113333222375],[4.9046508028477165,43.440361831089476],[4.907736557006153,43.44030754065588],[4.907885701442238,43.44480454295604],[4.904799706230783,43.44485883781244],[4.9049486328933405,43.449355859165216],[4.895689889097228,43.44951822971824]]]}},{"type":"Feature","properties":{"category":"firms_extent_snapshot","snapshot_index":11,"pass_time_utc":"2026-09-29T00:37:00+00:00","dt_local":"2026-09-29T02:37:00+02:00","label":"Emprise FIRMS cumulée à ce passage","interpretation":"Enveloppe des détections FIRMS, pas une surface brûlée","cumulative":true,"point_count":52,"extent_method":"cumulative_detection_extent_smoothed_landmasked_web_v1","local_cluster_link_m":10000.0,"model_version":"fire_progression_arrival_v1"},"geometry":{"type":"MultiPolygon","coordinates":[[[[4.878484918472303,43.44720615456475],[4.881050136102249,43.447233557655316],[4.884362726850904,43.44517540065335],[4.886935709936661,43.444934923892816],[4.88922891734322,43.446128667963244],[4.890104133804003,43.44887175311374],[4.891507273301554,43.4500582835948],[4.8972203663153815,43.45140480199266],[4.899987128410703,43.45076355859846],[4.904335112263814,43.44718009806748],[4.906085981683014,43.44443451053366],[4.9044177937758,43.44041766319895],[4.90305602887513,43.439560961349564],[4.900193446701504,43.438781369383705],[4.898798526469696,43.437174441795825],[4.898780838073182,43.43582672870767],[4.900246456009952,43.432559919836415],[4.902079920800168,43.43029590613272],[4.901847681594232,43.43028698072356],[4.897770143678937,43.42833368511298],[4.894376509712109,43.42839308706492],[4.893473170068105,43.429083815587646],[4.8925106424669815,43.42797574575388],[4.889388618422786,43.42690535775489],[4.887236456901939,43.42716785314613],[4.886917474401829,43.42529596851603],[4.886449317908536,43.425252470926324],[4.884484295309688,43.42588618389833],[4.883355454040056,43.42715600050775],[4.883306385118966,43.428572798536216],[4.884146460162947,43.42973153887889],[4.887019174550844,43.431532319684315],[4.887231636570338,43.433761781206904],[4.8861137109768995,43.434902423040604],[4.883847788274753,43.435698652515676],[4.879269572355139,43.435422420991515],[4.876989948647194,43.436279245280126],[4.876024491655152,43.437954590961375],[4.876129728265134,43.43839408511149],[4.876180925468279,43.43838381070537],[4.876189385839929,43.43864322695679],[4.876744699380803,43.44096222336863],[4.875438708560746,43.443684128774436],[4.87663603696458,43.44606521643493],[4.878484918472303,43.44720615456475]],[[4.876019006592602,43.4428861932913],[4.877877897389907,43.44307897092718],[4.875732410337654,43.443566093228135],[4.876019006592602,43.4428861932913]]],[[[4.898763981954203,43.42684981603329],[4.898959665899082,43.426962968541865],[4.899850764517104,43.427028329166724],[4.899638952712541,43.426930467151855],[4.898763981954203,43.42684981603329]]]]}},{"type":"Feature","properties":{"category":"historical_support","snapshot_index":11,"pass_time_utc":"2026-09-29T00:37:00+00:00","dt_local":"2026-09-29T02:37:00+02:00","area_km2":6.812,"label":"Isoline temporelle","coherence_level":"indisponible","coherence_fraction":0.0,"projection_displayed":false,"model_version":"fire_progression_arrival_v1"},"geometry":{"type":"MultiPolygon","coordinates":[[[[4.904055422001228,43.422373951020056],[4.891716202674224,43.422590163623475],[4.891790123134112,43.424838644557475],[4.897959985284022,43.42473070953633],[4.89803415243674,43.426979189761255],[4.90420423232089,43.426870898961646],[4.904055422001228,43.422373951020056]]],[[[4.904278646202007,43.42911937845956],[4.8919379813829655,43.42933561748408],[4.891864049370134,43.42708712917876],[4.888778989166915,43.42714096711857],[4.888705183390258,43.424892480304464],[4.885620237879671,43.42494622820875],[4.885693923196287,43.4271947172121],[4.882608851467656,43.427248379459066],[4.882755998425941,43.43174537288675],[4.87967067999772,43.43179895165136],[4.879744141611852,43.434047456065855],[4.873573246561961,43.43415435438616],[4.873646472917283,43.43640286682943],[4.870560896303003,43.43645618637397],[4.870634007870974,43.438704704660566],[4.867548305031927,43.43875793851121],[4.867767312434807,43.445503521873],[4.870853376863604,43.44545028151705],[4.870926511292954,43.447698814457205],[4.874012690553469,43.44764548405262],[4.874085951257319,43.4498940184757],[4.883344816311033,43.44973349344603],[4.883271193938771,43.44748496556128],[4.88944350077131,43.44737751383828],[4.889517364252473,43.44962603734628],[4.9049486328933405,43.449355859165216],[4.904799706230783,43.44485883781244],[4.907885701442238,43.44480454295604],[4.907289263546038,43.426816621794195],[4.90420423232089,43.426870898961646],[4.904278646202007,43.42911937845956]]]]}},{"type":"Feature","properties":{"category":"observed_front","snapshot_index":11,"pass_time_utc":"2026-09-29T00:37:00+00:00","dt_local":"2026-09-29T02:37:00+02:00","area_km2":2.312,"label":"Activité observée","coherence_level":"indisponible","coherence_fraction":0.0,"projection_displayed":false,"model_version":"fire_progression_arrival_v1"},"geometry":{"type":"Polygon","coordinates":[[[4.874085951257319,43.4498940184757],[4.874012690553469,43.44764548405262],[4.870926511292954,43.447698814457205],[4.870853376863604,43.44545028151705],[4.867767312434807,43.445503521873],[4.867548305031927,43.43875793851121],[4.870634007870974,43.438704704660566],[4.870560896303003,43.43645618637397],[4.873646472917283,43.43640286682943],[4.873573246561961,43.43415435438616],[4.882829580529673,43.43399387511887],[4.882903168384029,43.436242381025494],[4.885988722049557,43.43618871003495],[4.88606243616295,43.438437217426646],[4.8891481045748355,43.43838345638554],[4.889369643063641,43.44512899398494],[4.886283613074114,43.44518276159574],[4.886357350237082,43.447431283639155],[4.883271193938771,43.44748496556128],[4.883344816311033,43.44973349344603],[4.874085951257319,43.4498940184757]]]}},{"type":"Feature","properties":{"category":"firms_extent_snapshot","snapshot_index":12,"pass_time_utc":"2026-09-29T01:34:00+00:00","dt_local":"2026-09-29T03:34:00+02:00","label":"Emprise FIRMS cumulée à ce passage","interpretation":"Enveloppe des détections FIRMS, pas une surface brûlée","cumulative":true,"point_count":53,"extent_method":"cumulative_detection_extent_smoothed_landmasked_web_v1","local_cluster_link_m":10000.0,"model_version":"fire_progression_arrival_v1"},"geometry":{"type":"MultiPolygon","coordinates":[[[[4.878221263178947,43.447122311677326],[4.880978836352702,43.44725210266826],[4.884362726850904,43.44517540065335],[4.886935709936661,43.444934923892816],[4.88922891734322,43.446128667963244],[4.890104133804003,43.44887175311374],[4.891507273301554,43.4500582835948],[4.897009974080521,43.45138581626547],[4.899761388519948,43.450893494096434],[4.9042129756277495,43.44730633544574],[4.906082236512033,43.44448960191176],[4.9044177937758,43.44041766319895],[4.90305602887513,43.439560961349564],[4.900193446701504,43.438781369383705],[4.898798526469696,43.437174441795825],[4.898780838073182,43.43582672870767],[4.900246456009952,43.432559919836415],[4.902079920800168,43.43029590613272],[4.901847681594232,43.43028698072356],[4.897770143678937,43.42833368511298],[4.894376509712109,43.42839308706492],[4.893473170068105,43.429083815587646],[4.8925106424669815,43.42797574575388],[4.889388618422786,43.42690535775489],[4.887236456901939,43.42716785314613],[4.886917474401829,43.42529596851603],[4.886449317908536,43.425252470926324],[4.884709971599524,43.42575628261069],[4.883447610873703,43.42695746124883],[4.883288046718831,43.42851928401059],[4.884095672324174,43.42969064397944],[4.887019174550844,43.431532319684315],[4.887463352645862,43.43271876465341],[4.887139104486268,43.43392566227279],[4.885920867633293,43.435010381448954],[4.883607032792289,43.435752103192996],[4.879344904689546,43.435417055332586],[4.877248000099376,43.43609301926614],[4.876174924160719,43.437325759795925],[4.8761163862360535,43.43840393134255],[4.876180925468279,43.43838381070537],[4.876103934418508,43.43863326807782],[4.8760382835215825,43.439842392254604],[4.874428771767092,43.44268409423303],[4.87663603696458,43.44606521643493],[4.878221263178947,43.447122311677326]],[[4.876019006592602,43.4428861932913],[4.877877897389907,43.44307897092718],[4.875732410337654,43.443566093228135],[4.876019006592602,43.4428861932913]]],[[[4.8988208915784215,43.42688272360099],[4.898959665899082,43.426962968541865],[4.899992645586409,43.42703873522107],[4.899912545821086,43.42699502255169],[4.8988208915784215,43.42688272360099]]]]}},{"type":"Feature","properties":{"category":"historical_support","snapshot_index":12,"pass_time_utc":"2026-09-29T01:34:00+00:00","dt_local":"2026-09-29T03:34:00+02:00","area_km2":6.812,"label":"Isoline temporelle","coherence_level":"indisponible","coherence_fraction":0.0,"projection_displayed":false,"model_version":"fire_progression_arrival_v1"},"geometry":{"type":"MultiPolygon","coordinates":[[[[4.904055422001228,43.422373951020056],[4.891716202674224,43.422590163623475],[4.891790123134112,43.424838644557475],[4.897959985284022,43.42473070953633],[4.89803415243674,43.426979189761255],[4.90420423232089,43.426870898961646],[4.904055422001228,43.422373951020056]]],[[[4.904278646202007,43.42911937845956],[4.8919379813829655,43.42933561748408],[4.891864049370134,43.42708712917876],[4.888778989166915,43.42714096711857],[4.888705183390258,43.424892480304464],[4.885620237879671,43.42494622820875],[4.885693923196287,43.4271947172121],[4.882608851467656,43.427248379459066],[4.882755998425941,43.43174537288675],[4.87967067999772,43.43179895165136],[4.879744141611852,43.434047456065855],[4.873573246561961,43.43415435438616],[4.873646472917283,43.43640286682943],[4.870560896303003,43.43645618637397],[4.870634007870974,43.438704704660566],[4.867548305031927,43.43875793851121],[4.867767312434807,43.445503521873],[4.870853376863604,43.44545028151705],[4.870926511292954,43.447698814457205],[4.874012690553469,43.44764548405262],[4.874085951257319,43.4498940184757],[4.883344816311033,43.44973349344603],[4.883271193938771,43.44748496556128],[4.88944350077131,43.44737751383828],[4.889517364252473,43.44962603734628],[4.9049486328933405,43.449355859165216],[4.904799706230783,43.44485883781244],[4.907885701442238,43.44480454295604],[4.907289263546038,43.426816621794195],[4.90420423232089,43.426870898961646],[4.904278646202007,43.42911937845956]]]]}},{"type":"Feature","properties":{"category":"observed_front","snapshot_index":12,"pass_time_utc":"2026-09-29T01:34:00+00:00","dt_local":"2026-09-29T03:34:00+02:00","area_km2":1.312,"label":"Activité observée","coherence_level":"indisponible","coherence_fraction":0.0,"projection_displayed":false,"model_version":"fire_progression_arrival_v1"},"geometry":{"type":"Polygon","coordinates":[[[4.873939435576052,43.445396953284664],[4.8738661863243955,43.44314842617509],[4.870780248150605,43.443201752235375],[4.870560896303003,43.43645618637397],[4.873646472917283,43.43640286682943],[4.873573246561961,43.43415435438616],[4.882829580529673,43.43399387511887],[4.882903168384029,43.436242381025494],[4.885988722049557,43.43618871003495],[4.886209881674553,43.44293424321033],[4.8831239664575845,43.442987920759535],[4.88319757732118,43.44523644133135],[4.873939435576052,43.445396953284664]]]}},{"type":"Feature","properties":{"category":"historical_support","snapshot_index":13,"pass_time_utc":"2026-09-29T12:02:00+00:00","dt_local":"2026-09-29T14:02:00+02:00","area_km2":6.812,"label":"Isoline temporelle","coherence_level":"indisponible","coherence_fraction":0.0,"projection_displayed":false,"model_version":"fire_progression_arrival_v1"},"geometry":{"type":"MultiPolygon","coordinates":[[[[4.904055422001228,43.422373951020056],[4.891716202674224,43.422590163623475],[4.891790123134112,43.424838644557475],[4.897959985284022,43.42473070953633],[4.89803415243674,43.426979189761255],[4.90420423232089,43.426870898961646],[4.904055422001228,43.422373951020056]]],[[[4.904278646202007,43.42911937845956],[4.8919379813829655,43.42933561748408],[4.891864049370134,43.42708712917876],[4.888778989166915,43.42714096711857],[4.888705183390258,43.424892480304464],[4.885620237879671,43.42494622820875],[4.885693923196287,43.4271947172121],[4.882608851467656,43.427248379459066],[4.882755998425941,43.43174537288675],[4.87967067999772,43.43179895165136],[4.879744141611852,43.434047456065855],[4.873573246561961,43.43415435438616],[4.873646472917283,43.43640286682943],[4.870560896303003,43.43645618637397],[4.870634007870974,43.438704704660566],[4.867548305031927,43.43875793851121],[4.867767312434807,43.445503521873],[4.870853376863604,43.44545028151705],[4.870926511292954,43.447698814457205],[4.874012690553469,43.44764548405262],[4.874085951257319,43.4498940184757],[4.883344816311033,43.44973349344603],[4.883271193938771,43.44748496556128],[4.88944350077131,43.44737751383828],[4.889517364252473,43.44962603734628],[4.9049486328933405,43.449355859165216],[4.904799706230783,43.44485883781244],[4.907885701442238,43.44480454295604],[4.907289263546038,43.426816621794195],[4.90420423232089,43.426870898961646],[4.904278646202007,43.42911937845956]]]]}},{"type":"Feature","properties":{"category":"observed_front","snapshot_index":13,"pass_time_utc":"2026-09-29T12:02:00+00:00","dt_local":"2026-09-29T14:02:00+02:00","area_km2":1.562,"label":"Activité observée","coherence_level":"indisponible","coherence_fraction":0.0,"projection_displayed":false,"model_version":"fire_progression_arrival_v1"},"geometry":{"type":"Polygon","coordinates":[[[4.874012690553469,43.44764548405262],[4.873646472917283,43.43640286682943],[4.8890742699543805,43.43613495118354],[4.88944350077131,43.44737751383828],[4.874012690553469,43.44764548405262]]]}},{"type":"Feature","properties":{"category":"firms_extent_snapshot","snapshot_index":14,"pass_time_utc":"2026-09-29T12:38:00+00:00","dt_local":"2026-09-29T14:38:00+02:00","label":"Emprise FIRMS cumulée à ce passage","interpretation":"Enveloppe des détections FIRMS, pas une surface brûlée","cumulative":true,"point_count":57,"extent_method":"cumulative_detection_extent_smoothed_landmasked_web_v1","local_cluster_link_m":10000.0,"model_version":"fire_progression_arrival_v1"},"geometry":{"type":"MultiPolygon","coordinates":[[[[4.878152849689734,43.447098690371696],[4.880978836352702,43.44725210266826],[4.884362726850904,43.44517540065335],[4.887168335762412,43.444980494301376],[4.88922891734322,43.446128667963244],[4.890075203704501,43.44882077994742],[4.891271095504031,43.449938603803034],[4.896403993152063,43.45185298513653],[4.8995113988829875,43.45141349997845],[4.904335112263814,43.44718009806748],[4.906082236512033,43.44448960191176],[4.9044177937758,43.44041766319895],[4.90305602887513,43.439560961349564],[4.900193446701504,43.438781369383705],[4.898798526469696,43.437174441795825],[4.898780838073182,43.43582672870767],[4.900246456009952,43.432559919836415],[4.902079920800168,43.43029590613272],[4.901847681594232,43.43028698072356],[4.897770143678937,43.42833368511298],[4.894376509712109,43.42839308706492],[4.893473170068105,43.429083815587646],[4.8925106424669815,43.42797574575388],[4.889388618422786,43.42690535775489],[4.887236456901939,43.42716785314613],[4.886917474401829,43.42529596851603],[4.886449317908536,43.425252470926324],[4.884709971599524,43.42575628261069],[4.883447610873703,43.42695746124883],[4.883288046718831,43.42851928401059],[4.884095672324174,43.42969064397944],[4.887019174550844,43.431532319684315],[4.887463352645862,43.43271876465341],[4.887139104486268,43.43392566227279],[4.885920867633293,43.435010381448954],[4.883607032792289,43.435752103192996],[4.879344904689546,43.435417055332586],[4.877248000099376,43.43609301926614],[4.876174924160719,43.437325759795925],[4.8761163862360535,43.43840393134255],[4.876180925468279,43.43838381070537],[4.876103934418508,43.43863326807782],[4.8760382835215825,43.439842392254604],[4.874428771767092,43.44268409423303],[4.87663603696458,43.44606521643493],[4.878152849689734,43.447098690371696]],[[4.876019006592602,43.4428861932913],[4.877877897389907,43.44307897092718],[4.875732410337654,43.443566093228135],[4.876019006592602,43.4428861932913]]],[[[4.8988208915784215,43.42688272360099],[4.898959665899082,43.426962968541865],[4.899992645586409,43.42703873522107],[4.899912545821086,43.42699502255169],[4.8988208915784215,43.42688272360099]]]]}},{"type":"Feature","properties":{"category":"historical_support","snapshot_index":14,"pass_time_utc":"2026-09-29T12:38:00+00:00","dt_local":"2026-09-29T14:38:00+02:00","area_km2":7.188,"label":"Isoline temporelle","coherence_level":"indisponible","coherence_fraction":0.0,"projection_displayed":false,"model_version":"fire_progression_arrival_v1"},"geometry":{"type":"MultiPolygon","coordinates":[[[[4.904055422001228,43.422373951020056],[4.891716202674224,43.422590163623475],[4.891790123134112,43.424838644557475],[4.897959985284022,43.42473070953633],[4.89803415243674,43.426979189761255],[4.90420423232089,43.426870898961646],[4.904055422001228,43.422373951020056]]],[[[4.904278646202007,43.42911937845956],[4.8919379813829655,43.42933561748408],[4.891864049370134,43.42708712917876],[4.888778989166915,43.42714096711857],[4.888705183390258,43.424892480304464],[4.885620237879671,43.42494622820875],[4.885693923196287,43.4271947172121],[4.882608851467656,43.427248379459066],[4.882755998425941,43.43174537288675],[4.87967067999772,43.43179895165136],[4.879744141611852,43.434047456065855],[4.873573246561961,43.43415435438616],[4.873646472917283,43.43640286682943],[4.870560896303003,43.43645618637397],[4.870634007870974,43.438704704660566],[4.867548305031927,43.43875793851121],[4.867767312434807,43.445503521873],[4.870853376863604,43.44545028151705],[4.870926511292954,43.447698814457205],[4.874012690553469,43.44764548405262],[4.874085951257319,43.4498940184757],[4.883344816311033,43.44973349344603],[4.883271193938771,43.44748496556128],[4.88944350077131,43.44737751383828],[4.889591233507809,43.45187456450564],[4.895763999477585,43.45176675248635],[4.895838115651619,43.45401527890235],[4.898924610521605,43.4539612388638],[4.898850373776663,43.45171271464889],[4.905023104956133,43.45160437531961],[4.904799706230783,43.44485883781244],[4.907885701442238,43.44480454295604],[4.907289263546038,43.426816621794195],[4.90420423232089,43.426870898961646],[4.904278646202007,43.42911937845956]]]]}},{"type":"Feature","properties":{"category":"observed_front","snapshot_index":14,"pass_time_utc":"2026-09-29T12:38:00+00:00","dt_local":"2026-09-29T14:38:00+02:00","area_km2":3.188,"label":"Activité observée","coherence_level":"indisponible","coherence_fraction":0.0,"projection_displayed":false,"model_version":"fire_progression_arrival_v1"},"geometry":{"type":"Polygon","coordinates":[[[4.895838115651619,43.45401527890235],[4.895763999477585,43.45176675248635],[4.889591233507809,43.45187456450564],[4.88944350077131,43.44737751383828],[4.883271193938771,43.44748496556128],[4.88319757732118,43.44523644133135],[4.880111535814252,43.44529003319156],[4.880038045487296,43.44304151043692],[4.8769521187730955,43.443095012242175],[4.876878754717954,43.44084649096985],[4.873792942797829,43.440899902727175],[4.873719704995682,43.438651382944194],[4.876805396396641,43.43859797336238],[4.8767320438084845,43.43634945942299],[4.882903168384029,43.436242381025494],[4.882976761989683,43.43849089060333],[4.8922337672159335,43.43832960748024],[4.892159812089091,43.43608110447152],[4.898330879010549,43.435973147466704],[4.8984050751481325,43.43822164607813],[4.904576359884285,43.438113333222375],[4.9046508028477165,43.440361831089476],[4.907736557006153,43.44030754065588],[4.907885701442238,43.44480454295604],[4.904799706230783,43.44485883781244],[4.905023104956133,43.45160437531961],[4.898850373776663,43.45171271464889],[4.898924610521605,43.4539612388638],[4.895838115651619,43.45401527890235]]]}},{"type":"Feature","properties":{"category":"historical_support","snapshot_index":15,"pass_time_utc":"2026-09-30T00:56:00+00:00","dt_local":"2026-09-30T02:56:00+02:00","area_km2":7.188,"label":"Isoline temporelle","coherence_level":"indisponible","coherence_fraction":0.0,"projection_displayed":false,"model_version":"fire_progression_arrival_v1"},"geometry":{"type":"MultiPolygon","coordinates":[[[[4.904055422001228,43.422373951020056],[4.891716202674224,43.422590163623475],[4.891790123134112,43.424838644557475],[4.897959985284022,43.42473070953633],[4.89803415243674,43.426979189761255],[4.90420423232089,43.426870898961646],[4.904055422001228,43.422373951020056]]],[[[4.904278646202007,43.42911937845956],[4.8919379813829655,43.42933561748408],[4.891864049370134,43.42708712917876],[4.888778989166915,43.42714096711857],[4.888705183390258,43.424892480304464],[4.885620237879671,43.42494622820875],[4.885693923196287,43.4271947172121],[4.882608851467656,43.427248379459066],[4.882755998425941,43.43174537288675],[4.87967067999772,43.43179895165136],[4.879744141611852,43.434047456065855],[4.873573246561961,43.43415435438616],[4.873646472917283,43.43640286682943],[4.870560896303003,43.43645618637397],[4.870634007870974,43.438704704660566],[4.867548305031927,43.43875793851121],[4.867767312434807,43.445503521873],[4.870853376863604,43.44545028151705],[4.870926511292954,43.447698814457205],[4.874012690553469,43.44764548405262],[4.874085951257319,43.4498940184757],[4.883344816311033,43.44973349344603],[4.883271193938771,43.44748496556128],[4.88944350077131,43.44737751383828],[4.889591233507809,43.45187456450564],[4.895763999477585,43.45176675248635],[4.895838115651619,43.45401527890235],[4.898924610521605,43.4539612388638],[4.898850373776663,43.45171271464889],[4.905023104956133,43.45160437531961],[4.904799706230783,43.44485883781244],[4.907885701442238,43.44480454295604],[4.907289263546038,43.426816621794195],[4.90420423232089,43.426870898961646],[4.904278646202007,43.42911937845956]]]]}},{"type":"Feature","properties":{"category":"observed_front","snapshot_index":15,"pass_time_utc":"2026-09-30T00:56:00+00:00","dt_local":"2026-09-30T02:56:00+02:00","area_km2":2.25,"label":"Activité observée","coherence_level":"indisponible","coherence_fraction":0.0,"projection_displayed":false,"model_version":"fire_progression_arrival_v1"},"geometry":{"type":"Polygon","coordinates":[[[4.892677619384828,43.451820702438695],[4.892603629566643,43.44957217747316],[4.889517364252473,43.44962603734628],[4.88944350077131,43.44737751383828],[4.886357350237082,43.447431283639155],[4.886136156037724,43.4406857284862],[4.8892219449660805,43.44063196525529],[4.8891481045748355,43.43838345638554],[4.8922337672159335,43.43832960748024],[4.892159812089091,43.43608110447152],[4.901416403778484,43.4359190371744],[4.901490720420418,43.438167533581826],[4.904576359884285,43.438113333222375],[4.9046508028477165,43.440361831089476],[4.907736557006153,43.44030754065588],[4.907885701442238,43.44480454295604],[4.904799706230783,43.44485883781244],[4.9049486328933405,43.449355859165216],[4.901862390769989,43.44941007056401],[4.901936742272651,43.45165858892656],[4.892677619384828,43.451820702438695]]]}},{"type":"Feature","properties":{"category":"firms_extent_snapshot","snapshot_index":16,"pass_time_utc":"2026-09-30T01:13:00+00:00","dt_local":"2026-09-30T03:13:00+02:00","label":"Emprise FIRMS cumulée à ce passage","interpretation":"Enveloppe des détections FIRMS, pas une surface brûlée","cumulative":true,"point_count":61,"extent_method":"cumulative_detection_extent_smoothed_landmasked_web_v1","local_cluster_link_m":10000.0,"model_version":"fire_progression_arrival_v1"},"geometry":{"type":"MultiPolygon","coordinates":[[[[4.878152849689734,43.447098690371696],[4.880978836352702,43.44725210266826],[4.884362726850904,43.44517540065335],[4.887168335762412,43.444980494301376],[4.88922891734322,43.446128667963244],[4.890075203704501,43.44882077994742],[4.891271095504031,43.449938603803034],[4.896403993152063,43.45185298513653],[4.8995113988829875,43.45141349997845],[4.904335112263814,43.44718009806748],[4.906082236512033,43.44448960191176],[4.9044177937758,43.44041766319895],[4.90305602887513,43.439560961349564],[4.900193446701504,43.438781369383705],[4.898798526469696,43.437174441795825],[4.898780838073182,43.43582672870767],[4.900246456009952,43.432559919836415],[4.902079920800168,43.43029590613272],[4.901847681594232,43.43028698072356],[4.897770143678937,43.42833368511298],[4.894376509712109,43.42839308706492],[4.893473170068105,43.429083815587646],[4.8925106424669815,43.42797574575388],[4.889388618422786,43.42690535775489],[4.887236456901939,43.42716785314613],[4.886917474401829,43.42529596851603],[4.886449317908536,43.425252470926324],[4.884709971599524,43.42575628261069],[4.883447610873703,43.42695746124883],[4.883288046718831,43.42851928401059],[4.884095672324174,43.42969064397944],[4.887019174550844,43.431532319684315],[4.887463352645862,43.43271876465341],[4.887139104486268,43.43392566227279],[4.885920867633293,43.435010381448954],[4.883607032792289,43.435752103192996],[4.879344904689546,43.435417055332586],[4.877248000099376,43.43609301926614],[4.876174924160719,43.437325759795925],[4.8761163862360535,43.43840393134255],[4.876180925468279,43.43838381070537],[4.876103934418508,43.43863326807782],[4.8760382835215825,43.439842392254604],[4.874428771767092,43.44268409423303],[4.87663603696458,43.44606521643493],[4.878152849689734,43.447098690371696]],[[4.876019006592602,43.4428861932913],[4.877877897389907,43.44307897092718],[4.875732410337654,43.443566093228135],[4.876019006592602,43.4428861932913]]],[[[4.8988208915784215,43.42688272360099],[4.898959665899082,43.426962968541865],[4.899992645586409,43.42703873522107],[4.899912545821086,43.42699502255169],[4.8988208915784215,43.42688272360099]]]]}},{"type":"Feature","properties":{"category":"historical_support","snapshot_index":16,"pass_time_utc":"2026-09-30T01:13:00+00:00","dt_local":"2026-09-30T03:13:00+02:00","area_km2":7.188,"label":"Isoline temporelle","coherence_level":"indisponible","coherence_fraction":0.0,"projection_displayed":false,"model_version":"fire_progression_arrival_v1"},"geometry":{"type":"MultiPolygon","coordinates":[[[[4.904055422001228,43.422373951020056],[4.891716202674224,43.422590163623475],[4.891790123134112,43.424838644557475],[4.897959985284022,43.42473070953633],[4.89803415243674,43.426979189761255],[4.90420423232089,43.426870898961646],[4.904055422001228,43.422373951020056]]],[[[4.904278646202007,43.42911937845956],[4.8919379813829655,43.42933561748408],[4.891864049370134,43.42708712917876],[4.888778989166915,43.42714096711857],[4.888705183390258,43.424892480304464],[4.885620237879671,43.42494622820875],[4.885693923196287,43.4271947172121],[4.882608851467656,43.427248379459066],[4.882755998425941,43.43174537288675],[4.87967067999772,43.43179895165136],[4.879744141611852,43.434047456065855],[4.873573246561961,43.43415435438616],[4.873646472917283,43.43640286682943],[4.870560896303003,43.43645618637397],[4.870634007870974,43.438704704660566],[4.867548305031927,43.43875793851121],[4.867767312434807,43.445503521873],[4.870853376863604,43.44545028151705],[4.870926511292954,43.447698814457205],[4.874012690553469,43.44764548405262],[4.874085951257319,43.4498940184757],[4.883344816311033,43.44973349344603],[4.883271193938771,43.44748496556128],[4.88944350077131,43.44737751383828],[4.889591233507809,43.45187456450564],[4.895763999477585,43.45176675248635],[4.895838115651619,43.45401527890235],[4.898924610521605,43.4539612388638],[4.898850373776663,43.45171271464889],[4.905023104956133,43.45160437531961],[4.904799706230783,43.44485883781244],[4.907885701442238,43.44480454295604],[4.907289263546038,43.426816621794195],[4.90420423232089,43.426870898961646],[4.904278646202007,43.42911937845956]]]]}},{"type":"Feature","properties":{"category":"observed_front","snapshot_index":16,"pass_time_utc":"2026-09-30T01:13:00+00:00","dt_local":"2026-09-30T03:13:00+02:00","area_km2":5.125,"label":"Activité observée","coherence_level":"indisponible","coherence_fraction":0.0,"projection_displayed":false,"model_version":"fire_progression_arrival_v1"},"geometry":{"type":"Polygon","coordinates":[[[4.880258533702588,43.449787089672185],[4.880185031885791,43.44753855960442],[4.870926511292954,43.447698814457205],[4.870560896303003,43.43645618637397],[4.873646472917283,43.43640286682943],[4.873573246561961,43.43415435438616],[4.879744141611852,43.434047456065855],[4.87967067999772,43.43179895165136],[4.882755998425941,43.43174537288675],[4.882682422072161,43.4294968743324],[4.898108325385072,43.42922767367002],[4.898182504129699,43.43147616125939],[4.901267787917149,43.43142205537484],[4.901416403778484,43.4359190371744],[4.904501922738681,43.43586483902256],[4.9049486328933405,43.449355859165216],[4.889517364252473,43.44962603734628],[4.88944350077131,43.44737751383828],[4.883271193938771,43.44748496556128],[4.883344816311033,43.44973349344603],[4.880258533702588,43.449787089672185]]]}},{"type":"Feature","properties":{"category":"historical_support","snapshot_index":17,"pass_time_utc":"2026-09-30T02:00:00+00:00","dt_local":"2026-09-30T04:00:00+02:00","area_km2":7.188,"label":"Isoline temporelle","coherence_level":"indisponible","coherence_fraction":0.0,"projection_displayed":false,"model_version":"fire_progression_arrival_v1"},"geometry":{"type":"MultiPolygon","coordinates":[[[[4.904055422001228,43.422373951020056],[4.891716202674224,43.422590163623475],[4.891790123134112,43.424838644557475],[4.897959985284022,43.42473070953633],[4.89803415243674,43.426979189761255],[4.90420423232089,43.426870898961646],[4.904055422001228,43.422373951020056]]],[[[4.904278646202007,43.42911937845956],[4.8919379813829655,43.42933561748408],[4.891864049370134,43.42708712917876],[4.888778989166915,43.42714096711857],[4.888705183390258,43.424892480304464],[4.885620237879671,43.42494622820875],[4.885693923196287,43.4271947172121],[4.882608851467656,43.427248379459066],[4.882755998425941,43.43174537288675],[4.87967067999772,43.43179895165136],[4.879744141611852,43.434047456065855],[4.873573246561961,43.43415435438616],[4.873646472917283,43.43640286682943],[4.870560896303003,43.43645618637397],[4.870634007870974,43.438704704660566],[4.867548305031927,43.43875793851121],[4.867767312434807,43.445503521873],[4.870853376863604,43.44545028151705],[4.870926511292954,43.447698814457205],[4.874012690553469,43.44764548405262],[4.874085951257319,43.4498940184757],[4.883344816311033,43.44973349344603],[4.883271193938771,43.44748496556128],[4.88944350077131,43.44737751383828],[4.889591233507809,43.45187456450564],[4.895763999477585,43.45176675248635],[4.895838115651619,43.45401527890235],[4.898924610521605,43.4539612388638],[4.898850373776663,43.45171271464889],[4.905023104956133,43.45160437531961],[4.904799706230783,43.44485883781244],[4.907885701442238,43.44480454295604],[4.907289263546038,43.426816621794195],[4.90420423232089,43.426870898961646],[4.904278646202007,43.42911937845956]]]]}},{"type":"Feature","properties":{"category":"observed_front","snapshot_index":17,"pass_time_utc":"2026-09-30T02:00:00+00:00","dt_local":"2026-09-30T04:00:00+02:00","area_km2":4.312,"label":"Activité observée","coherence_level":"indisponible","coherence_fraction":0.0,"projection_displayed":false,"model_version":"fire_progression_arrival_v1"},"geometry":{"type":"Polygon","coordinates":[[[4.889591233507809,43.45187456450564],[4.88944350077131,43.44737751383828],[4.883271193938771,43.44748496556128],[4.8831239664575845,43.442987920759535],[4.880038045487296,43.44304151043692],[4.879744141611852,43.434047456065855],[4.882829580529673,43.43399387511887],[4.882755998425941,43.43174537288675],[4.885841311104213,43.43169170626818],[4.88576761427091,43.42944320989968],[4.888852800710979,43.42938945761681],[4.888778989166915,43.42714096711857],[4.891864049370134,43.42708712917876],[4.8919379813829655,43.42933561748408],[4.898108325385072,43.42922767367002],[4.898182504129699,43.43147616125939],[4.901267787917149,43.43142205537484],[4.9013420929442875,43.43367054443766],[4.904427491410221,43.433616348493295],[4.904576359884285,43.438113333222375],[4.9076619935303265,43.438059045000024],[4.907885701442238,43.44480454295604],[4.904799706230783,43.44485883781244],[4.9049486328933405,43.449355859165216],[4.901862390769989,43.44941007056401],[4.901936742272651,43.45165858892656],[4.889591233507809,43.45187456450564]]]}},{"type":"Feature","properties":{"category":"historical_support","snapshot_index":18,"pass_time_utc":"2026-09-30T02:36:00+00:00","dt_local":"2026-09-30T04:36:00+02:00","area_km2":7.5,"label":"Isoline temporelle","coherence_level":"indisponible","coherence_fraction":0.0,"projection_displayed":false,"model_version":"fire_progression_arrival_v1"},"geometry":{"type":"MultiPolygon","coordinates":[[[[4.904055422001228,43.422373951020056],[4.891716202674224,43.422590163623475],[4.891790123134112,43.424838644557475],[4.897959985284022,43.42473070953633],[4.89803415243674,43.426979189761255],[4.90420423232089,43.426870898961646],[4.904055422001228,43.422373951020056]]],[[[4.904278646202007,43.42911937845956],[4.8919379813829655,43.42933561748408],[4.891864049370134,43.42708712917876],[4.888778989166915,43.42714096711857],[4.888705183390258,43.424892480304464],[4.885620237879671,43.42494622820875],[4.885693923196287,43.4271947172121],[4.882608851467656,43.427248379459066],[4.882755998425941,43.43174537288675],[4.87967067999772,43.43179895165136],[4.879744141611852,43.434047456065855],[4.873573246561961,43.43415435438616],[4.873646472917283,43.43640286682943],[4.870560896303003,43.43645618637397],[4.870634007870974,43.438704704660566],[4.867548305031927,43.43875793851121],[4.867767312434807,43.445503521873],[4.870853376863604,43.44545028151705],[4.870926511292954,43.447698814457205],[4.874012690553469,43.44764548405262],[4.874085951257319,43.4498940184757],[4.883344816311033,43.44973349344603],[4.883271193938771,43.44748496556128],[4.88944350077131,43.44737751383828],[4.889591233507809,43.45187456450564],[4.895763999477585,43.45176675248635],[4.895838115651619,43.45401527890235],[4.898924610521605,43.4539612388638],[4.898850373776663,43.45171271464889],[4.905023104956133,43.45160437531961],[4.9049486328933405,43.449355859165216],[4.908034869195454,43.44930155988565],[4.907960282403863,43.44705304959382],[4.911046392325976,43.44699866464894],[4.910822305336673,43.44025316235607],[4.907736557006153,43.44030754065588],[4.907289263546038,43.426816621794195],[4.90420423232089,43.426870898961646],[4.904278646202007,43.42911937845956]]]]}},{"type":"Feature","properties":{"category":"observed_front","snapshot_index":18,"pass_time_utc":"2026-09-30T02:36:00+00:00","dt_local":"2026-09-30T04:36:00+02:00","area_km2":4.938,"label":"Activité observée","coherence_level":"indisponible","coherence_fraction":0.0,"projection_displayed":false,"model_version":"fire_progression_arrival_v1"},"geometry":{"type":"Polygon","coordinates":[[[4.892677619384828,43.451820702438695],[4.892603629566643,43.44957217747316],[4.889517364252473,43.44962603734628],[4.88944350077131,43.44737751383828],[4.883271193938771,43.44748496556128],[4.88319757732118,43.44523644133135],[4.880111535814252,43.44529003319156],[4.880038045487296,43.44304151043692],[4.8769521187730955,43.443095012242175],[4.876878754717954,43.44084649096985],[4.873792942797829,43.440899902727175],[4.873573246561961,43.43415435438616],[4.879744141611852,43.434047456065855],[4.87967067999772,43.43179895165136],[4.882755998425941,43.43174537288675],[4.882682422072161,43.4294968743324],[4.895023156277464,43.429281689501735],[4.8950972145452765,43.431530179291244],[4.898182504129699,43.43147616125939],[4.898256688671298,43.43372465252603],[4.9013420929442875,43.43367054443766],[4.901416403778484,43.4359190371744],[4.904501922738681,43.43586483902256],[4.904576359884285,43.438113333222375],[4.9076619935303265,43.438059045000024],[4.907736557006153,43.44030754065588],[4.910822305336673,43.44025316235607],[4.911046392325976,43.44699866464894],[4.907960282403863,43.44705304959382],[4.908034869195454,43.44930155988565],[4.901862390769989,43.44941007056401],[4.901936742272651,43.45165858892656],[4.892677619384828,43.451820702438695]]]}},{"type":"Feature","properties":{"category":"firms_extent_snapshot","snapshot_index":19,"pass_time_utc":"2026-09-30T02:56:00+00:00","dt_local":"2026-09-30T04:56:00+02:00","label":"Emprise FIRMS cumulée à ce passage","interpretation":"Enveloppe des détections FIRMS, pas une surface brûlée","cumulative":true,"point_count":77,"extent_method":"cumulative_detection_extent_smoothed_landmasked_web_v1","local_cluster_link_m":10000.0,"model_version":"fire_progression_arrival_v1"},"geometry":{"type":"MultiPolygon","coordinates":[[[[5.101830052062793,43.3972425600016],[5.1039101752045015,43.39930010569131],[5.105915703635608,43.399860652877884],[5.108010327090165,43.39951424705024],[5.1108107618007885,43.39771819621115],[5.115015327077538,43.39713566331497],[5.11624973940879,43.396258075160915],[5.116809781522903,43.39501241465025],[5.116139595875824,43.39326180758088],[5.112876469432155,43.39090116939816],[5.11192157604297,43.38776772629685],[5.110767075369925,43.38696959910654],[5.109124110245234,43.38658936124552],[5.106741869466241,43.38668929138349],[5.10513809321519,43.38728117050304],[5.103045897687645,43.39047954622984],[5.098962172463777,43.392068150613596],[5.097742155492359,43.3941417183406],[5.098894749442058,43.396027499860686],[5.101830052062793,43.3972425600016]]],[[[4.99639623671338,43.384280335409265],[4.998266406816975,43.384298079880864],[5.001569125626852,43.383266271118714],[5.004221409932522,43.38385811642416],[5.006006900207813,43.38575858533144],[5.005327327223413,43.38875900596194],[5.005842211075311,43.39027895345501],[5.008988319755126,43.39196413782996],[5.011393777133003,43.39216143891674],[5.016272772779215,43.39023393785506],[5.018703362970072,43.38832928750808],[5.018659869592198,43.386214387765094],[5.015644222592613,43.38407357412021],[5.01498200166965,43.38221502632128],[5.016181810396154,43.38050574620737],[5.019752695960972,43.37890309291235],[5.020397369714732,43.37669628889813],[5.019337211494159,43.37533445858462],[5.016630473823215,43.37421058970771],[5.014751461775707,43.37259903679638],[5.011726416339851,43.37212860411683],[5.010122070370995,43.37271906888231],[5.007575870842964,43.37474793283332],[5.003040953765836,43.37545518225627],[5.000130997186431,43.377743679277444],[4.9954982936791135,43.37849571077212],[4.993680982049153,43.38020025485932],[4.993252838356891,43.38152814929234],[4.99415130189561,43.38322342977872],[4.99639623671338,43.384280335409265]]],[[[4.925073662225212,43.48687948145929],[4.927901728964796,43.4870316746242],[4.930049197429703,43.485683218322826],[4.9302325701983705,43.4835721473067],[4.928671363145772,43.48120280854298],[4.927266194887127,43.48030051771138],[4.925509665654286,43.48001309198449],[4.923709486374473,43.48039088211854],[4.922326790092128,43.48144800656648],[4.921896244568248,43.482775717380626],[4.923516021506592,43.48579931649133],[4.925073662225212,43.48687948145929]]],[[[4.8364599695644035,43.450212346590575],[4.84126917186253,43.45168036435788],[4.843383186920003,43.45511962286283],[4.845721750173962,43.45607328045279],[4.852064494105033,43.4468979533602],[4.8544681738596775,43.444832037312494],[4.854130578589031,43.443937902408315],[4.855688083200908,43.44436119523374],[4.859569060336327,43.44024505271603],[4.859745008046207,43.439803070243926],[4.858450019022555,43.4395686532402],[4.856175969814348,43.43841414841745],[4.854315820517272,43.43826034776531],[4.847215326698544,43.4407352276435],[4.839911696689949,43.439113491472064],[4.8376355408506635,43.43931594387058],[4.835862792944387,43.440593881585684],[4.8331984825589505,43.44647268623035],[4.833828092269093,43.44791455308016],[4.8364599695644035,43.450212346590575]]],[[[4.852047776311119,43.45860243312218],[4.854055494252324,43.45743843024912],[4.856038312702242,43.45493561111281],[4.856866013008969,43.45294482578209],[4.854090134694825,43.452262806053135],[4.853443862181026,43.45137394442013],[4.850974744048713,43.45141614731195],[4.8483270475404465,43.455510965424295],[4.846817443741371,43.45659937858592],[4.84962465636848,43.45857445971545],[4.852047776311119,43.45860243312218]]],[[[4.868194743799316,43.451443003802254],[4.868265798441051,43.451344400112866],[4.870999651439322,43.44994735105255],[4.869742904249068,43.452300242596685],[4.876482130510806,43.45450089751608],[4.88207777038515,43.45528808873253],[4.886444516580523,43.457239144941276],[4.8902889855104,43.46098886059964],[4.892592197719089,43.46193280701702],[4.892912349911265,43.461985314654555],[4.8923858604806165,43.46172503695736],[4.893274920248735,43.46058459273372],[4.895134440820093,43.46077707685736],[4.894726845729698,43.46228288750836],[4.8952437464030645,43.46236765183813],[4.898830504181235,43.46204679357753],[4.909726389843047,43.45904271700741],[4.912753429257341,43.45718418274943],[4.917644676868372,43.45505322481369],[4.919549482544984,43.45288068089908],[4.92017447654229,43.45089819291675],[4.919975192614669,43.44892379130754],[4.918195824635684,43.44464806747892],[4.916169991924263,43.44253462887897],[4.912367978107191,43.44030516035995],[4.911655133487915,43.43674098640061],[4.910165821447343,43.43434344066893],[4.907595898313356,43.43257205331777],[4.903448506772458,43.431087074640345],[4.903038623990315,43.43033274568306],[4.901847681594232,43.43028698072356],[4.897770143678937,43.42833368511298],[4.894376509712109,43.42839308706492],[4.893473170068105,43.429083815587646],[4.8925106424669815,43.42797574575388],[4.889388618422786,43.42690535775489],[4.887236456901939,43.42716785314613],[4.887493332550178,43.42558853592736],[4.88727316186089,43.42535986508276],[4.887273161860886,43.42535986508276],[4.883246139828223,43.42504583386772],[4.881052962146028,43.425661145198994],[4.879763645942729,43.42727691275199],[4.880178001952699,43.42969660660145],[4.879635201776705,43.43103651785586],[4.8784547827092455,43.43190966831271],[4.875144596366601,43.433039388388345],[4.873266972343941,43.436248935082894],[4.869819117743607,43.438140236251],[4.8668026388093155,43.43806332356752],[4.865740634575079,43.44013895145948],[4.865850028516277,43.44351174426641],[4.863167337633368,43.446482632541155],[4.864416363054082,43.44691110682218],[4.86424853276911,43.44695510058312],[4.8665350940659975,43.450289755372935],[4.868194743799316,43.451443003802254]],[[4.874079548690235,43.44022000925091],[4.874652740155482,43.438860221043576],[4.876180925468279,43.43838381070537],[4.8756224370016925,43.44019331028864],[4.874079548690235,43.44022000925091]],[[4.875732410337654,43.443566093228135],[4.877863216888225,43.44262926651038],[4.877576643706566,43.443309171196034],[4.875732410337654,43.443566093228135]],[[4.888055419617855,43.4521263156082],[4.886769224139891,43.45057384730723],[4.888613632851714,43.45031673613301],[4.889260436836402,43.45120538728187],[4.888055419617855,43.4521263156082]],[[4.892670220142729,43.451595849777924],[4.893030661556066,43.4531644279971],[4.892736815404013,43.45361952503781],[4.893662758976628,43.45360334875297],[4.890914497156625,43.45455126657897],[4.889025650673875,43.453459297861976],[4.890870141814152,43.45320214774574],[4.891435671308182,43.45161740506315],[4.892670220142729,43.451595849777924]]],[[[4.838816178343563,43.425646866146174],[4.841407318027692,43.42481252467996],[4.842429998589709,43.422887125959505],[4.841285275876766,43.420998586826656],[4.84105131827236,43.42093256455799],[4.835810077242929,43.424299960679974],[4.836174550843522,43.424901355715086],[4.838816178343563,43.425646866146174]]],[[[4.854769527964742,43.4446019010344],[4.855070879658959,43.444371763957214],[4.85476227780296,43.444377047000806],[4.854769527964742,43.4446019010344]]],[[[4.8543262846916075,43.45000897334179],[4.854024900489046,43.45023910929913],[4.854333533859046,43.450233828332564],[4.8543262846916075,43.45000897334179]]],[[[4.892391175513559,43.45250065086726],[4.892707216931658,43.45272011344653],[4.892699817458184,43.45249526063985],[4.892391175513559,43.45250065086726]]],[[[4.890884926697141,43.45365185387769],[4.8905688871123605,43.453432385835434],[4.8905762783770035,43.453657238941574],[4.890884926697141,43.45365185387769]]]]}},{"type":"Feature","properties":{"category":"historical_support","snapshot_index":19,"pass_time_utc":"2026-09-30T02:56:00+00:00","dt_local":"2026-09-30T04:56:00+02:00","area_km2":7.75,"label":"Isoline temporelle","coherence_level":"indisponible","coherence_fraction":0.0,"projection_displayed":false,"model_version":"fire_progression_arrival_v1"},"geometry":{"type":"MultiPolygon","coordinates":[[[[4.904055422001228,43.422373951020056],[4.891716202674224,43.422590163623475],[4.891790123134112,43.424838644557475],[4.897959985284022,43.42473070953633],[4.89803415243674,43.426979189761255],[4.90420423232089,43.426870898961646],[4.904055422001228,43.422373951020056]]],[[[4.904278646202007,43.42911937845956],[4.8919379813829655,43.42933561748408],[4.891864049370134,43.42708712917876],[4.888778989166915,43.42714096711857],[4.888705183390258,43.424892480304464],[4.885620237879671,43.42494622820875],[4.885693923196287,43.4271947172121],[4.882608851467656,43.427248379459066],[4.882682422072161,43.4294968743324],[4.876512020436234,43.429603939646405],[4.876585355828953,43.43185244256175],[4.8735000259290455,43.43190584561766],[4.873646472917283,43.43640286682943],[4.870560896303003,43.43645618637397],[4.870634007870974,43.438704704660566],[4.867548305031927,43.43875793851121],[4.867767312434807,43.445503521873],[4.870853376863604,43.44545028151705],[4.870926511292954,43.447698814457205],[4.874012690553469,43.44764548405262],[4.874085951257319,43.4498940184757],[4.883344816311033,43.44973349344603],[4.883271193938771,43.44748496556128],[4.88944350077131,43.44737751383828],[4.889591233507809,43.45187456450564],[4.895763999477585,43.45176675248635],[4.895838115651619,43.45401527890235],[4.898924610521605,43.4539612388638],[4.898850373776663,43.45171271464889],[4.905023104956133,43.45160437531961],[4.9049486328933405,43.449355859165216],[4.908034869195454,43.44930155988565],[4.907960282403863,43.44705304959382],[4.911046392325976,43.44699866464894],[4.910822305336673,43.44025316235607],[4.907736557006153,43.44030754065588],[4.907289263546038,43.426816621794195],[4.90420423232089,43.426870898961646],[4.904278646202007,43.42911937845956]]]]}},{"type":"Feature","properties":{"category":"observed_front","snapshot_index":19,"pass_time_utc":"2026-09-30T02:56:00+00:00","dt_local":"2026-09-30T04:56:00+02:00","area_km2":3.188,"label":"Activité observée","coherence_level":"indisponible","coherence_fraction":0.0,"projection_displayed":false,"model_version":"fire_progression_arrival_v1"},"geometry":{"type":"Polygon","coordinates":[[[4.877025488562738,43.44534353717608],[4.8769521187730955,43.443095012242175],[4.8738661863243955,43.44314842617509],[4.873792942797829,43.440899902727175],[4.8707071251532845,43.44095322661546],[4.870560896303003,43.43645618637397],[4.873646472917283,43.43640286682943],[4.8735000259290455,43.43190584561766],[4.876585355828953,43.43185244256175],[4.876512020436234,43.429603939646405],[4.895023156277464,43.429281689501735],[4.8950972145452765,43.431530179291244],[4.898182504129699,43.43147616125939],[4.898479277084726,43.44047014835701],[4.8953935054989905,43.44052417519044],[4.895467592711429,43.442772683334155],[4.88929579112879,43.44288047778951],[4.889369643063641,43.44512899398494],[4.877025488562738,43.44534353717608]]]}}]}