{"type":"FeatureCollection","name":"detection_envelopes","crs":{"type":"name","properties":{"name":"urn:ogc:def:crs:OGC:1.3:CRS84"}},"features":[{"type":"Feature","properties":{"cluster_id":1,"snapshot_index":1,"estimated_time_utc":"2026-08-18T12:46:00Z","observed_until_utc":"2026-08-18T12:46:00Z","target_time_utc":"2026-08-18T12:46:00Z","arrival_h":0.0,"hours_ago":96.11666666666666,"supported_detections_cumulative":6,"sources_cumulative":"VIIRS_NOAA20_NRT","last_source":"VIIRS_NOAA20_NRT","last_satellite":"N20","last_instrument":"VIIRS","detected_area_km2":1.551613795991288,"product_type":"cumulative_active_fire_detection_extent"},"geometry":{"type":"MultiLineString","coordinates":[[[0.11622443518346,45.95915940051259],[0.114951665630958,45.961639359380996],[0.115719958572941,45.96337821237175],[0.118268750877601,45.964432980195504],[0.121140495283981,45.96392188816514],[0.122471645274106,45.96265845100503],[0.122565948782237,45.96065982571503],[0.123744722712514,45.95907150243661],[0.1230696402621,45.95685167121853],[0.120894091198969,45.95584755644131],[0.118299074910061,45.95603392728698],[0.116462538251466,45.957326185177614],[0.11622443518346,45.95915940051259]],[[0.116619867402715,45.87339947183389],[0.115354723206875,45.87566928268042],[0.116094789291518,45.877628221828374],[0.118639625894032,45.878682980813174],[0.121506901906722,45.87817187964574],[0.122835973893117,45.8769084387444],[0.122932225373533,45.87491539149272],[0.124128857900392,45.873311489197675],[0.123454809589433,45.8710916615518],[0.12128263593363,45.87008755482863],[0.118691655553109,45.87027393450966],[0.116857983509661,45.87156619800498],[0.116619867402715,45.87339947183389]],[[0.116355369058291,45.863732399592955],[0.114582691447415,45.86207769248732],[0.111654555378185,45.861783319874206],[0.109286041721879,45.86302170258012],[0.1088645402985,45.86506747630044],[0.110637142458893,45.86672227319718],[0.113565535265027,45.867016672198325],[0.115934124371816,45.86577819970131],[0.116355369058291,45.863732399592955]],[[0.111010012952901,45.84908227395251],[0.109478593033368,45.84731407153524],[0.106606673975491,45.84682046520974],[0.10407641948406,45.84789057217423],[0.10336993060415,45.84989759690539],[0.104901226470595,45.85166588223246],[0.107773382467458,45.85215953196667],[0.110303761011977,45.85108934209237],[0.111010012952901,45.84908227395251]]]}},{"type":"Feature","properties":{"cluster_id":1,"snapshot_index":2,"estimated_time_utc":"2026-08-22T12:53:00Z","observed_until_utc":"2026-08-22T12:53:00Z","target_time_utc":"2026-08-22T12:53:00Z","arrival_h":96.11666666666666,"hours_ago":0.0,"supported_detections_cumulative":15,"sources_cumulative":"VIIRS_NOAA20_NRT, VIIRS_SNPP_NRT","last_source":"VIIRS_SNPP_NRT","last_satellite":"N","last_instrument":"VIIRS","detected_area_km2":2.4225167963310215,"product_type":"cumulative_active_fire_detection_extent"},"geometry":{"type":"MultiLineString","coordinates":[[[0.110984850897473,45.848924753196066],[0.110465877929128,45.84714173628556],[0.108446202317569,45.84599350462896],[0.106143992114187,45.84593453644447],[0.104009466461553,45.84697636351312],[0.103335202448456,45.84815511733554],[0.103352839774808,45.849790029148465],[0.102212805241321,45.85125790604621],[0.102232177972907,45.85297775744405],[0.100966260747266,45.85482879466684],[0.101313304345205,45.85633490500338],[0.102562120909459,45.857371697691605],[0.105445721989365,45.85783252288228],[0.107951023816565,45.85673361476633],[0.108625294049563,45.855554833141326],[0.108540634596032,45.85407243791842],[0.110854569228663,45.85034706548265],[0.110984850897473,45.848924753196066]],[[0.116191570827885,45.86260775261135],[0.115115864848046,45.86153194406419],[0.113502852893002,45.86094761885005],[0.110264061154422,45.86140793806668],[0.108745628894579,45.86322905853068],[0.108798991676865,45.86485137653843],[0.109515247710614,45.86601804129885],[0.112059422891956,45.86707294815551],[0.114926156404856,45.86656201400121],[0.116378205656076,45.8650017474912],[0.116191570827885,45.86260775261135]],[[0.115325369965591,45.875933501152616],[0.115915793970516,45.87744610762594],[0.117609900921102,45.87847466032008],[0.119774243825576,45.87867947153811],[0.121799124087093,45.878002845490464],[0.122856517721956,45.87686667677032],[0.122992199473422,45.87478717236088],[0.12418661896331,45.87309430654573],[0.123212825235033,45.870887559242874],[0.120532528092531,45.87001220851265],[0.11775117826657,45.87071712149895],[0.116693797360869,45.87185324233284],[0.115325369965591,45.875933501152616]],[[0.114951665630958,45.961639359380996],[0.115719958572941,45.96337821237175],[0.118515411589241,45.96444991198536],[0.119792219792916,45.96628898034278],[0.122965335054749,45.96694945617723],[0.124700741248267,45.966441815156855],[0.125888027587011,45.965423631428415],[0.126124868255468,45.96317658892172],[0.12722224226061,45.9618265356728],[0.127377624733219,45.96056172029892],[0.126611315917761,45.959316441709774],[0.1237603958243,45.9579294682966],[0.122509961007041,45.95643177662177],[0.119384900249327,45.955800528178756],[0.117310757147229,45.956507175555515],[0.115118253081224,45.95875003205778],[0.114611783682807,45.95996934776534],[0.114951665630958,45.961639359380996]]]}}],"metadata":{"generated_at_utc":"2026-08-22T15:55:29.753364Z","product_type":"cumulative_active_fire_detection_extent","product_label":"Emprises cumulées des détections actives FIRMS","not_a_burn_perimeter":true,"not_a_continuous_fire_front":true,"not_an_arrival_time_interpolation":true,"snapshot_step_hours":6,"confidence_filter":{"VIIRS":["nominal","high"],"MODIS_minimum":30},"footprint_radius_m":{"VIIRS":300.0,"MODIS":750.0},"same_pass_neighbour_m":2000.0,"continuity_distance_m":3000.0,"clusters":[{"cluster_id":1,"first_supported_detection_utc":"2026-08-18T12:46:00Z","last_supported_detection_utc":"2026-08-22T12:53:00Z","pass_states":2,"published_snapshots":2,"final_detected_area_km2":2.4225167963310215}]},"bbox":[0.10096626074726607,45.84593453644447,0.12737762473321904,45.96694945617723]}