{"type":"FeatureCollection","name":"fire_progression_arrival_v1","features":[{"type":"Feature","properties":{"category":"arrival_step","arrival_snapshot_index":1,"first_detected_utc":"2026-08-18T12:46:00+00:00","first_detected_local":"2026-08-18T14:46:00+02:00","area_km2":7.25,"label":"Première détection FIRMS","model_version":"fire_progression_arrival_v1"},"geometry":{"type":"MultiPolygon","coordinates":[[[[0.11262696353083347,45.855293115899336],[0.11286251080332474,45.8507936663919],[0.11608189618302085,45.85087591482625],[0.11643475187507225,45.84412673056637],[0.11321575969459499,45.844044492205846],[0.11333349012505514,45.84179476751091],[0.10367696434966937,45.84154751225326],[0.10355884079097875,45.84379722685283],[0.10033988707123176,45.843714621646036],[0.10022162283032877,45.84596433289156],[0.09700254770253673,45.84588163259774],[0.09664730390355959,45.85263075628104],[0.09986677224489848,45.852713466705225],[0.09974846942491758,45.8549631779907],[0.11262696353083347,45.855293115899336]]],[[[0.12433254481577426,45.8781189673672],[0.1275535423126345,45.87820088903301],[0.1276707608172936,45.87595114764878],[0.1308916366666615,45.87603297420305],[0.13124284124293345,45.869283739872735],[0.12802235896231792,45.86920192334108],[0.12825670992989885,45.864702440374494],[0.1218162987002329,45.86453854542989],[0.12193372213909408,45.86228881062024],[0.11549361150609058,45.8621245553941],[0.11537592578162073,45.864374283497014],[0.10893559125940734,45.8642096545791],[0.1082277011567684,45.8777079824974],[0.11466960981260779,45.87787265175183],[0.11455185686977888,45.880122379701845],[0.12421518552723318,45.880368705374856],[0.12433254481577426,45.8781189673672]]],[[[0.12297454957039304,45.96594074451371],[0.12942682442366177,45.96610457323064],[0.12954415351343052,45.963854828929385],[0.13277017369641947,45.96393660207278],[0.1331217086233773,45.957187358195114],[0.12989608326795618,45.95710559506923],[0.13013065518706501,45.95260610506648],[0.12367995955859619,45.95244231648614],[0.12379749427557886,45.95019257795466],[0.11412191756058916,45.94994621594152],[0.11400398815881176,45.9521959444123],[0.11077868361320561,45.9521136366018],[0.11054253275490868,45.956613086381616],[0.10731697470605374,45.956530679948784],[0.10719875321619245,45.95878040124674],[0.1104244428552669,45.95886281104482],[0.11018823410908808,45.96336225990065],[0.11341419661170649,45.96344458451867],[0.11329620938637869,45.96569431206637],[0.11974842655220928,45.96585869228044],[0.11963069295763394,45.96810842637523],[0.12285694761365847,45.96819048195936],[0.12297454957039304,45.96594074451371]]]]}},{"type":"Feature","properties":{"category":"arrival_step","arrival_snapshot_index":2,"first_detected_utc":"2026-08-22T12:53:00+00:00","first_detected_local":"2026-08-22T14:53:00+02:00","area_km2":0.625,"label":"Première détection FIRMS","model_version":"fire_progression_arrival_v1"},"geometry":{"type":"Polygon","coordinates":[[[0.10273170614153124,45.859545229381695],[0.10284989714312014,45.85729551472316],[0.09963015695721943,45.85721288927761],[0.09974846942491758,45.8549631779907],[0.11262696353083347,45.855293115899336],[0.11286251080332474,45.8507936663919],[0.11608189618302085,45.85087591482625],[0.11572895416242687,45.85762509916732],[0.11250917548757246,45.85754284065779],[0.11239137783806742,45.85979256541486],[0.10273170614153124,45.859545229381695]]]}},{"type":"Feature","properties":{"category":"firms_extent_snapshot","snapshot_index":1,"pass_time_utc":"2026-08-18T12:46:00+00:00","dt_local":"2026-08-18T14:46:00+02:00","label":"Emprise FIRMS cumulée à ce passage","interpretation":"Enveloppe des détections FIRMS, pas une surface brûlée","cumulative":true,"point_count":6,"extent_method":"cumulative_detection_extent_smoothed_landmasked_web_v1","local_cluster_link_m":10000.0,"model_version":"fire_progression_arrival_v1"},"geometry":{"type":"MultiPolygon","coordinates":[[[[0.11495089872248532,45.96166143380359],[0.1155244013400984,45.963177160859736],[0.11720879712200842,45.96421522075254],[0.11943633067620729,45.96442569146259],[0.12145609655447664,45.96373762278858],[0.12248156465051314,45.96263748169765],[0.12380643720160987,45.958832403854586],[0.12280544095746035,45.956631582311154],[0.12011116688274288,45.95577167409768],[0.11733420894384534,45.9564923425455],[0.11630875245010297,45.9575924370617],[0.11495089872248532,45.96166143380359]]],[[[0.10874773823517499,45.86430122178185],[0.10917351274660836,45.865633868028254],[0.11059735697946775,45.866704199836946],[0.11519630786576184,45.867173407376576],[0.11647227558688145,45.86449864623648],[0.11544085132967861,45.862561768104136],[0.1127512861547288,45.86170168537182],[0.10997896723922644,45.86242217276746],[0.10874773823517499,45.86430122178185]]],[[[0.11777317291732638,45.86993671046282],[0.11537359715827547,45.876439757387416],[0.1169264524822562,45.87819883468559],[0.11980539028679164,45.87867568826828],[0.12153181659177277,45.87815828777925],[0.12270514587306473,45.87713353953981],[0.12417610591421399,45.87228007431245],[0.12348167482491278,45.87111899254504],[0.12223590001079744,45.87035007787062],[0.11777317291732638,45.86993671046282]]],[[[0.10332879154432027,45.849391036623054],[0.10435954444429049,45.85132802465226],[0.10704847315681257,45.852188306873245],[0.10982031616228416,45.85146789154599],[0.11105122229615134,45.849588831431696],[0.11002026699832508,45.84765190453951],[0.10733151300271518,45.8467916931417],[0.1045598723951,45.84751204733193],[0.10332879154432027,45.849391036623054]]]]}},{"type":"Feature","properties":{"category":"historical_support","snapshot_index":1,"pass_time_utc":"2026-08-18T12:46:00+00:00","dt_local":"2026-08-18T14:46:00+02:00","area_km2":7.25,"label":"Isoline temporelle","coherence_level":"indisponible","coherence_fraction":0.0,"projection_displayed":false,"model_version":"fire_progression_arrival_v1"},"geometry":{"type":"MultiPolygon","coordinates":[[[[0.11262696353083347,45.855293115899336],[0.11286251080332474,45.8507936663919],[0.11608189618302085,45.85087591482625],[0.11643475187507225,45.84412673056637],[0.11321575969459499,45.844044492205846],[0.11333349012505514,45.84179476751091],[0.10367696434966937,45.84154751225326],[0.10355884079097875,45.84379722685283],[0.10033988707123176,45.843714621646036],[0.10022162283032877,45.84596433289156],[0.09700254770253673,45.84588163259774],[0.09664730390355959,45.85263075628104],[0.09986677224489848,45.852713466705225],[0.09974846942491758,45.8549631779907],[0.11262696353083347,45.855293115899336]]],[[[0.12433254481577426,45.8781189673672],[0.1275535423126345,45.87820088903301],[0.1276707608172936,45.87595114764878],[0.1308916366666615,45.87603297420305],[0.13124284124293345,45.869283739872735],[0.12802235896231792,45.86920192334108],[0.12825670992989885,45.864702440374494],[0.1218162987002329,45.86453854542989],[0.12193372213909408,45.86228881062024],[0.11549361150609058,45.8621245553941],[0.11537592578162073,45.864374283497014],[0.10893559125940734,45.8642096545791],[0.1082277011567684,45.8777079824974],[0.11466960981260779,45.87787265175183],[0.11455185686977888,45.880122379701845],[0.12421518552723318,45.880368705374856],[0.12433254481577426,45.8781189673672]]],[[[0.12297454957039304,45.96594074451371],[0.12942682442366177,45.96610457323064],[0.12954415351343052,45.963854828929385],[0.13277017369641947,45.96393660207278],[0.1331217086233773,45.957187358195114],[0.12989608326795618,45.95710559506923],[0.13013065518706501,45.95260610506648],[0.12367995955859619,45.95244231648614],[0.12379749427557886,45.95019257795466],[0.11412191756058916,45.94994621594152],[0.11400398815881176,45.9521959444123],[0.11077868361320561,45.9521136366018],[0.11054253275490868,45.956613086381616],[0.10731697470605374,45.956530679948784],[0.10719875321619245,45.95878040124674],[0.1104244428552669,45.95886281104482],[0.11018823410908808,45.96336225990065],[0.11341419661170649,45.96344458451867],[0.11329620938637869,45.96569431206637],[0.11974842655220928,45.96585869228044],[0.11963069295763394,45.96810842637523],[0.12285694761365847,45.96819048195936],[0.12297454957039304,45.96594074451371]]]]}},{"type":"Feature","properties":{"category":"observed_front","snapshot_index":1,"pass_time_utc":"2026-08-18T12:46:00+00:00","dt_local":"2026-08-18T14:46:00+02:00","area_km2":7.25,"label":"Activité observée","coherence_level":"indisponible","coherence_fraction":0.0,"projection_displayed":false,"model_version":"fire_progression_arrival_v1"},"geometry":{"type":"MultiPolygon","coordinates":[[[[0.11262696353083347,45.855293115899336],[0.11286251080332474,45.8507936663919],[0.11608189618302085,45.85087591482625],[0.11643475187507225,45.84412673056637],[0.11321575969459499,45.844044492205846],[0.11333349012505514,45.84179476751091],[0.10367696434966937,45.84154751225326],[0.10355884079097875,45.84379722685283],[0.10033988707123176,45.843714621646036],[0.10022162283032877,45.84596433289156],[0.09700254770253673,45.84588163259774],[0.09664730390355959,45.85263075628104],[0.09986677224489848,45.852713466705225],[0.09974846942491758,45.8549631779907],[0.11262696353083347,45.855293115899336]]],[[[0.12433254481577426,45.8781189673672],[0.1275535423126345,45.87820088903301],[0.1276707608172936,45.87595114764878],[0.1308916366666615,45.87603297420305],[0.13124284124293345,45.869283739872735],[0.12802235896231792,45.86920192334108],[0.12825670992989885,45.864702440374494],[0.1218162987002329,45.86453854542989],[0.12193372213909408,45.86228881062024],[0.11549361150609058,45.8621245553941],[0.11537592578162073,45.864374283497014],[0.10893559125940734,45.8642096545791],[0.1082277011567684,45.8777079824974],[0.11466960981260779,45.87787265175183],[0.11455185686977888,45.880122379701845],[0.12421518552723318,45.880368705374856],[0.12433254481577426,45.8781189673672]]],[[[0.12297454957039304,45.96594074451371],[0.12942682442366177,45.96610457323064],[0.12954415351343052,45.963854828929385],[0.13277017369641947,45.96393660207278],[0.1331217086233773,45.957187358195114],[0.12989608326795618,45.95710559506923],[0.13013065518706501,45.95260610506648],[0.12367995955859619,45.95244231648614],[0.12379749427557886,45.95019257795466],[0.11412191756058916,45.94994621594152],[0.11400398815881176,45.9521959444123],[0.11077868361320561,45.9521136366018],[0.11054253275490868,45.956613086381616],[0.10731697470605374,45.956530679948784],[0.10719875321619245,45.95878040124674],[0.1104244428552669,45.95886281104482],[0.11018823410908808,45.96336225990065],[0.11341419661170649,45.96344458451867],[0.11329620938637869,45.96569431206637],[0.11974842655220928,45.96585869228044],[0.11963069295763394,45.96810842637523],[0.12285694761365847,45.96819048195936],[0.12297454957039304,45.96594074451371]]]]}},{"type":"Feature","properties":{"category":"firms_extent_snapshot","snapshot_index":2,"pass_time_utc":"2026-08-22T12:53:00+00:00","dt_local":"2026-08-22T14:53:00+02:00","label":"Emprise FIRMS cumulée à ce passage","interpretation":"Enveloppe des détections FIRMS, pas une surface brûlée","cumulative":true,"point_count":15,"extent_method":"cumulative_detection_extent_smoothed_landmasked_web_v1","local_cluster_link_m":10000.0,"model_version":"fire_progression_arrival_v1"},"geometry":{"type":"MultiPolygon","coordinates":[[[[0.11461101666135329,45.959991422185894],[0.1155244013400984,45.963177160859736],[0.12004992660123616,45.96643548447098],[0.12299653122635658,45.96694567202677],[0.12547100111044046,45.96590481795104],[0.12731725216155845,45.961592804342764],[0.12731167004808344,45.960334468413464],[0.12643791281931566,45.9591728367851],[0.12420205764490777,45.95802517829933],[0.12229973952309953,45.956314517053855],[0.12011116688274288,45.95577167409768],[0.11787169490790633,45.95620182581914],[0.11513452300874628,45.95873108991181],[0.11461101666135329,45.959991422185894]]],[[[0.1009383983445557,45.855070954930945],[0.10136391300112767,45.85640363030512],[0.10278736752052056,45.857474060265965],[0.10730853806627852,45.85787912477534],[0.11101877637072936,45.84985283664248],[0.11080704832303587,45.84765091750653],[0.10935756711147648,45.84632013797761],[0.10654555661648586,45.845874244745644],[0.10398360174411943,45.847004156333746],[0.1009383983445557,45.855070954930945]]],[[[0.11007094431634545,45.860860991879136],[0.10875026134407702,45.86320721612224],[0.10928025092408812,45.865769285304765],[0.11135357539324334,45.86695346453937],[0.11519630786576184,45.867173407376576],[0.11644853384342599,45.8647077780149],[0.11590953442858222,45.86220061755477],[0.11383629078745987,45.86101652201901],[0.11007094431634545,45.860860991879136]]],[[[0.11777317291732638,45.86993671046282],[0.11542873567017195,45.87464692565486],[0.11537359715827547,45.876439757387416],[0.1169264524822562,45.87819883468559],[0.11980539028679164,45.87867568826828],[0.12153181659177277,45.87815828777925],[0.12270514587306473,45.87713353953981],[0.12417610591421399,45.87228007431245],[0.12348167482491278,45.87111899254504],[0.12223590001079744,45.87035007787062],[0.11777317291732638,45.86993671046282]]]]}},{"type":"Feature","properties":{"category":"historical_support","snapshot_index":2,"pass_time_utc":"2026-08-22T12:53:00+00:00","dt_local":"2026-08-22T14:53:00+02:00","area_km2":7.875,"label":"Isoline temporelle","coherence_level":"indisponible","coherence_fraction":0.0,"projection_displayed":false,"model_version":"fire_progression_arrival_v1"},"geometry":{"type":"MultiPolygon","coordinates":[[[[0.11239137783806742,45.85979256541486],[0.11250917548757246,45.85754284065779],[0.11572895416242687,45.85762509916732],[0.11643475187507225,45.84412673056637],[0.11321575969459499,45.844044492205846],[0.11333349012505514,45.84179476751091],[0.10367696434966937,45.84154751225326],[0.10355884079097875,45.84379722685283],[0.10033988707123176,45.843714621646036],[0.10022162283032877,45.84596433289156],[0.09700254770253673,45.84588163259774],[0.09664730390355959,45.85263075628104],[0.09986677224489848,45.852713466705225],[0.09963015695721943,45.85721288927761],[0.10284989714312014,45.85729551472316],[0.10273170614153124,45.859545229381695],[0.11239137783806742,45.85979256541486]]],[[[0.12433254481577426,45.8781189673672],[0.1275535423126345,45.87820088903301],[0.1276707608172936,45.87595114764878],[0.1308916366666615,45.87603297420305],[0.13124284124293345,45.869283739872735],[0.12802235896231792,45.86920192334108],[0.12825670992989885,45.864702440374494],[0.1218162987002329,45.86453854542989],[0.12193372213909408,45.86228881062024],[0.11549361150609058,45.8621245553941],[0.11537592578162073,45.864374283497014],[0.10893559125940734,45.8642096545791],[0.1082277011567684,45.8777079824974],[0.11466960981260779,45.87787265175183],[0.11455185686977888,45.880122379701845],[0.12421518552723318,45.880368705374856],[0.12433254481577426,45.8781189673672]]],[[[0.12297454957039304,45.96594074451371],[0.12942682442366177,45.96610457323064],[0.12954415351343052,45.963854828929385],[0.13277017369641947,45.96393660207278],[0.1331217086233773,45.957187358195114],[0.12989608326795618,45.95710559506923],[0.13013065518706501,45.95260610506648],[0.12367995955859619,45.95244231648614],[0.12379749427557886,45.95019257795466],[0.11412191756058916,45.94994621594152],[0.11400398815881176,45.9521959444123],[0.11077868361320561,45.9521136366018],[0.11054253275490868,45.956613086381616],[0.10731697470605374,45.956530679948784],[0.10719875321619245,45.95878040124674],[0.1104244428552669,45.95886281104482],[0.11018823410908808,45.96336225990065],[0.11341419661170649,45.96344458451867],[0.11329620938637869,45.96569431206637],[0.11974842655220928,45.96585869228044],[0.11963069295763394,45.96810842637523],[0.12285694761365847,45.96819048195936],[0.12297454957039304,45.96594074451371]]]]}},{"type":"Feature","properties":{"category":"observed_front","snapshot_index":2,"pass_time_utc":"2026-08-22T12:53:00+00:00","dt_local":"2026-08-22T14:53:00+02:00","area_km2":4.688,"label":"Activité observée","coherence_level":"indisponible","coherence_fraction":0.0,"projection_displayed":false,"model_version":"fire_progression_arrival_v1"},"geometry":{"type":"MultiPolygon","coordinates":[[[[0.11239137783806742,45.85979256541486],[0.11250917548757246,45.85754284065779],[0.11572895416242687,45.85762509916732],[0.11631714290116099,45.84637645863826],[0.11309801966493536,45.84629421691996],[0.11321575969459499,45.844044492205846],[0.10033988707123176,45.843714621646036],[0.10022162283032877,45.84596433289156],[0.09700254770253673,45.84588163259774],[0.09664730390355959,45.85263075628104],[0.09986677224489848,45.852713466705225],[0.09963015695721943,45.85721288927761],[0.10284989714312014,45.85729551472316],[0.10273170614153124,45.859545229381695],[0.11239137783806742,45.85979256541486]]],[[[0.12285694761365847,45.96819048195936],[0.12297454957039304,45.96594074451371],[0.12942682442366177,45.96610457323064],[0.12954415351343052,45.963854828929385],[0.13277017369641947,45.96393660207278],[0.1331217086233773,45.957187358195114],[0.12989608326795618,45.95710559506923],[0.13013065518706501,45.95260610506648],[0.12367995955859619,45.95244231648614],[0.12379749427557886,45.95019257795466],[0.11734710018008203,45.95002842850204],[0.11722930233872435,45.952278160330145],[0.11400398815881176,45.9521959444123],[0.11388604912272632,45.954445672737855],[0.11066061300716118,45.95436336156613],[0.11018823410908808,45.96336225990065],[0.11341419661170649,45.96344458451867],[0.11329620938637869,45.96569431206637],[0.11974842655220928,45.96585869228044],[0.11963069295763394,45.96810842637523],[0.12285694761365847,45.96819048195936]]]]}}]}