{"type":"FeatureCollection","name":"detection_envelopes","crs":{"type":"name","properties":{"name":"urn:ogc:def:crs:OGC:1.3:CRS84"}},"features":[{"type":"Feature","properties":{"cluster_id":1,"snapshot_index":1,"estimated_time_utc":"2026-09-17T11:21:00Z","observed_until_utc":"2026-09-17T11:21:00Z","target_time_utc":"2026-09-17T11:21:00Z","arrival_h":0.0,"hours_ago":2.033333333333333,"supported_detections_cumulative":6,"sources_cumulative":"VIIRS_SNPP_NRT","last_source":"VIIRS_SNPP_NRT","last_satellite":"N","last_instrument":"VIIRS","detected_area_km2":1.3866362078313312,"product_type":"cumulative_active_fire_detection_extent"},"geometry":{"type":"LineString","coordinates":[[8.776887917744247,42.52537698652792],[8.77698720782208,42.52619516357512],[8.775409246351051,42.52827063390733],[8.776173944174301,42.5302549257016],[8.778200747696069,42.53120516917996],[8.781151148512238,42.53111372435791],[8.783104458894485,42.53275613847718],[8.78547653534077,42.53322693498923],[8.787154114691836,42.532806263810485],[8.788336046492322,42.53188873068028],[8.788824456917439,42.53058504757312],[8.788242323634663,42.52840608748598],[8.79170190523336,42.52618092565473],[8.792372487361916,42.52439050673805],[8.7918036609249,42.52314983707204],[8.790563221444053,42.522275737427954],[8.788860393102757,42.52191562365191],[8.786566035129757,42.52210782116869],[8.78454520465472,42.520393896278414],[8.782173656856049,42.51992308510437],[8.780496411645066,42.520343672626154],[8.77701852319645,42.52237875263652],[8.77633745498059,42.52386058194182],[8.776887917744247,42.52537698652792]]}},{"type":"Feature","properties":{"cluster_id":1,"snapshot_index":2,"estimated_time_utc":"2026-09-17T13:23:00Z","observed_until_utc":"2026-09-17T13:23:00Z","target_time_utc":"2026-09-17T13:23:00Z","arrival_h":2.033333333333333,"hours_ago":0.0,"supported_detections_cumulative":19,"sources_cumulative":"VIIRS_NOAA20_NRT, VIIRS_SNPP_NRT","last_source":"VIIRS_NOAA20_NRT","last_satellite":"N20","last_instrument":"VIIRS","detected_area_km2":1.922831776703009,"product_type":"cumulative_active_fire_detection_extent"},"geometry":{"type":"LineString","coordinates":[[8.792945272697967,42.52686023853276],[8.793264828052521,42.52481050402396],[8.791098716085635,42.52255488507989],[8.789216834823225,42.521937325891145],[8.786566035129757,42.52210782116869],[8.784293409576964,42.52027584918156],[8.781877781021256,42.51994999008389],[8.780252611993799,42.520470572237095],[8.77679517689802,42.522639378446236],[8.776343137770088,42.52412510668936],[8.777053090431474,42.52603191297714],[8.775686590356877,42.52750656241908],[8.775433553631109,42.52901791573532],[8.776905580916855,42.530770614285416],[8.779641305705754,42.53123760008062],[8.782378598463046,42.53287549188292],[8.782909398370569,42.53473982866876],[8.783940662853736,42.53580503179869],[8.786663701156062,42.53677636223217],[8.788372632454218,42.53687001496117],[8.790271037109557,42.53617820124278],[8.791991388954507,42.53452731837296],[8.79167825349396,42.53229226230773],[8.792564459170146,42.530574919902584],[8.79180840574067,42.528805793237936],[8.792945272697967,42.52686023853276]]}}],"metadata":{"generated_at_utc":"2026-09-19T16:49:06.012011Z","product_type":"cumulative_active_fire_detection_extent","product_label":"Emprises cumulées des détections actives FIRMS","not_a_burn_perimeter":true,"not_a_continuous_fire_front":true,"not_an_arrival_time_interpolation":true,"snapshot_step_hours":6,"confidence_filter":{"VIIRS":["nominal","high"],"MODIS_minimum":30},"footprint_radius_m":{"VIIRS":300.0,"MODIS":750.0},"same_pass_neighbour_m":2000.0,"continuity_distance_m":3000.0,"clusters":[{"cluster_id":1,"first_supported_detection_utc":"2026-09-17T11:21:00Z","last_supported_detection_utc":"2026-09-17T13:23:00Z","pass_states":4,"published_snapshots":2,"final_detected_area_km2":1.922831776703009}]},"bbox":[8.775409246351051,42.51992308510437,8.793264828052521,42.53687001496117]}