{"type":"FeatureCollection","name":"fire_progression_arrival_v1","features":[{"type":"Feature","properties":{"category":"arrival_step","arrival_snapshot_index":1,"first_detected_utc":"2026-09-17T11:21:00+00:00","first_detected_local":"2026-09-17T13:21:00+02:00","area_km2":3.0,"label":"Première détection FIRMS","model_version":"fire_progression_arrival_v1"},"geometry":{"type":"Polygon","coordinates":[[[8.775568559611166,42.531955642369425],[8.775124474868145,42.52747289652825],[8.772094159876877,42.52763707472905],[8.771206657475975,42.5186716109541],[8.774236509859982,42.518507459420654],[8.774014561196081,42.51626611153243],[8.789162989321149,42.515444097635545],[8.789385516105009,42.51768541214096],[8.792415266157569,42.517520744767886],[8.792637925645499,42.51976205714337],[8.79566777423702,42.519597297108994],[8.796336202163644,42.52632124147138],[8.793306006644688,42.52648602157959],[8.793751479443285,42.53096868726284],[8.775568559611166,42.531955642369425]]]}},{"type":"Feature","properties":{"category":"arrival_step","arrival_snapshot_index":3,"first_detected_utc":"2026-09-17T12:25:00+00:00","first_detected_local":"2026-09-17T14:25:00+02:00","area_km2":1.188,"label":"Première détection FIRMS","model_version":"fire_progression_arrival_v1"},"geometry":{"type":"Polygon","coordinates":[[[8.779265690965468,42.53851549761966],[8.778821272541183,42.53403273789675],[8.775790627549267,42.53419702210048],[8.775568559611166,42.531955642369425],[8.793751479443285,42.53096868726284],[8.793306006644688,42.52648602157959],[8.796336202163644,42.52632124147138],[8.797004784013632,42.53304522672785],[8.793974241488222,42.53321002691244],[8.79441981687919,42.5376927198114],[8.779265690965468,42.53851549761966]]]}},{"type":"Feature","properties":{"category":"arrival_step","arrival_snapshot_index":5,"first_detected_utc":"2026-09-17T13:23:00+00:00","first_detected_local":"2026-09-17T15:23:00+02:00","area_km2":0.25,"label":"Première détection FIRMS","model_version":"fire_progression_arrival_v1"},"geometry":{"type":"Polygon","coordinates":[[[8.797004784013632,42.53304522672785],[8.796113375754794,42.524079922135805],[8.79914343852186,42.523915062738915],[8.80003530943055,42.532880340549134],[8.797004784013632,42.53304522672785]]]}},{"type":"Feature","properties":{"category":"firms_extent_snapshot","snapshot_index":1,"pass_time_utc":"2026-09-17T11:21:00+00:00","dt_local":"2026-09-17T13:21:00+02:00","label":"Emprise FIRMS cumulée à ce passage","interpretation":"Enveloppe des détections FIRMS, pas une surface brûlée","cumulative":true,"point_count":6,"extent_method":"cumulative_detection_extent_smoothed_landmasked_web_v1","local_cluster_link_m":10000.0,"model_version":"fire_progression_arrival_v1"},"geometry":{"type":"Polygon","coordinates":[[[8.775395390252347,42.52877703780867],[8.775950113672279,42.530021031610964],[8.777297928834587,42.53095072117998],[8.780944125893786,42.531469247681684],[8.784035477411424,42.533099146014514],[8.78655929956895,42.53303416356617],[8.788615035958847,42.53143829984914],[8.789048001080703,42.528073456950885],[8.79207106496011,42.525703063561096],[8.79211179409971,42.52358973495111],[8.790537118809619,42.5222651036933],[8.786648720648092,42.521691168831204],[8.783947963213677,42.52014619228482],[8.781091121192544,42.52011580953219],[8.776681150045372,42.52280674897498],[8.776626017836897,42.525900000553264],[8.775395390252347,42.52877703780867]]]}},{"type":"Feature","properties":{"category":"historical_support","snapshot_index":1,"pass_time_utc":"2026-09-17T11:21:00+00:00","dt_local":"2026-09-17T13:21:00+02:00","area_km2":3.0,"label":"Isoline temporelle","coherence_level":"indisponible","coherence_fraction":0.0,"projection_displayed":false,"model_version":"fire_progression_arrival_v1"},"geometry":{"type":"Polygon","coordinates":[[[8.775568559611166,42.531955642369425],[8.775124474868145,42.52747289652825],[8.772094159876877,42.52763707472905],[8.771206657475975,42.5186716109541],[8.774236509859982,42.518507459420654],[8.774014561196081,42.51626611153243],[8.789162989321149,42.515444097635545],[8.789385516105009,42.51768541214096],[8.792415266157569,42.517520744767886],[8.792637925645499,42.51976205714337],[8.79566777423702,42.519597297108994],[8.796336202163644,42.52632124147138],[8.793306006644688,42.52648602157959],[8.793751479443285,42.53096868726284],[8.775568559611166,42.531955642369425]]]}},{"type":"Feature","properties":{"category":"observed_front","snapshot_index":1,"pass_time_utc":"2026-09-17T11:21:00+00:00","dt_local":"2026-09-17T13:21:00+02:00","area_km2":3.0,"label":"Activité observée","coherence_level":"indisponible","coherence_fraction":0.0,"projection_displayed":false,"model_version":"fire_progression_arrival_v1"},"geometry":{"type":"Polygon","coordinates":[[[8.775568559611166,42.531955642369425],[8.775124474868145,42.52747289652825],[8.772094159876877,42.52763707472905],[8.771206657475975,42.5186716109541],[8.774236509859982,42.518507459420654],[8.774014561196081,42.51626611153243],[8.789162989321149,42.515444097635545],[8.789385516105009,42.51768541214096],[8.792415266157569,42.517520744767886],[8.792637925645499,42.51976205714337],[8.79566777423702,42.519597297108994],[8.796336202163644,42.52632124147138],[8.793306006644688,42.52648602157959],[8.793751479443285,42.53096868726284],[8.775568559611166,42.531955642369425]]]}},{"type":"Feature","properties":{"category":"historical_support","snapshot_index":2,"pass_time_utc":"2026-09-17T11:42:00+00:00","dt_local":"2026-09-17T13:42:00+02:00","area_km2":3.0,"label":"Isoline temporelle","coherence_level":"indisponible","coherence_fraction":0.0,"projection_displayed":false,"model_version":"fire_progression_arrival_v1"},"geometry":{"type":"Polygon","coordinates":[[[8.775568559611166,42.531955642369425],[8.775124474868145,42.52747289652825],[8.772094159876877,42.52763707472905],[8.771206657475975,42.5186716109541],[8.774236509859982,42.518507459420654],[8.774014561196081,42.51626611153243],[8.789162989321149,42.515444097635545],[8.789385516105009,42.51768541214096],[8.792415266157569,42.517520744767886],[8.792637925645499,42.51976205714337],[8.79566777423702,42.519597297108994],[8.796336202163644,42.52632124147138],[8.793306006644688,42.52648602157959],[8.793751479443285,42.53096868726284],[8.775568559611166,42.531955642369425]]]}},{"type":"Feature","properties":{"category":"observed_front","snapshot_index":2,"pass_time_utc":"2026-09-17T11:42:00+00:00","dt_local":"2026-09-17T13:42:00+02:00","area_km2":2.812,"label":"Activité observée","coherence_level":"indisponible","coherence_fraction":0.0,"projection_displayed":false,"model_version":"fire_progression_arrival_v1"},"geometry":{"type":"Polygon","coordinates":[[[8.775568559611166,42.531955642369425],[8.775124474868145,42.52747289652825],[8.772094159876877,42.52763707472905],[8.771428507534528,42.52091297006747],[8.774458475557184,42.52074881186761],[8.774236509859982,42.518507459420654],[8.780296163519328,42.518178898428985],[8.780073983601564,42.515937563883476],[8.789162989321149,42.515444097635545],[8.789385516105009,42.51768541214096],[8.792415266157569,42.517520744767886],[8.792637925645499,42.51976205714337],[8.79566777423702,42.519597297108994],[8.796336202163644,42.52632124147138],[8.793306006644688,42.52648602157959],[8.793751479443285,42.53096868726284],[8.775568559611166,42.531955642369425]]]}},{"type":"Feature","properties":{"category":"historical_support","snapshot_index":3,"pass_time_utc":"2026-09-17T12:25:00+00:00","dt_local":"2026-09-17T14:25:00+02:00","area_km2":4.188,"label":"Isoline temporelle","coherence_level":"indisponible","coherence_fraction":0.0,"projection_displayed":false,"model_version":"fire_progression_arrival_v1"},"geometry":{"type":"Polygon","coordinates":[[[8.779265690965468,42.53851549761966],[8.778821272541183,42.53403273789675],[8.775790627549267,42.53419702210048],[8.775124474868145,42.52747289652825],[8.772094159876877,42.52763707472905],[8.771206657475975,42.5186716109541],[8.774236509859982,42.518507459420654],[8.774014561196081,42.51626611153243],[8.789162989321149,42.515444097635545],[8.789385516105009,42.51768541214096],[8.792415266157569,42.517520744767886],[8.792637925645499,42.51976205714337],[8.79566777423702,42.519597297108994],[8.797004784013632,42.53304522672785],[8.793974241488222,42.53321002691244],[8.79441981687919,42.5376927198114],[8.779265690965468,42.53851549761966]]]}},{"type":"Feature","properties":{"category":"observed_front","snapshot_index":3,"pass_time_utc":"2026-09-17T12:25:00+00:00","dt_local":"2026-09-17T14:25:00+02:00","area_km2":2.562,"label":"Activité observée","coherence_level":"indisponible","coherence_fraction":0.0,"projection_displayed":false,"model_version":"fire_progression_arrival_v1"},"geometry":{"type":"Polygon","coordinates":[[[8.779265690965468,42.53851549761966],[8.778821272541183,42.53403273789675],[8.775790627549267,42.53419702210048],[8.775124474868145,42.52747289652825],[8.778154772818283,42.527308632338375],[8.777710524922503,42.522825918021326],[8.792860602221351,42.522003374072646],[8.793306006644688,42.52648602157959],[8.796336202163644,42.52632124147138],[8.797004784013632,42.53304522672785],[8.793974241488222,42.53321002691244],[8.79441981687919,42.5376927198114],[8.779265690965468,42.53851549761966]]]}},{"type":"Feature","properties":{"category":"historical_support","snapshot_index":4,"pass_time_utc":"2026-09-17T13:04:00+00:00","dt_local":"2026-09-17T15:04:00+02:00","area_km2":4.188,"label":"Isoline temporelle","coherence_level":"indisponible","coherence_fraction":0.0,"projection_displayed":false,"model_version":"fire_progression_arrival_v1"},"geometry":{"type":"Polygon","coordinates":[[[8.779265690965468,42.53851549761966],[8.778821272541183,42.53403273789675],[8.775790627549267,42.53419702210048],[8.775124474868145,42.52747289652825],[8.772094159876877,42.52763707472905],[8.771206657475975,42.5186716109541],[8.774236509859982,42.518507459420654],[8.774014561196081,42.51626611153243],[8.789162989321149,42.515444097635545],[8.789385516105009,42.51768541214096],[8.792415266157569,42.517520744767886],[8.792637925645499,42.51976205714337],[8.79566777423702,42.519597297108994],[8.797004784013632,42.53304522672785],[8.793974241488222,42.53321002691244],[8.79441981687919,42.5376927198114],[8.779265690965468,42.53851549761966]]]}},{"type":"Feature","properties":{"category":"observed_front","snapshot_index":4,"pass_time_utc":"2026-09-17T13:04:00+00:00","dt_local":"2026-09-17T15:04:00+02:00","area_km2":2.875,"label":"Activité observée","coherence_level":"indisponible","coherence_fraction":0.0,"projection_displayed":false,"model_version":"fire_progression_arrival_v1"},"geometry":{"type":"Polygon","coordinates":[[[8.782074216856778,42.536109738614186],[8.781851900477308,42.53386836769428],[8.778821272541183,42.53403273789675],[8.778599088913706,42.531791364837254],[8.775568559611166,42.531955642369425],[8.774680458289637,42.522990168870024],[8.777710524922503,42.522825918021326],[8.777488426544581,42.52058456768909],[8.780518360487946,42.520420237532655],[8.780296163519328,42.518178898428985],[8.792415266157569,42.517520744767886],[8.792637925645499,42.51976205714337],[8.79566777423702,42.519597297108994],[8.796781906291097,42.53080389377064],[8.793751479443285,42.53096868726284],[8.793974241488222,42.53321002691244],[8.7909436818631,42.533374741102165],[8.791166345319395,42.5356160919753],[8.782074216856778,42.536109738614186]]]}},{"type":"Feature","properties":{"category":"firms_extent_snapshot","snapshot_index":5,"pass_time_utc":"2026-09-17T13:23:00+00:00","dt_local":"2026-09-17T15:23:00+02:00","label":"Emprise FIRMS cumulée à ce passage","interpretation":"Enveloppe des détections FIRMS, pas une surface brûlée","cumulative":true,"point_count":19,"extent_method":"cumulative_detection_extent_smoothed_landmasked_web_v1","local_cluster_link_m":10000.0,"model_version":"fire_progression_arrival_v1"},"geometry":{"type":"Polygon","coordinates":[[[8.775395390252347,42.52877703780867],[8.776648299092283,42.53062025033218],[8.779566638073746,42.53152839023241],[8.781782256963426,42.53280127628222],[8.783975933371838,42.53582540425023],[8.78670682979004,42.536785200779875],[8.788750961895664,42.536808111748435],[8.790292375940664,42.536162810857064],[8.79202205035525,42.53445356819852],[8.792563352850047,42.53059694786562],[8.792158928700319,42.528430848431555],[8.793315408640012,42.52614133706093],[8.793272414447303,42.52483182082306],[8.790537118809619,42.5222651036933],[8.786648720648092,42.521691168831204],[8.783614385651193,42.520050897531796],[8.781499553485713,42.52001186790317],[8.776775041004704,42.52266893432508],[8.776337076251956,42.523882623169314],[8.776626017836897,42.525900000553264],[8.775395390252347,42.52877703780867]]]}},{"type":"Feature","properties":{"category":"historical_support","snapshot_index":5,"pass_time_utc":"2026-09-17T13:23:00+00:00","dt_local":"2026-09-17T15:23:00+02:00","area_km2":4.438,"label":"Isoline temporelle","coherence_level":"indisponible","coherence_fraction":0.0,"projection_displayed":false,"model_version":"fire_progression_arrival_v1"},"geometry":{"type":"Polygon","coordinates":[[[8.779265690965468,42.53851549761966],[8.778821272541183,42.53403273789675],[8.775790627549267,42.53419702210048],[8.775124474868145,42.52747289652825],[8.772094159876877,42.52763707472905],[8.771206657475975,42.5186716109541],[8.774236509859982,42.518507459420654],[8.774014561196081,42.51626611153243],[8.789162989321149,42.515444097635545],[8.789385516105009,42.51768541214096],[8.792415266157569,42.517520744767886],[8.792637925645499,42.51976205714337],[8.79566777423702,42.519597297108994],[8.796113375754794,42.524079922135805],[8.79914343852186,42.523915062738915],[8.80003530943055,42.532880340549134],[8.793974241488222,42.53321002691244],[8.79441981687919,42.5376927198114],[8.779265690965468,42.53851549761966]]]}},{"type":"Feature","properties":{"category":"observed_front","snapshot_index":5,"pass_time_utc":"2026-09-17T13:23:00+00:00","dt_local":"2026-09-17T15:23:00+02:00","area_km2":3.0,"label":"Activité observée","coherence_level":"indisponible","coherence_fraction":0.0,"projection_displayed":false,"model_version":"fire_progression_arrival_v1"},"geometry":{"type":"Polygon","coordinates":[[[8.782296550302782,42.538351114066295],[8.782074216856778,42.536109738614186],[8.77904347322445,42.53627411549196],[8.777710524922503,42.522825918021326],[8.780740574509375,42.52266158119126],[8.780518360487946,42.520420237532655],[8.79566777423702,42.519597297108994],[8.796113375754794,42.524079922135805],[8.79914343852186,42.523915062738915],[8.80003530943055,42.532880340549134],[8.793974241488222,42.53321002691244],[8.79441981687919,42.5376927198114],[8.782296550302782,42.538351114066295]]]}}]}