{"type":"FeatureCollection","name":"detection_envelopes","crs":{"type":"name","properties":{"name":"urn:ogc:def:crs:OGC:1.3:CRS84"}},"features":[{"type":"Feature","properties":{"cluster_id":1,"snapshot_index":1,"estimated_time_utc":"2026-09-19T12:46:00Z","observed_until_utc":"2026-09-19T12:46:00Z","target_time_utc":"2026-09-19T12:46:00Z","arrival_h":0.0,"hours_ago":71.8,"supported_detections_cumulative":8,"sources_cumulative":"VIIRS_NOAA20_NRT","last_source":"VIIRS_NOAA20_NRT","last_satellite":"N20","last_instrument":"VIIRS","detected_area_km2":2.3159983891837053,"product_type":"cumulative_active_fire_detection_extent"},"geometry":{"type":"LineString","coordinates":[[-0.727138746373957,44.96978245676702],[-0.724818057272537,44.968534737970366],[-0.724419998711236,44.96648757829424],[-0.726177571636749,44.96484019401808],[-0.72906116403176,44.96455753689887],[-0.731349906821377,44.96576725357127],[-0.731821040780541,44.96771854201001],[-0.73512784975455,44.966931707606776],[-0.736968419271667,44.967051956443285],[-0.738511841011332,44.967773920403616],[-0.739972718386317,44.969377043244386],[-0.741910337447565,44.96938662086576],[-0.743805933435933,44.96996722703169],[-0.745772978205043,44.97189703564246],[-0.748003487847555,44.97175657758552],[-0.749715898329819,44.97225074439315],[-0.751063968664884,44.973545271764024],[-0.751060004146536,44.975322916648764],[-0.749836946960844,44.97665830726945],[-0.747505135077933,44.97759845414233],[-0.747049164695825,44.97969459359527],[-0.745716078545642,44.98094447555947],[-0.744001117977009,44.98143466319217],[-0.741575461324199,44.98132681256767],[-0.739137766974547,44.982345572603954],[-0.73699135453095,44.982268067310514],[-0.734676286143375,44.98064591381401],[-0.734483331721973,44.97934093139308],[-0.735056569873933,44.978246642947724],[-0.733745454344334,44.9765008724313],[-0.732849155159224,44.97623600993904],[-0.729598745271318,44.97653248309603],[-0.727277721914944,44.97528481319917],[-0.726793773534349,44.973540671677455],[-0.727902517129685,44.97199108925521],[-0.727138746373957,44.96978245676702]]}},{"type":"Feature","properties":{"cluster_id":1,"snapshot_index":2,"estimated_time_utc":"2026-09-20T19:40:00Z","observed_until_utc":"2026-09-20T19:40:00Z","target_time_utc":"2026-09-21T00:46:00Z","arrival_h":30.9,"hours_ago":40.9,"supported_detections_cumulative":9,"sources_cumulative":"MODIS_NRT, VIIRS_NOAA20_NRT","last_source":"MODIS_NRT","last_satellite":"Terra","last_instrument":"MODIS","detected_area_km2":4.080288013181642,"product_type":"cumulative_active_fire_detection_extent"},"geometry":{"type":"MultiLineString","coordinates":[[[-0.726841174947548,44.96971794329335],[-0.724671916394062,44.968339750770035],[-0.724510883892412,44.96627634455972],[-0.726452226009194,44.96473644733866],[-0.729358710619961,44.96462204433755],[-0.73138178291968,44.96580516573644],[-0.731821040780541,44.96771854201001],[-0.73512784975455,44.966931707606776],[-0.736968419271667,44.967051956443285],[-0.738511841011332,44.967773920403616],[-0.739972718386317,44.969377043244386],[-0.741910337447565,44.96938662086576],[-0.743805933435933,44.96996722703169],[-0.745772978205043,44.97189703564246],[-0.748003487847555,44.97175657758552],[-0.749715898329819,44.97225074439315],[-0.751063968664884,44.973545271764024],[-0.751060004146536,44.975322916648764],[-0.749836946960844,44.97665830726945],[-0.747505135077933,44.97759845414233],[-0.747049164695825,44.97969459359527],[-0.745716078545642,44.98094447555947],[-0.744001117977009,44.98143466319217],[-0.741575461324199,44.98132681256767],[-0.739137766974547,44.982345572603954],[-0.73699135453095,44.982268067310514],[-0.734676286143375,44.98064591381401],[-0.734483331721973,44.97934093139308],[-0.735056569873933,44.978246642947724],[-0.733745454344334,44.9765008724313],[-0.732849155159224,44.97623600993904],[-0.729598745271318,44.97653248309603],[-0.727277721914944,44.97528481319917],[-0.726793773534349,44.973540671677455],[-0.727902517129685,44.97199108925521],[-0.726841174947548,44.96971794329335]],[[-0.733063160155759,45.007639450658],[-0.734309079733466,45.00515773747441],[-0.736798728899719,45.00320313434576],[-0.740153061928181,45.00207314367939],[-0.743861532294363,45.001939743187776],[-0.747359748310783,45.002823234952835],[-0.750115285786829,45.004589158678776],[-0.75170865840776,45.00696873668465],[-0.751897169404546,45.0095997529257],[-0.750651930331855,45.01208166597496],[-0.748162369988061,45.01403658374918],[-0.744807482068494,45.015166819525966],[-0.741098138145322,45.01530025201044],[-0.737599241623883,45.01441656037973],[-0.734843615325402,45.0126503220082],[-0.73325079759558,45.01027049889192],[-0.733063160155759,45.007639450658]]]}},{"type":"Feature","properties":{"cluster_id":1,"snapshot_index":3,"estimated_time_utc":"2026-09-22T12:34:00Z","observed_until_utc":"2026-09-22T12:34:00Z","target_time_utc":"2026-09-22T12:34:00Z","arrival_h":71.8,"hours_ago":0.0,"supported_detections_cumulative":14,"sources_cumulative":"MODIS_NRT, VIIRS_NOAA20_NRT, VIIRS_NOAA21_NRT","last_source":"VIIRS_NOAA21_NRT","last_satellite":"N21","last_instrument":"VIIRS","detected_area_km2":4.1492675126202805,"product_type":"cumulative_active_fire_detection_extent"},"geometry":{"type":"MultiLineString","coordinates":[[[-0.726165125817004,44.96949464304327],[-0.724671916394062,44.968339750770035],[-0.724334243698737,44.96679058913823],[-0.725265836862631,44.965369329729775],[-0.727152633536915,44.964554998134616],[-0.730346360418529,44.96499114007768],[-0.731860279985745,44.96676448687008],[-0.73332185897457,44.96750128609631],[-0.735499067671599,44.966904049987406],[-0.737644481971395,44.96727519087527],[-0.739866067268731,44.96933148765438],[-0.743805933435933,44.96996722703169],[-0.745666317578592,44.971851485580764],[-0.748430385681402,44.97181736412917],[-0.75054738409369,44.972842844911895],[-0.751236426008377,44.97480862839414],[-0.749816553983419,44.9766701475397],[-0.749515768493201,44.97896292978191],[-0.744726322517232,44.981311110654545],[-0.741575461324199,44.98132681256767],[-0.738770877288361,44.982394688415816],[-0.736315113561879,44.982044827948464],[-0.734655433118968,44.98060431579438],[-0.734483331721973,44.97934093139308],[-0.735056569873933,44.978246642947724],[-0.733745454344334,44.9765008724313],[-0.732849155159224,44.97623600993904],[-0.729598745271318,44.97653248309603],[-0.727277721914944,44.97528481319917],[-0.726793773534349,44.973540671677455],[-0.727902517129685,44.97199108925521],[-0.726165125817004,44.96949464304327]],[[-0.733259271709038,45.00694659623041],[-0.734863982891324,45.00457085614346],[-0.737627924969554,45.00281155615045],[-0.741130333385099,45.00193646557748],[-0.74483814650279,45.002078766075506],[-0.74818707256043,45.00321680107861],[-0.750667387195679,45.00517736848892],[-0.751901464499175,45.00766205784285],[-0.751701279110039,45.01029264068036],[-0.750097118201344,45.01266862722455],[-0.747333081391559,45.014428241639486],[-0.743829988731759,45.01530353041494],[-0.740121302678119,45.015161195795635],[-0.736771826346895,45.014022914335285],[-0.734291606443221,45.01206203250306],[-0.733058213383976,45.00957714494666],[-0.733259271709038,45.00694659623041]]]}}],"metadata":{"generated_at_utc":"2026-09-22T17:46:19.322489Z","product_type":"cumulative_active_fire_detection_extent","product_label":"Emprises cumulées des détections actives FIRMS","not_a_burn_perimeter":true,"not_a_continuous_fire_front":true,"not_an_arrival_time_interpolation":true,"snapshot_step_hours":6,"confidence_filter":{"VIIRS":["nominal","high"],"MODIS_minimum":30},"footprint_radius_m":{"VIIRS":300.0,"MODIS":750.0},"same_pass_neighbour_m":2000.0,"continuity_distance_m":3000.0,"clusters":[{"cluster_id":1,"first_supported_detection_utc":"2026-09-19T12:46:00Z","last_supported_detection_utc":"2026-09-22T12:34:00Z","pass_states":3,"published_snapshots":3,"final_detected_area_km2":3.9913221050604584}]},"bbox":[-0.7519014644991749,44.964554998134616,-0.7243342436987366,45.01530353041494]}