{"type":"FeatureCollection","name":"fire_progression_arrival_v1","features":[{"type":"Feature","properties":{"category":"arrival_step","arrival_snapshot_index":1,"first_detected_utc":"2026-09-10T12:57:00+00:00","first_detected_local":"2026-09-10T14:57:00+02:00","area_km2":3.688,"label":"Première détection FIRMS","model_version":"fire_progression_arrival_v1"},"geometry":{"type":"Polygon","coordinates":[[[-0.7501215474570704,44.980306025094336],[-0.7499709878296903,44.97805763977033],[-0.7531387780600465,44.97795073730057],[-0.7525361532261401,44.96895722587459],[-0.7493688701030542,44.9690641109164],[-0.7492183708598565,44.966815731830366],[-0.746051202415798,44.966922522337136],[-0.745900841987919,44.9646741401562],[-0.7395667224128735,44.96488744193773],[-0.7394166275156869,44.96263905232417],[-0.7267487509154927,44.963064556421976],[-0.72689833885575,44.965312963379404],[-0.7237312129407121,44.96541911829482],[-0.7244786988075096,44.97666119358788],[-0.7276464585886148,44.97655501703564],[-0.7277961185516072,44.978803431517036],[-0.7341318556843464,44.978590799155626],[-0.7342817812792921,44.98083920621194],[-0.7501215474570704,44.980306025094336]]]}},{"type":"Feature","properties":{"category":"historical_support","snapshot_index":1,"pass_time_utc":"2026-09-10T12:57:00+00:00","dt_local":"2026-09-10T14:57:00+02:00","area_km2":3.688,"label":"Isoline temporelle","coherence_level":"indisponible","coherence_fraction":0.0,"projection_displayed":false,"model_version":"fire_progression_arrival_v1"},"geometry":{"type":"Polygon","coordinates":[[[-0.7501215474570704,44.980306025094336],[-0.7499709878296903,44.97805763977033],[-0.7531387780600465,44.97795073730057],[-0.7525361532261401,44.96895722587459],[-0.7493688701030542,44.9690641109164],[-0.7492183708598565,44.966815731830366],[-0.746051202415798,44.966922522337136],[-0.745900841987919,44.9646741401562],[-0.7395667224128735,44.96488744193773],[-0.7394166275156869,44.96263905232417],[-0.7267487509154927,44.963064556421976],[-0.72689833885575,44.965312963379404],[-0.7237312129407121,44.96541911829482],[-0.7244786988075096,44.97666119358788],[-0.7276464585886148,44.97655501703564],[-0.7277961185516072,44.978803431517036],[-0.7341318556843464,44.978590799155626],[-0.7342817812792921,44.98083920621194],[-0.7501215474570704,44.980306025094336]]]}},{"type":"Feature","properties":{"category":"observed_front","snapshot_index":1,"pass_time_utc":"2026-09-10T12:57:00+00:00","dt_local":"2026-09-10T14:57:00+02:00","area_km2":3.688,"label":"Activité observée","coherence_level":"indisponible","coherence_fraction":0.0,"projection_displayed":false,"model_version":"fire_progression_arrival_v1"},"geometry":{"type":"Polygon","coordinates":[[[-0.7501215474570704,44.980306025094336],[-0.7499709878296903,44.97805763977033],[-0.7531387780600465,44.97795073730057],[-0.7525361532261401,44.96895722587459],[-0.7493688701030542,44.9690641109164],[-0.7492183708598565,44.966815731830366],[-0.746051202415798,44.966922522337136],[-0.745900841987919,44.9646741401562],[-0.7395667224128735,44.96488744193773],[-0.7394166275156869,44.96263905232417],[-0.7267487509154927,44.963064556421976],[-0.72689833885575,44.965312963379404],[-0.7237312129407121,44.96541911829482],[-0.7244786988075096,44.97666119358788],[-0.7276464585886148,44.97655501703564],[-0.7277961185516072,44.978803431517036],[-0.7341318556843464,44.978590799155626],[-0.7342817812792921,44.98083920621194],[-0.7501215474570704,44.980306025094336]]]}},{"type":"Feature","properties":{"category":"firms_extent_snapshot","snapshot_index":2,"pass_time_utc":"2026-09-13T12:57:00+00:00","dt_local":"2026-09-13T14:57:00+02:00","label":"Emprise FIRMS cumulée à ce passage","interpretation":"Enveloppe des détections FIRMS, pas une surface brûlée","cumulative":true,"point_count":10,"extent_method":"cumulative_detection_extent_smoothed_landmasked_web_v1","local_cluster_link_m":10000.0,"model_version":"fire_progression_arrival_v1"},"geometry":{"type":"Polygon","coordinates":[[[-0.7511092123939042,44.97451186167468],[-0.7505692618660643,44.97603167431477],[-0.7478824627292469,44.977840925498604],[-0.7469359075929443,44.97979833500939],[-0.7458222571605716,44.98077724470125],[-0.7395419565247298,44.982011979649805],[-0.7376943582144881,44.98198287920754],[-0.7353956563188813,44.980715792665606],[-0.7347366168106416,44.9781424767809],[-0.7338665872304357,44.977104385643706],[-0.7299486115482132,44.975913096278184],[-0.728644042111832,44.97498367011828],[-0.7272433961903255,44.9696259670638],[-0.7280967970614531,44.96852325307927],[-0.7295627766946297,44.96781616876846],[-0.7367155117770288,44.966997147974524],[-0.7401613319851699,44.96903762825716],[-0.7437172531497144,44.96992240332443],[-0.7459617942873166,44.971557756203644],[-0.7495806348065731,44.97247414470709],[-0.7511092123939042,44.97451186167468]]]}},{"type":"Feature","properties":{"category":"historical_support","snapshot_index":2,"pass_time_utc":"2026-09-13T12:57:00+00:00","dt_local":"2026-09-13T14:57:00+02:00","area_km2":3.688,"label":"Isoline temporelle","coherence_level":"indisponible","coherence_fraction":0.0,"projection_displayed":false,"model_version":"fire_progression_arrival_v1"},"geometry":{"type":"Polygon","coordinates":[[[-0.7501215474570704,44.980306025094336],[-0.7499709878296903,44.97805763977033],[-0.7531387780600465,44.97795073730057],[-0.7525361532261401,44.96895722587459],[-0.7493688701030542,44.9690641109164],[-0.7492183708598565,44.966815731830366],[-0.746051202415798,44.966922522337136],[-0.745900841987919,44.9646741401562],[-0.7395667224128735,44.96488744193773],[-0.7394166275156869,44.96263905232417],[-0.7267487509154927,44.963064556421976],[-0.72689833885575,44.965312963379404],[-0.7237312129407121,44.96541911829482],[-0.7244786988075096,44.97666119358788],[-0.7276464585886148,44.97655501703564],[-0.7277961185516072,44.978803431517036],[-0.7341318556843464,44.978590799155626],[-0.7342817812792921,44.98083920621194],[-0.7501215474570704,44.980306025094336]]]}},{"type":"Feature","properties":{"category":"observed_front","snapshot_index":2,"pass_time_utc":"2026-09-13T12:57:00+00:00","dt_local":"2026-09-13T14:57:00+02:00","area_km2":3.562,"label":"Activité observée","coherence_level":"indisponible","coherence_fraction":0.0,"projection_displayed":false,"model_version":"fire_progression_arrival_v1"},"geometry":{"type":"Polygon","coordinates":[[[-0.7501215474570704,44.980306025094336],[-0.7499709878296903,44.97805763977033],[-0.7531387780600465,44.97795073730057],[-0.7525361532261401,44.96895722587459],[-0.7493688701030542,44.9690641109164],[-0.7492183708598565,44.966815731830366],[-0.746051202415798,44.966922522337136],[-0.745900841987919,44.9646741401562],[-0.7395667224128735,44.96488744193773],[-0.7394166275156869,44.96263905232417],[-0.7267487509154927,44.963064556421976],[-0.72689833885575,44.965312963379404],[-0.7237312129407121,44.96541911829482],[-0.7243291776453801,44.97441277602428],[-0.7274968106330202,44.974306603799775],[-0.7276464585886148,44.97655501703564],[-0.7308142063623206,44.97644875028652],[-0.7309639931274619,44.97869716043633],[-0.7341318556843464,44.978590799155626],[-0.7342817812792921,44.98083920621194],[-0.7501215474570704,44.980306025094336]]]}}]}