{"type":"FeatureCollection","name":"detection_envelopes","crs":{"type":"name","properties":{"name":"urn:ogc:def:crs:OGC:1.3:CRS84"}},"features":[{"type":"Feature","properties":{"cluster_id":1,"snapshot_index":1,"estimated_time_utc":"2026-08-14T12:00:00Z","observed_until_utc":"2026-08-14T12:00:00Z","target_time_utc":"2026-08-14T12:00:00Z","arrival_h":0.0,"hours_ago":1.6666666666666667,"supported_detections_cumulative":2,"sources_cumulative":"VIIRS_SNPP_NRT","last_source":"VIIRS_SNPP_NRT","last_satellite":"N","last_instrument":"VIIRS","detected_area_km2":0.5645409244296111,"product_type":"cumulative_active_fire_detection_extent"},"geometry":{"type":"MultiLineString","coordinates":[[[3.321520933571972,43.8228465700865],[3.320186500715956,43.82102098266352],[3.31746006818821,43.820413228688516],[3.314938597713609,43.82137928509561],[3.314099033535426,43.823353303684954],[3.315433326433741,43.82517896824521],[3.318159964704391,43.82578677469324],[3.320681575136692,43.824820641148904],[3.321520933571972,43.8228465700865]],[[3.319321431516373,43.83036664374815],[3.31798689335735,43.82854102085599],[3.315260125556047,43.82793320903678],[3.312738286203281,43.8288992191055],[3.311898535592004,43.83087323000528],[3.313232933745033,43.832698930032684],[3.315959907335575,43.83330679432982],[3.318481886694334,43.832340707125866],[3.319321431516373,43.83036664374815]]]}},{"type":"Feature","properties":{"cluster_id":1,"snapshot_index":2,"estimated_time_utc":"2026-08-14T13:40:00Z","observed_until_utc":"2026-08-14T13:40:00Z","target_time_utc":"2026-08-14T13:40:00Z","arrival_h":1.6666666666666667,"hours_ago":0.0,"supported_detections_cumulative":21,"sources_cumulative":"VIIRS_NOAA20_NRT, VIIRS_NOAA21_NRT, VIIRS_SNPP_NRT","last_source":"VIIRS_SNPP_NRT","last_satellite":"N","last_instrument":"VIIRS","detected_area_km2":3.28775982394115,"product_type":"cumulative_active_fire_detection_extent"},"geometry":{"type":"LineString","coordinates":[[3.321456612781287,43.82254119631382],[3.320413238495521,43.821168565965706],[3.318190728456666,43.82041542476102],[3.316341735244326,43.820619510535174],[3.313760489177744,43.82181486289034],[3.311125460711754,43.82579567948189],[3.311402989143911,43.82835859129596],[3.312197431612362,43.829537334542046],[3.311917043641968,43.830266839529365],[3.30814807471548,43.830152338183325],[3.305997178796834,43.83185556469991],[3.306485448966678,43.83417631263881],[3.309300939654964,43.83534072998766],[3.31057577028734,43.83640240142268],[3.309638021670039,43.838633154316355],[3.311050843049108,43.84109378090654],[3.309270501979563,43.842676753112706],[3.308867658424819,43.84417312897739],[3.30968758332037,43.845623203830456],[3.31148250579863,43.84649919114195],[3.314846069400154,43.84624279635648],[3.317535480594747,43.84681852973032],[3.319843604527234,43.846213217248334],[3.321155769329621,43.8446141122735],[3.320745053001507,43.841731554812036],[3.325320553625331,43.840834957326685],[3.326483487359653,43.83956388593106],[3.326535526031701,43.83812004241176],[3.328623568214455,43.83752301657432],[3.329833325649182,43.83622377486189],[3.329344090054318,43.833903128582826],[3.327091513933326,43.8327994412231],[3.325786717353022,43.83113084754618],[3.323956637554577,43.8305427214825],[3.322941585558092,43.82896506450466],[3.32347900970022,43.826974373290376],[3.322711197316944,43.82578654674116],[3.321375322997922,43.825039849856864],[3.321456612781287,43.82254119631382]]}}],"metadata":{"generated_at_utc":"2026-08-18T12:02:07.747982Z","product_type":"cumulative_active_fire_detection_extent","product_label":"Emprises cumulées des détections actives FIRMS","not_a_burn_perimeter":true,"not_a_continuous_fire_front":true,"not_an_arrival_time_interpolation":true,"snapshot_step_hours":6,"confidence_filter":{"VIIRS":["nominal","high"],"MODIS_minimum":30},"footprint_radius_m":{"VIIRS":300.0,"MODIS":750.0},"same_pass_neighbour_m":2000.0,"continuity_distance_m":3000.0,"clusters":[{"cluster_id":1,"first_supported_detection_utc":"2026-08-14T12:00:00Z","last_supported_detection_utc":"2026-08-14T13:40:00Z","pass_states":4,"published_snapshots":2,"final_detected_area_km2":3.28775982394115}]},"bbox":[3.305997178796834,43.820413228688516,3.329833325649182,43.84681852973032]}