{"type":"FeatureCollection","name":"fire_progression_arrival_v1","features":[{"type":"Feature","properties":{"category":"arrival_step","arrival_snapshot_index":1,"first_detected_utc":"2026-08-14T12:00:00+00:00","first_detected_local":"2026-08-14T14:00:00+02:00","area_km2":3.125,"label":"Première détection FIRMS","model_version":"fire_progression_arrival_v1"},"geometry":{"type":"Polygon","coordinates":[[[3.3107953502379894,43.8345686845695],[3.3107831179139047,43.83231894854098],[3.307675318350013,43.83232775889434],[3.3076026783360675,43.81882940669677],[3.3107097441850573,43.81882059849759],[3.3106975185984657,43.816570884542415],[3.3138044612332744,43.81656198818262],[3.3137921143663243,43.81431227775652],[3.3231125696757666,43.81428505866943],[3.3231252832692344,43.81653476798617],[3.3262322219596667,43.816525517548484],[3.326245058805216,43.81877522965468],[3.3293521187369426,43.81876589031701],[3.3294039653249348,43.827764768817644],[3.326296416291234,43.82777410967795],[3.326309258189291,43.83002383756691],[3.323201585845177,43.830033090266916],[3.3232143064447928,43.83228282167965],[3.320106510790028,43.83229198621207],[3.3201191100719485,43.8345417211417],[3.3107953502379894,43.8345686845695]]]}},{"type":"Feature","properties":{"category":"arrival_step","arrival_snapshot_index":3,"first_detected_utc":"2026-08-14T13:04:00+00:00","first_detected_local":"2026-08-14T15:04:00+02:00","area_km2":1.188,"label":"Première détection FIRMS","model_version":"fire_progression_arrival_v1"},"geometry":{"type":"Polygon","coordinates":[[[3.3108198177751333,43.839068166043674],[3.3108075835250275,43.83681842373816],[3.3076995393124924,43.836827234809675],[3.307675318350013,43.83232775889434],[3.3107831179139047,43.83231894854098],[3.3107953502379894,43.8345686845695],[3.3201191100719485,43.8345417211417],[3.320106510790028,43.83229198621207],[3.3232143064447928,43.83228282167965],[3.323201585845177,43.830033090266916],[3.326309258189291,43.83002383756691],[3.326296416291234,43.82777410967795],[3.3294039653249348,43.827764768817644],[3.3294558282387747,43.83676369771736],[3.3263477899490943,43.83677304010056],[3.3263606358913047,43.83902278055638],[3.3108198177751333,43.839068166043674]]]}},{"type":"Feature","properties":{"category":"arrival_step","arrival_snapshot_index":4,"first_detected_utc":"2026-08-14T13:40:00+00:00","first_detected_local":"2026-08-14T15:40:00+02:00","area_km2":1.25,"label":"Première détection FIRMS","model_version":"fire_progression_arrival_v1"},"geometry":{"type":"Polygon","coordinates":[[[3.3108565263049923,43.8458174117483],[3.310844289165002,43.843567660052045],[3.307735877907272,43.84357647220094],[3.307711651223831,43.83907697747431],[3.304603483718979,43.83908570034923],[3.3045435452936376,43.82783701665037],[3.307651101200383,43.82782829555281],[3.3076995393124924,43.836827234809675],[3.3108075835250275,43.83681842373816],[3.3108198177751333,43.839068166043674],[3.3263606358913047,43.83902278055638],[3.326373482844852,43.84127252414566],[3.323265198857949,43.84128177873137],[3.3232779244655024,43.843531525828006],[3.3201695171192074,43.84354069222819],[3.3201821213615013,43.845790442825326],[3.3108565263049923,43.8458174117483]]]}},{"type":"Feature","properties":{"category":"firms_extent_snapshot","snapshot_index":1,"pass_time_utc":"2026-08-14T12:00:00+00:00","dt_local":"2026-08-14T14:00:00+02:00","label":"Emprise FIRMS cumulée à ce passage","interpretation":"Enveloppe des détections FIRMS, pas une surface brûlée","cumulative":true,"point_count":2,"extent_method":"cumulative_detection_extent_smoothed_landmasked_web_v1","local_cluster_link_m":10000.0,"model_version":"fire_progression_arrival_v1"},"geometry":{"type":"Polygon","coordinates":[[[3.3118826247870583,43.83063072146307],[3.3126909368094024,43.83229673663224],[3.3146157463617736,43.83321976446808],[3.3170502313708075,43.83310878977104],[3.318867047777351,43.83193053446782],[3.319317948046042,43.8303447219575],[3.318210202337097,43.82828983457341],[3.3181895226408225,43.82706385292083],[3.318919946311881,43.82595768023118],[3.3209172052434974,43.8245900267438],[3.3215257210572426,43.82329856979502],[3.321089673544252,43.821818399110505],[3.31961999260177,43.82074217219205],[3.316713837955891,43.82052102817243],[3.314553479530202,43.8217894411859],[3.314102514578551,43.823375225546755],[3.315210017404675,43.82543014835565],[3.3152306326119407,43.82665612932461],[3.3145001286276243,43.827762277787016],[3.312462086838971,43.82917654627012],[3.3118826247870583,43.83063072146307]]]}},{"type":"Feature","properties":{"category":"historical_support","snapshot_index":1,"pass_time_utc":"2026-08-14T12:00:00+00:00","dt_local":"2026-08-14T14:00:00+02:00","area_km2":3.125,"label":"Isoline temporelle","coherence_level":"indisponible","coherence_fraction":0.0,"projection_displayed":false,"model_version":"fire_progression_arrival_v1"},"geometry":{"type":"Polygon","coordinates":[[[3.3107953502379894,43.8345686845695],[3.3107831179139047,43.83231894854098],[3.307675318350013,43.83232775889434],[3.3076026783360675,43.81882940669677],[3.3107097441850573,43.81882059849759],[3.3106975185984657,43.816570884542415],[3.3138044612332744,43.81656198818262],[3.3137921143663243,43.81431227775652],[3.3231125696757666,43.81428505866943],[3.3231252832692344,43.81653476798617],[3.3262322219596667,43.816525517548484],[3.326245058805216,43.81877522965468],[3.3293521187369426,43.81876589031701],[3.3294039653249348,43.827764768817644],[3.326296416291234,43.82777410967795],[3.326309258189291,43.83002383756691],[3.323201585845177,43.830033090266916],[3.3232143064447928,43.83228282167965],[3.320106510790028,43.83229198621207],[3.3201191100719485,43.8345417211417],[3.3107953502379894,43.8345686845695]]]}},{"type":"Feature","properties":{"category":"observed_front","snapshot_index":1,"pass_time_utc":"2026-08-14T12:00:00+00:00","dt_local":"2026-08-14T14:00:00+02:00","area_km2":3.125,"label":"Activité observée","coherence_level":"indisponible","coherence_fraction":0.0,"projection_displayed":false,"model_version":"fire_progression_arrival_v1"},"geometry":{"type":"Polygon","coordinates":[[[3.3107953502379894,43.8345686845695],[3.3107831179139047,43.83231894854098],[3.307675318350013,43.83232775889434],[3.3076026783360675,43.81882940669677],[3.3107097441850573,43.81882059849759],[3.3106975185984657,43.816570884542415],[3.3138044612332744,43.81656198818262],[3.3137921143663243,43.81431227775652],[3.3231125696757666,43.81428505866943],[3.3231252832692344,43.81653476798617],[3.3262322219596667,43.816525517548484],[3.326245058805216,43.81877522965468],[3.3293521187369426,43.81876589031701],[3.3294039653249348,43.827764768817644],[3.326296416291234,43.82777410967795],[3.326309258189291,43.83002383756691],[3.323201585845177,43.830033090266916],[3.3232143064447928,43.83228282167965],[3.320106510790028,43.83229198621207],[3.3201191100719485,43.8345417211417],[3.3107953502379894,43.8345686845695]]]}},{"type":"Feature","properties":{"category":"historical_support","snapshot_index":2,"pass_time_utc":"2026-08-14T12:19:00+00:00","dt_local":"2026-08-14T14:19:00+02:00","area_km2":3.125,"label":"Isoline temporelle","coherence_level":"indisponible","coherence_fraction":0.0,"projection_displayed":false,"model_version":"fire_progression_arrival_v1"},"geometry":{"type":"Polygon","coordinates":[[[3.3107953502379894,43.8345686845695],[3.3107831179139047,43.83231894854098],[3.307675318350013,43.83232775889434],[3.3076026783360675,43.81882940669677],[3.3107097441850573,43.81882059849759],[3.3106975185984657,43.816570884542415],[3.3138044612332744,43.81656198818262],[3.3137921143663243,43.81431227775652],[3.3231125696757666,43.81428505866943],[3.3231252832692344,43.81653476798617],[3.3262322219596667,43.816525517548484],[3.326245058805216,43.81877522965468],[3.3293521187369426,43.81876589031701],[3.3294039653249348,43.827764768817644],[3.326296416291234,43.82777410967795],[3.326309258189291,43.83002383756691],[3.323201585845177,43.830033090266916],[3.3232143064447928,43.83228282167965],[3.320106510790028,43.83229198621207],[3.3201191100719485,43.8345417211417],[3.3107953502379894,43.8345686845695]]]}},{"type":"Feature","properties":{"category":"observed_front","snapshot_index":2,"pass_time_utc":"2026-08-14T12:19:00+00:00","dt_local":"2026-08-14T14:19:00+02:00","area_km2":2.312,"label":"Activité observée","coherence_level":"indisponible","coherence_fraction":0.0,"projection_displayed":false,"model_version":"fire_progression_arrival_v1"},"geometry":{"type":"Polygon","coordinates":[[[3.313878562843945,43.830060317120385],[3.3138662101452874,43.82781058774472],[3.3107586561541416,43.82781948591758],[3.310746426718236,43.82556975932927],[3.3076389940551048,43.82557856860547],[3.3076026783360675,43.81882940669677],[3.3107097441850573,43.81882059849759],[3.3106975185984657,43.816570884542415],[3.3138044612332744,43.81656198818262],[3.3137921143663243,43.81431227775652],[3.3231125696757666,43.81428505866943],[3.3231252832692344,43.81653476798617],[3.3262322219596667,43.816525517548484],[3.326245058805216,43.81877522965468],[3.3293521187369426,43.81876589031701],[3.3293910021476893,43.82551504445933],[3.326283575403918,43.825524384938944],[3.326296416291234,43.82777410967795],[3.323188866246794,43.82778336200085],[3.323201585845177,43.830033090266916],[3.313878562843945,43.830060317120385]]]}},{"type":"Feature","properties":{"category":"historical_support","snapshot_index":3,"pass_time_utc":"2026-08-14T13:04:00+00:00","dt_local":"2026-08-14T15:04:00+02:00","area_km2":4.312,"label":"Isoline temporelle","coherence_level":"indisponible","coherence_fraction":0.0,"projection_displayed":false,"model_version":"fire_progression_arrival_v1"},"geometry":{"type":"Polygon","coordinates":[[[3.3108198177751333,43.839068166043674],[3.3108075835250275,43.83681842373816],[3.3076995393124924,43.836827234809675],[3.3076026783360675,43.81882940669677],[3.3107097441850573,43.81882059849759],[3.3106975185984657,43.816570884542415],[3.3138044612332744,43.81656198818262],[3.3137921143663243,43.81431227775652],[3.3231125696757666,43.81428505866943],[3.3231252832692344,43.81653476798617],[3.3262322219596667,43.816525517548484],[3.326245058805216,43.81877522965468],[3.3293521187369426,43.81876589031701],[3.3294558282387747,43.83676369771736],[3.3263477899490943,43.83677304010056],[3.3263606358913047,43.83902278055638],[3.3108198177751333,43.839068166043674]]]}},{"type":"Feature","properties":{"category":"observed_front","snapshot_index":3,"pass_time_utc":"2026-08-14T13:04:00+00:00","dt_local":"2026-08-14T15:04:00+02:00","area_km2":4.0,"label":"Activité observée","coherence_level":"indisponible","coherence_fraction":0.0,"projection_displayed":false,"model_version":"fire_progression_arrival_v1"},"geometry":{"type":"Polygon","coordinates":[[[3.3108198177751333,43.839068166043674],[3.3108075835250275,43.83681842373816],[3.3076995393124924,43.836827234809675],[3.3076026783360675,43.81882940669677],[3.3107097441850573,43.81882059849759],[3.3106975185984657,43.816570884542415],[3.3231252832692344,43.81653476798617],[3.323137997863226,43.818784480469375],[3.326245058805216,43.81877522965468],[3.326257896661028,43.82102494492402],[3.329365078853814,43.82101560520572],[3.3294558282387747,43.83676369771736],[3.3263477899490943,43.83677304010056],[3.3263606358913047,43.83902278055638],[3.3108198177751333,43.839068166043674]]]}},{"type":"Feature","properties":{"category":"firms_extent_snapshot","snapshot_index":4,"pass_time_utc":"2026-08-14T13:40:00+00:00","dt_local":"2026-08-14T15:40:00+02:00","label":"Emprise FIRMS cumulée à ce passage","interpretation":"Enveloppe des détections FIRMS, pas une surface brûlée","cumulative":true,"point_count":21,"extent_method":"cumulative_detection_extent_smoothed_landmasked_web_v1","local_cluster_link_m":10000.0,"model_version":"fire_progression_arrival_v1"},"geometry":{"type":"Polygon","coordinates":[[[3.305832491295894,43.832660514732105],[3.306468727459263,43.83415786237931],[3.308780149099716,43.83558663199378],[3.309656807491651,43.83681151339295],[3.3103330246719573,43.84085561301255],[3.308988014218399,43.84320010764431],[3.309016529081095,43.844713451911524],[3.310009501270847,43.845873428044875],[3.3118670980011093,43.846568580651294],[3.3148510392656303,43.84641268367234],[3.3177943625666773,43.846808569672945],[3.3198668540185974,43.84619894112766],[3.3209402565279307,43.84514253389514],[3.321939101083311,43.84236528341748],[3.325619229076732,43.84063006101958],[3.3270263876196013,43.83857571612532],[3.329161397907359,43.83713314558998],[3.3299290976173475,43.835945421319416],[3.3293166717899303,43.83387659923707],[3.323896015721262,43.829872989315014],[3.323455571557312,43.82689902185842],[3.321634642020937,43.824530258077566],[3.321247388675175,43.82205731433285],[3.3201626286801913,43.821007265041736],[3.31852233405311,43.8204514191265],[3.3163004479338376,43.82063379605266],[3.3132230156417064,43.822220153690104],[3.31119909412291,43.82557018830007],[3.3107794399166752,43.828761636705856],[3.3068616703723257,43.83078955089524],[3.305832491295894,43.832660514732105]]]}},{"type":"Feature","properties":{"category":"historical_support","snapshot_index":4,"pass_time_utc":"2026-08-14T13:40:00+00:00","dt_local":"2026-08-14T15:40:00+02:00","area_km2":5.562,"label":"Isoline temporelle","coherence_level":"indisponible","coherence_fraction":0.0,"projection_displayed":false,"model_version":"fire_progression_arrival_v1"},"geometry":{"type":"Polygon","coordinates":[[[3.3108565263049923,43.8458174117483],[3.310844289165002,43.843567660052045],[3.307735877907272,43.84357647220094],[3.307711651223831,43.83907697747431],[3.304603483718979,43.83908570034923],[3.3045435452936376,43.82783701665037],[3.307651101200383,43.82782829555281],[3.3076026783360675,43.81882940669677],[3.3107097441850573,43.81882059849759],[3.3106975185984657,43.816570884542415],[3.3138044612332744,43.81656198818262],[3.3137921143663243,43.81431227775652],[3.3231125696757666,43.81428505866943],[3.3231252832692344,43.81653476798617],[3.3262322219596667,43.816525517548484],[3.326245058805216,43.81877522965468],[3.3293521187369426,43.81876589031701],[3.3294558282387747,43.83676369771736],[3.3263477899490943,43.83677304010056],[3.326373482844852,43.84127252414566],[3.323265198857949,43.84128177873137],[3.3232779244655024,43.843531525828006],[3.3201695171192074,43.84354069222819],[3.3201821213615013,43.845790442825326],[3.3108565263049923,43.8458174117483]]]}},{"type":"Feature","properties":{"category":"observed_front","snapshot_index":4,"pass_time_utc":"2026-08-14T13:40:00+00:00","dt_local":"2026-08-14T15:40:00+02:00","area_km2":4.375,"label":"Activité observée","coherence_level":"indisponible","coherence_fraction":0.0,"projection_displayed":false,"model_version":"fire_progression_arrival_v1"},"geometry":{"type":"Polygon","coordinates":[[[3.3108565263049923,43.8458174117483],[3.310844289165002,43.843567660052045],[3.307735877907272,43.84357647220094],[3.307711651223831,43.83907697747431],[3.304603483718979,43.83908570034923],[3.3045435452936376,43.82783701665037],[3.307651101200383,43.82782829555281],[3.3076268878627006,43.82332884481149],[3.3107341982448286,43.82332003589432],[3.310721970733807,43.82107031561598],[3.32315071345786,43.82103419611573],[3.3231634300532535,43.823283914921966],[3.3262707355272223,43.8232746633532],[3.326283575403918,43.825524384938944],[3.3293910021476893,43.82551504445933],[3.3294558282387747,43.83676369771736],[3.3263477899490943,43.83677304010056],[3.326373482844852,43.84127252414566],[3.323265198857949,43.84128177873137],[3.3232779244655024,43.843531525828006],[3.3201695171192074,43.84354069222819],[3.3201821213615013,43.845790442825326],[3.3108565263049923,43.8458174117483]]]}}]}