{"type":"FeatureCollection","name":"detection_envelopes","crs":{"type":"name","properties":{"name":"urn:ogc:def:crs:OGC:1.3:CRS84"}},"features":[{"type":"Feature","properties":{"cluster_id":1,"snapshot_index":1,"estimated_time_utc":"2026-08-12T12:04:00Z","observed_until_utc":"2026-08-12T12:04:00Z","target_time_utc":"2026-08-12T12:04:00Z","arrival_h":0.0,"hours_ago":14.783333333333333,"supported_detections_cumulative":2,"sources_cumulative":"VIIRS_NOAA21_NRT","last_source":"VIIRS_NOAA21_NRT","last_satellite":"N21","last_instrument":"VIIRS","detected_area_km2":0.527184060621196,"product_type":"cumulative_active_fire_detection_extent"},"geometry":{"type":"LineString","coordinates":[[1.57708343510279,50.61219111890445],[1.574954395957644,50.61450341985121],[1.575040828103874,50.61627445408501],[1.577269422628549,50.6177686739925],[1.580506027129824,50.61782258175616],[1.582882069754658,50.61636424500279],[1.583131643307085,50.61409895823992],[1.585295532480408,50.61209381829853],[1.58511867895688,50.61053534412545],[1.583200225284867,50.60913893349717],[1.579981924172171,50.60891697505506],[1.577493192229958,50.610169622154146],[1.57708343510279,50.61219111890445]]}},{"type":"Feature","properties":{"cluster_id":1,"snapshot_index":2,"estimated_time_utc":"2026-08-12T13:44:00Z","observed_until_utc":"2026-08-12T13:44:00Z","target_time_utc":"2026-08-12T18:04:00Z","arrival_h":1.6666666666666667,"hours_ago":13.116666666666667,"supported_detections_cumulative":13,"sources_cumulative":"VIIRS_NOAA20_NRT, VIIRS_NOAA21_NRT, VIIRS_SNPP_NRT","last_source":"VIIRS_NOAA21_NRT","last_satellite":"N21","last_instrument":"VIIRS","detected_area_km2":1.9766291848710518,"product_type":"cumulative_active_fire_detection_extent"},"geometry":{"type":"LineString","coordinates":[[1.580539186250214,50.59761505833559],[1.576904588857227,50.59699936142493],[1.574864726718683,50.597157300921346],[1.572926794791334,50.59811655220739],[1.572152707084222,50.59959940677017],[1.572803468672581,50.601106072422844],[1.574659830416429,50.60212869425311],[1.577096069394555,50.60232255360423],[1.579828358438321,50.6016575339428],[1.581484483834456,50.60252230807478],[1.581306961508287,50.60319984515235],[1.579329868937623,50.604498100258546],[1.578810938245867,50.60576363711216],[1.579290730633407,50.60703541240487],[1.581391615107836,50.60881428243496],[1.57825526901514,50.60954971836822],[1.576446041055498,50.60914430811611],[1.574410015037637,50.609323445944845],[1.572535971816913,50.61026656902119],[1.571784909918695,50.611529737404865],[1.57312624243617,50.61452535191485],[1.575449816094382,50.61678314213033],[1.576898919400455,50.61764953435838],[1.578879296815754,50.61800043523543],[1.588711869966712,50.61562148171827],[1.589875767253832,50.6142936641161],[1.589657672530311,50.61229347392413],[1.590958200955771,50.61022009543461],[1.589497467417939,50.60811472006609],[1.586340005910792,50.60747048896455],[1.587195822241156,50.60529067483964],[1.584745540324463,50.602987683965544],[1.584923015540697,50.6023101417581],[1.587224549042822,50.600526329852656],[1.586938626989194,50.59847445643073],[1.584055411243849,50.59708553699522],[1.580539186250214,50.59761505833559]]}},{"type":"Feature","properties":{"cluster_id":1,"snapshot_index":3,"estimated_time_utc":"2026-08-13T02:51:00Z","observed_until_utc":"2026-08-13T02:51:00Z","target_time_utc":"2026-08-13T02:51:00Z","arrival_h":14.783333333333333,"hours_ago":0.0,"supported_detections_cumulative":28,"sources_cumulative":"VIIRS_NOAA20_NRT, VIIRS_NOAA21_NRT, VIIRS_SNPP_NRT","last_source":"VIIRS_NOAA20_NRT","last_satellite":"N20","last_instrument":"VIIRS","detected_area_km2":2.8266337684113334,"product_type":"cumulative_active_fire_detection_extent"},"geometry":{"type":"LineString","coordinates":[[1.580041550483417,50.60830462448886],[1.580485909244373,50.60884483141984],[1.57825526901514,50.60954971836822],[1.576100844276559,50.60912954290996],[1.574033061033105,50.60943400732237],[1.571954724441827,50.61101331816826],[1.571833526381738,50.61231894504799],[1.57312624243617,50.61452535191485],[1.575693809310119,50.61699682450236],[1.5785340384681,50.61798567699014],[1.581790632498865,50.617324088538574],[1.584784367180712,50.61844569813386],[1.587153665907413,50.61817013537198],[1.589894899544948,50.61865435451838],[1.592241875343016,50.61806685688696],[1.595364664924425,50.61557420723064],[1.595559468151818,50.613723589954255],[1.594214835995323,50.6124161061145],[1.590617621600954,50.611210165691446],[1.590678466103166,50.609185165301106],[1.588195052191671,50.60762755178896],[1.587975868948975,50.6064460353447],[1.590111345413205,50.60505403577863],[1.590317953655106,50.602575167408084],[1.589084455674159,50.601476185211716],[1.587001801592295,50.60088075943784],[1.587267286504815,50.59900618252786],[1.584888658311083,50.596106648086696],[1.581805626498952,50.59490423256529],[1.578753889126568,50.595455544209756],[1.577210269205576,50.597031815527004],[1.57378399125917,50.59754544671009],[1.572175924293937,50.59937974546469],[1.572457310403487,50.60067535117866],[1.573612466415921,50.601705012562235],[1.577141319062651,50.602317362938614],[1.577004515123946,50.603234206610715],[1.575260369456461,50.60489898233033],[1.575650665793166,50.60669530303845],[1.577309348820845,50.60778957515084],[1.580041550483417,50.60830462448886]]}}],"metadata":{"generated_at_utc":"2026-08-15T15:34:38.798285Z","product_type":"cumulative_active_fire_detection_extent","product_label":"Emprises cumulées des détections actives FIRMS","not_a_burn_perimeter":true,"not_a_continuous_fire_front":true,"not_an_arrival_time_interpolation":true,"snapshot_step_hours":6,"confidence_filter":{"VIIRS":["nominal","high"],"MODIS_minimum":30},"footprint_radius_m":{"VIIRS":300.0,"MODIS":750.0},"same_pass_neighbour_m":2000.0,"continuity_distance_m":3000.0,"clusters":[{"cluster_id":1,"first_supported_detection_utc":"2026-08-12T12:04:00Z","last_supported_detection_utc":"2026-08-13T02:51:00Z","pass_states":9,"published_snapshots":3,"final_detected_area_km2":2.8266337684113334}]},"bbox":[1.5717849099186951,50.59490423256529,1.5955594681518181,50.61865435451838]}