{"type":"FeatureCollection","name":"fire_progression_arrival_v1","features":[{"type":"Feature","properties":{"category":"arrival_step","arrival_snapshot_index":1,"first_detected_utc":"2026-08-12T12:04:00+00:00","first_detected_local":"2026-08-12T14:04:00+02:00","area_km2":1.5,"label":"Première détection FIRMS","model_version":"fire_progression_arrival_v1"},"geometry":{"type":"Polygon","coordinates":[[[1.5786741493754912,50.61984966113306],[1.579181781987035,50.60190342840159],[1.5827066273961305,50.60194374786399],[1.582643350452006,50.60418705458855],[1.5896933728126765,50.60426739640718],[1.5896304048561618,50.60651069904278],[1.593155581795965,50.606550721386235],[1.5929042831572207,50.61552386436388],[1.5893784767976513,50.61548383539966],[1.5893154807211447,50.61772710092408],[1.582263570114727,50.617646739168606],[1.5822002536060262,50.61988999393636],[1.5786741493754912,50.61984966113306]]]}},{"type":"Feature","properties":{"category":"arrival_step","arrival_snapshot_index":3,"first_detected_utc":"2026-08-12T12:57:00+00:00","first_detected_local":"2026-08-12T14:57:00+02:00","area_km2":0.5,"label":"Première détection FIRMS","model_version":"fire_progression_arrival_v1"},"geometry":{"type":"Polygon","coordinates":[[[1.5929671162322165,50.613280589754545],[1.593155581795965,50.606550721386235],[1.5896304048561618,50.60651069904278],[1.5896933728126765,50.60426739640718],[1.582643350452006,50.60418705458855],[1.5827066273961305,50.60194374786399],[1.5932811974616103,50.602064105393964],[1.593218392432639,50.60430741709566],[1.596743417660304,50.60434733763659],[1.5964927708264873,50.61332051689936],[1.5929671162322165,50.613280589754545]]]}},{"type":"Feature","properties":{"category":"arrival_step","arrival_snapshot_index":4,"first_detected_utc":"2026-08-12T13:44:00+00:00","first_detected_local":"2026-08-12T15:44:00+02:00","area_km2":1.062,"label":"Première détection FIRMS","model_version":"fire_progression_arrival_v1"},"geometry":{"type":"Polygon","coordinates":[[[1.593218392432639,50.60430741709566],[1.5932811974616103,50.602064105393964],[1.579181781987035,50.60190342840159],[1.5794354623543823,50.592930134132054],[1.590008128284217,50.59305077213512],[1.5899451884288716,50.595294111789805],[1.5934695789098168,50.595334125859154],[1.59334399688363,50.599820786284866],[1.5968687075122192,50.59986070352435],[1.596743417660304,50.60434733763659],[1.593218392432639,50.60430741709566]]]}},{"type":"Feature","properties":{"category":"arrival_step","arrival_snapshot_index":6,"first_detected_utc":"2026-08-13T01:11:00+00:00","first_detected_local":"2026-08-13T03:11:00+02:00","area_km2":0.688,"label":"Première détection FIRMS","model_version":"fire_progression_arrival_v1"},"geometry":{"type":"Polygon","coordinates":[[[1.5822002536060262,50.61988999393636],[1.582263570114727,50.617646739168606],[1.5893154807211447,50.61772710092408],[1.5893784767976513,50.61548383539966],[1.5929042831572207,50.61552386436388],[1.5929671162322165,50.613280589754545],[1.5964927708264873,50.61332051689936],[1.596743417660304,50.60434733763659],[1.6002684484816347,50.60438715802979],[1.5999559126966894,50.615603621787415],[1.5964300951282486,50.61556379315988],[1.5963674138325965,50.61780706199095],[1.5928414444707657,50.617767131543694],[1.5927786001720998,50.62001039129031],[1.5822002536060262,50.61988999393636]]]}},{"type":"Feature","properties":{"category":"arrival_step","arrival_snapshot_index":7,"first_detected_utc":"2026-08-13T01:58:00+00:00","first_detected_local":"2026-08-13T03:58:00+02:00","area_km2":0.188,"label":"Première détection FIRMS","model_version":"fire_progression_arrival_v1"},"geometry":{"type":"Polygon","coordinates":[[[1.5794354623543823,50.592930134132054],[1.5794988682941813,50.59068679207293],[1.5900710625215853,50.59080742508769],[1.590008128284217,50.59305077213512],[1.5794354623543823,50.592930134132054]]]}},{"type":"Feature","properties":{"category":"firms_extent_snapshot","snapshot_index":1,"pass_time_utc":"2026-08-12T12:04:00+00:00","dt_local":"2026-08-12T14:04:00+02:00","label":"Emprise FIRMS cumulée à ce passage","interpretation":"Enveloppe des détections FIRMS, pas une surface brûlée","cumulative":true,"point_count":2,"extent_method":"cumulative_detection_extent_smoothed_landmasked_web_v1","local_cluster_link_m":10000.0,"model_version":"fire_progression_arrival_v1"},"geometry":{"type":"Polygon","coordinates":[[[1.581926519083236,50.617246721170524],[1.5853187777958508,50.61201822292746],[1.5852384173732255,50.61076516688455],[1.584213616668757,50.60963162037785],[1.581245983468363,50.608809412585465],[1.5782338459368015,50.609563244580215],[1.5780139985265964,50.60992403329276],[1.5783850289146844,50.61760236941024],[1.5781277399691485,50.617838577455984],[1.5797403928337486,50.617958306977954],[1.581926519083236,50.617246721170524]]]}},{"type":"Feature","properties":{"category":"historical_support","snapshot_index":1,"pass_time_utc":"2026-08-12T12:04:00+00:00","dt_local":"2026-08-12T14:04:00+02:00","area_km2":1.5,"label":"Isoline temporelle","coherence_level":"indisponible","coherence_fraction":0.0,"projection_displayed":false,"model_version":"fire_progression_arrival_v1"},"geometry":{"type":"Polygon","coordinates":[[[1.5786741493754912,50.61984966113306],[1.579181781987035,50.60190342840159],[1.5827066273961305,50.60194374786399],[1.582643350452006,50.60418705458855],[1.5896933728126765,50.60426739640718],[1.5896304048561618,50.60651069904278],[1.593155581795965,50.606550721386235],[1.5929042831572207,50.61552386436388],[1.5893784767976513,50.61548383539966],[1.5893154807211447,50.61772710092408],[1.582263570114727,50.617646739168606],[1.5822002536060262,50.61988999393636],[1.5786741493754912,50.61984966113306]]]}},{"type":"Feature","properties":{"category":"observed_front","snapshot_index":1,"pass_time_utc":"2026-08-12T12:04:00+00:00","dt_local":"2026-08-12T14:04:00+02:00","area_km2":1.5,"label":"Activité observée","coherence_level":"indisponible","coherence_fraction":0.0,"projection_displayed":false,"model_version":"fire_progression_arrival_v1"},"geometry":{"type":"Polygon","coordinates":[[[1.5786741493754912,50.61984966113306],[1.579181781987035,50.60190342840159],[1.5827066273961305,50.60194374786399],[1.582643350452006,50.60418705458855],[1.5896933728126765,50.60426739640718],[1.5896304048561618,50.60651069904278],[1.593155581795965,50.606550721386235],[1.5929042831572207,50.61552386436388],[1.5893784767976513,50.61548383539966],[1.5893154807211447,50.61772710092408],[1.582263570114727,50.617646739168606],[1.5822002536060262,50.61988999393636],[1.5786741493754912,50.61984966113306]]]}},{"type":"Feature","properties":{"category":"historical_support","snapshot_index":2,"pass_time_utc":"2026-08-12T12:40:00+00:00","dt_local":"2026-08-12T14:40:00+02:00","area_km2":1.5,"label":"Isoline temporelle","coherence_level":"indisponible","coherence_fraction":0.0,"projection_displayed":false,"model_version":"fire_progression_arrival_v1"},"geometry":{"type":"Polygon","coordinates":[[[1.5786741493754912,50.61984966113306],[1.579181781987035,50.60190342840159],[1.5827066273961305,50.60194374786399],[1.582643350452006,50.60418705458855],[1.5896933728126765,50.60426739640718],[1.5896304048561618,50.60651069904278],[1.593155581795965,50.606550721386235],[1.5929042831572207,50.61552386436388],[1.5893784767976513,50.61548383539966],[1.5893154807211447,50.61772710092408],[1.582263570114727,50.617646739168606],[1.5822002536060262,50.61988999393636],[1.5786741493754912,50.61984966113306]]]}},{"type":"Feature","properties":{"category":"observed_front","snapshot_index":2,"pass_time_utc":"2026-08-12T12:40:00+00:00","dt_local":"2026-08-12T14:40:00+02:00","area_km2":1.438,"label":"Activité observée","coherence_level":"indisponible","coherence_fraction":0.0,"projection_displayed":false,"model_version":"fire_progression_arrival_v1"},"geometry":{"type":"Polygon","coordinates":[[[1.5786741493754912,50.61984966113306],[1.5791183477393698,50.60414673345883],[1.5896933728126765,50.60426739640718],[1.5896304048561618,50.60651069904278],[1.593155581795965,50.606550721386235],[1.5929042831572207,50.61552386436388],[1.5893784767976513,50.61548383539966],[1.5893154807211447,50.61772710092408],[1.582263570114727,50.617646739168606],[1.5822002536060262,50.61988999393636],[1.5786741493754912,50.61984966113306]]]}},{"type":"Feature","properties":{"category":"historical_support","snapshot_index":3,"pass_time_utc":"2026-08-12T12:57:00+00:00","dt_local":"2026-08-12T14:57:00+02:00","area_km2":2.0,"label":"Isoline temporelle","coherence_level":"indisponible","coherence_fraction":0.0,"projection_displayed":false,"model_version":"fire_progression_arrival_v1"},"geometry":{"type":"Polygon","coordinates":[[[1.5786741493754912,50.61984966113306],[1.579181781987035,50.60190342840159],[1.5932811974616103,50.602064105393964],[1.593218392432639,50.60430741709566],[1.596743417660304,50.60434733763659],[1.5964927708264873,50.61332051689936],[1.5929671162322165,50.613280589754545],[1.5929042831572207,50.61552386436388],[1.5893784767976513,50.61548383539966],[1.5893154807211447,50.61772710092408],[1.582263570114727,50.617646739168606],[1.5822002536060262,50.61988999393636],[1.5786741493754912,50.61984966113306]]]}},{"type":"Feature","properties":{"category":"observed_front","snapshot_index":3,"pass_time_utc":"2026-08-12T12:57:00+00:00","dt_local":"2026-08-12T14:57:00+02:00","area_km2":1.938,"label":"Activité observée","coherence_level":"indisponible","coherence_fraction":0.0,"projection_displayed":false,"model_version":"fire_progression_arrival_v1"},"geometry":{"type":"Polygon","coordinates":[[[1.5787376232860242,50.617606408033204],[1.579181781987035,50.60190342840159],[1.5932811974616103,50.602064105393964],[1.593218392432639,50.60430741709566],[1.596743417660304,50.60434733763659],[1.5964927708264873,50.61332051689936],[1.5929671162322165,50.613280589754545],[1.5929042831572207,50.61552386436388],[1.5893784767976513,50.61548383539966],[1.5893154807211447,50.61772710092408],[1.5787376232860242,50.617606408033204]]]}},{"type":"Feature","properties":{"category":"firms_extent_snapshot","snapshot_index":4,"pass_time_utc":"2026-08-12T13:44:00+00:00","dt_local":"2026-08-12T15:44:00+02:00","label":"Emprise FIRMS cumulée à ce passage","interpretation":"Enveloppe des détections FIRMS, pas une surface brûlée","cumulative":true,"point_count":13,"extent_method":"cumulative_detection_extent_smoothed_landmasked_web_v1","local_cluster_link_m":10000.0,"model_version":"fire_progression_arrival_v1"},"geometry":{"type":"MultiPolygon","coordinates":[[[[1.5872983454679483,50.61620419722198],[1.5893997948498282,50.61505815924555],[1.5909051279724291,50.60972663056774],[1.5900984669875418,50.60852426541451],[1.5877395554102114,50.60694079265925],[1.5860109520740278,50.60351589374673],[1.5859633464469391,50.60226063551422],[1.5874045683161295,50.59950425073714],[1.5867470873062215,50.59826525921946],[1.5853240845265233,50.597397790452135],[1.5831794097653908,50.597029728103976],[1.579662916742958,50.5974572010259],[1.577320761651066,50.5971641554859],[1.5771939177040426,50.59739255832634],[1.5782385817763276,50.597853346168776],[1.577432063304662,50.601434569383485],[1.5784387348393245,50.603241336215135],[1.5783519722042525,50.60370840686425],[1.5788671671593921,50.60452367441349],[1.5788804059067614,50.60667680231518],[1.5776518550523009,50.60829280691289],[1.5783850289146844,50.61760236941024],[1.5780740583441073,50.617887860334015],[1.5801447869458427,50.61789875747151],[1.5872983454679483,50.61620419722198]]],[[[1.5768287591215862,50.59783717953018],[1.5764635940781688,50.59828179936973],[1.576816052745535,50.598285843566195],[1.5768287591215862,50.59783717953018]]]]}},{"type":"Feature","properties":{"category":"historical_support","snapshot_index":4,"pass_time_utc":"2026-08-12T13:44:00+00:00","dt_local":"2026-08-12T15:44:00+02:00","area_km2":3.062,"label":"Isoline temporelle","coherence_level":"indisponible","coherence_fraction":0.0,"projection_displayed":false,"model_version":"fire_progression_arrival_v1"},"geometry":{"type":"Polygon","coordinates":[[[1.5786741493754912,50.61984966113306],[1.5794354623543823,50.592930134132054],[1.590008128284217,50.59305077213512],[1.5899451884288716,50.595294111789805],[1.5934695789098168,50.595334125859154],[1.59334399688363,50.599820786284866],[1.5968687075122192,50.59986070352435],[1.5964927708264873,50.61332051689936],[1.5929671162322165,50.613280589754545],[1.5929042831572207,50.61552386436388],[1.5893784767976513,50.61548383539966],[1.5893154807211447,50.61772710092408],[1.582263570114727,50.617646739168606],[1.5822002536060262,50.61988999393636],[1.5786741493754912,50.61984966113306]]]}},{"type":"Feature","properties":{"category":"observed_front","snapshot_index":4,"pass_time_utc":"2026-08-12T13:44:00+00:00","dt_local":"2026-08-12T15:44:00+02:00","area_km2":2.562,"label":"Activité observée","coherence_level":"indisponible","coherence_fraction":0.0,"projection_displayed":false,"model_version":"fire_progression_arrival_v1"},"geometry":{"type":"Polygon","coordinates":[[[1.5788010915281563,50.61536314749983],[1.5794354623543823,50.592930134132054],[1.590008128284217,50.59305077213512],[1.5899451884288716,50.595294111789805],[1.5934695789098168,50.595334125859154],[1.59334399688363,50.599820786284866],[1.5968687075122192,50.59986070352435],[1.5966807643442218,50.60659064357802],[1.593155581795965,50.606550721386235],[1.5929671162322165,50.613280589754545],[1.589441467248653,50.61324056244563],[1.5893784767976513,50.61548383539966],[1.5788010915281563,50.61536314749983]]]}},{"type":"Feature","properties":{"category":"historical_support","snapshot_index":5,"pass_time_utc":"2026-08-13T00:52:00+00:00","dt_local":"2026-08-13T02:52:00+02:00","area_km2":3.062,"label":"Isoline temporelle","coherence_level":"indisponible","coherence_fraction":0.0,"projection_displayed":false,"model_version":"fire_progression_arrival_v1"},"geometry":{"type":"Polygon","coordinates":[[[1.5786741493754912,50.61984966113306],[1.5794354623543823,50.592930134132054],[1.590008128284217,50.59305077213512],[1.5899451884288716,50.595294111789805],[1.5934695789098168,50.595334125859154],[1.59334399688363,50.599820786284866],[1.5968687075122192,50.59986070352435],[1.5964927708264873,50.61332051689936],[1.5929671162322165,50.613280589754545],[1.5929042831572207,50.61552386436388],[1.5893784767976513,50.61548383539966],[1.5893154807211447,50.61772710092408],[1.582263570114727,50.617646739168606],[1.5822002536060262,50.61988999393636],[1.5786741493754912,50.61984966113306]]]}},{"type":"Feature","properties":{"category":"observed_front","snapshot_index":5,"pass_time_utc":"2026-08-13T00:52:00+00:00","dt_local":"2026-08-13T02:52:00+02:00","area_km2":1.375,"label":"Activité observée","coherence_level":"indisponible","coherence_fraction":0.0,"projection_displayed":false,"model_version":"fire_progression_arrival_v1"},"geometry":{"type":"Polygon","coordinates":[[[1.5789280110102544,50.610876604147194],[1.579372050754526,50.59517346879817],[1.5864208035666558,50.595253997589715],[1.5863577008296277,50.597497328189135],[1.5898822429547974,50.59753744404803],[1.5898192918612417,50.599780768906136],[1.59334399688363,50.599820786284866],[1.593155581795965,50.606550721386235],[1.5896304048561618,50.60651069904278],[1.5895674312771548,50.60875399426351],[1.5860421026267177,50.60871387010941],[1.5859789660772996,50.61095715625228],[1.5789280110102544,50.610876604147194]]]}},{"type":"Feature","properties":{"category":"historical_support","snapshot_index":6,"pass_time_utc":"2026-08-13T01:11:00+00:00","dt_local":"2026-08-13T03:11:00+02:00","area_km2":3.75,"label":"Isoline temporelle","coherence_level":"indisponible","coherence_fraction":0.0,"projection_displayed":false,"model_version":"fire_progression_arrival_v1"},"geometry":{"type":"Polygon","coordinates":[[[1.5786741493754912,50.61984966113306],[1.5794354623543823,50.592930134132054],[1.590008128284217,50.59305077213512],[1.5899451884288716,50.595294111789805],[1.5934695789098168,50.595334125859154],[1.59334399688363,50.599820786284866],[1.5968687075122192,50.59986070352435],[1.596743417660304,50.60434733763659],[1.6002684484816347,50.60438715802979],[1.5999559126966894,50.615603621787415],[1.5964300951282486,50.61556379315988],[1.5963674138325965,50.61780706199095],[1.5928414444707657,50.617767131543694],[1.5927786001720998,50.62001039129031],[1.5786741493754912,50.61984966113306]]]}},{"type":"Feature","properties":{"category":"observed_front","snapshot_index":6,"pass_time_utc":"2026-08-13T01:11:00+00:00","dt_local":"2026-08-13T03:11:00+02:00","area_km2":3.562,"label":"Activité observée","coherence_level":"indisponible","coherence_fraction":0.0,"projection_displayed":false,"model_version":"fire_progression_arrival_v1"},"geometry":{"type":"Polygon","coordinates":[[[1.5822002536060262,50.61988999393636],[1.582263570114727,50.617646739168606],[1.5787376232860242,50.617606408033204],[1.579372050754526,50.59517346879817],[1.5828964243371977,50.595213783259084],[1.5829596786896392,50.59297044692598],[1.5864839006709262,50.59301065959375],[1.5864208035666558,50.595253997589715],[1.5934695789098168,50.595334125859154],[1.59334399688363,50.599820786284866],[1.5968687075122192,50.59986070352435],[1.596743417660304,50.60434733763659],[1.6002684484816347,50.60438715802979],[1.5999559126966894,50.615603621787415],[1.5964300951282486,50.61556379315988],[1.5963674138325965,50.61780706199095],[1.5928414444707657,50.617767131543694],[1.5927786001720998,50.62001039129031],[1.5822002536060262,50.61988999393636]]]}},{"type":"Feature","properties":{"category":"historical_support","snapshot_index":7,"pass_time_utc":"2026-08-13T01:58:00+00:00","dt_local":"2026-08-13T03:58:00+02:00","area_km2":3.938,"label":"Isoline temporelle","coherence_level":"indisponible","coherence_fraction":0.0,"projection_displayed":false,"model_version":"fire_progression_arrival_v1"},"geometry":{"type":"Polygon","coordinates":[[[1.5786741493754912,50.61984966113306],[1.5794988682941813,50.59068679207293],[1.5900710625215853,50.59080742508769],[1.5899451884288716,50.595294111789805],[1.5934695789098168,50.595334125859154],[1.59334399688363,50.599820786284866],[1.5968687075122192,50.59986070352435],[1.596743417660304,50.60434733763659],[1.6002684484816347,50.60438715802979],[1.5999559126966894,50.615603621787415],[1.5964300951282486,50.61556379315988],[1.5963674138325965,50.61780706199095],[1.5928414444707657,50.617767131543694],[1.5927786001720998,50.62001039129031],[1.5786741493754912,50.61984966113306]]]}},{"type":"Feature","properties":{"category":"observed_front","snapshot_index":7,"pass_time_utc":"2026-08-13T01:58:00+00:00","dt_local":"2026-08-13T03:58:00+02:00","area_km2":2.0,"label":"Activité observée","coherence_level":"indisponible","coherence_fraction":0.0,"projection_displayed":false,"model_version":"fire_progression_arrival_v1"},"geometry":{"type":"Polygon","coordinates":[[[1.5824534857177361,50.61091693027938],[1.5825167796135653,50.608673645799925],[1.5789914622517383,50.60863332133532],[1.5794988682941813,50.59068679207293],[1.5900710625215853,50.59080742508769],[1.5899451884288716,50.595294111789805],[1.5934695789098168,50.595334125859154],[1.5930927655508373,50.60879401826204],[1.5895674312771548,50.60875399426351],[1.589504452074903,50.61099728206569],[1.5824534857177361,50.61091693027938]]]}},{"type":"Feature","properties":{"category":"historical_support","snapshot_index":8,"pass_time_utc":"2026-08-13T02:34:00+00:00","dt_local":"2026-08-13T04:34:00+02:00","area_km2":3.938,"label":"Isoline temporelle","coherence_level":"indisponible","coherence_fraction":0.0,"projection_displayed":false,"model_version":"fire_progression_arrival_v1"},"geometry":{"type":"Polygon","coordinates":[[[1.5786741493754912,50.61984966113306],[1.5794988682941813,50.59068679207293],[1.5900710625215853,50.59080742508769],[1.5899451884288716,50.595294111789805],[1.5934695789098168,50.595334125859154],[1.59334399688363,50.599820786284866],[1.5968687075122192,50.59986070352435],[1.596743417660304,50.60434733763659],[1.6002684484816347,50.60438715802979],[1.5999559126966894,50.615603621787415],[1.5964300951282486,50.61556379315988],[1.5963674138325965,50.61780706199095],[1.5928414444707657,50.617767131543694],[1.5927786001720998,50.62001039129031],[1.5786741493754912,50.61984966113306]]]}},{"type":"Feature","properties":{"category":"observed_front","snapshot_index":8,"pass_time_utc":"2026-08-13T02:34:00+00:00","dt_local":"2026-08-13T04:34:00+02:00","area_km2":3.125,"label":"Activité observée","coherence_level":"indisponible","coherence_fraction":0.0,"projection_displayed":false,"model_version":"fire_progression_arrival_v1"},"geometry":{"type":"Polygon","coordinates":[[[1.5786741493754912,50.61984966113306],[1.579181781987035,50.60190342840159],[1.5827066273961305,50.60194374786399],[1.5828331643379703,50.59745711219559],[1.5934067906994487,50.59757745977203],[1.59334399688363,50.599820786284866],[1.5968687075122192,50.59986070352435],[1.5966807643442218,50.60659064357802],[1.6002059524868935,50.606630465617926],[1.5999559126966894,50.615603621787415],[1.5964300951282486,50.61556379315988],[1.5963674138325965,50.61780706199095],[1.5928414444707657,50.617767131543694],[1.5927786001720998,50.62001039129031],[1.5786741493754912,50.61984966113306]]]}},{"type":"Feature","properties":{"category":"firms_extent_snapshot","snapshot_index":9,"pass_time_utc":"2026-08-13T02:51:00+00:00","dt_local":"2026-08-13T04:51:00+02:00","label":"Emprise FIRMS cumulée à ce passage","interpretation":"Enveloppe des détections FIRMS, pas une surface brûlée","cumulative":true,"point_count":28,"extent_method":"cumulative_detection_extent_smoothed_landmasked_web_v1","local_cluster_link_m":10000.0,"model_version":"fire_progression_arrival_v1"},"geometry":{"type":"MultiPolygon","coordinates":[[[[1.5815621243951745,50.61782084109249],[1.5847500620456776,50.61844288007125],[1.5904256716349423,50.618607144952186],[1.5925269662776718,50.61790646846516],[1.595378075943278,50.615553922471065],[1.5953024017337365,50.613303524179095],[1.5915968150274828,50.6110876146486],[1.5892968790838027,50.60749087520917],[1.589277101116082,50.606243171559676],[1.590570079955774,50.60385159748525],[1.5903048980380003,50.60255478949563],[1.5878395012231037,50.60052449178709],[1.5870910468904333,50.59868418992645],[1.5849069891088035,50.59612530741861],[1.5830378195558485,50.595112660545105],[1.579424332312225,50.59518426084261],[1.5775236769668641,50.59625949304861],[1.5771939177040426,50.59739255832634],[1.5782385817763276,50.597853346168776],[1.577432063304662,50.601434569383485],[1.5784387348393245,50.603241336215135],[1.5776067409764192,50.60771984857112],[1.5784992959984985,50.61356449540109],[1.577791442891019,50.617848387016934],[1.5780062751093207,50.61792639129955],[1.5815621243951745,50.61782084109249]]],[[[1.5768287591215862,50.59783717953018],[1.5764635940781688,50.59828179936973],[1.576816052745535,50.598285843566195],[1.5768287591215862,50.59783717953018]]]]}},{"type":"Feature","properties":{"category":"historical_support","snapshot_index":9,"pass_time_utc":"2026-08-13T02:51:00+00:00","dt_local":"2026-08-13T04:51:00+02:00","area_km2":3.938,"label":"Isoline temporelle","coherence_level":"indisponible","coherence_fraction":0.0,"projection_displayed":false,"model_version":"fire_progression_arrival_v1"},"geometry":{"type":"Polygon","coordinates":[[[1.5786741493754912,50.61984966113306],[1.5794988682941813,50.59068679207293],[1.5900710625215853,50.59080742508769],[1.5899451884288716,50.595294111789805],[1.5934695789098168,50.595334125859154],[1.59334399688363,50.599820786284866],[1.5968687075122192,50.59986070352435],[1.596743417660304,50.60434733763659],[1.6002684484816347,50.60438715802979],[1.5999559126966894,50.615603621787415],[1.5964300951282486,50.61556379315988],[1.5963674138325965,50.61780706199095],[1.5928414444707657,50.617767131543694],[1.5927786001720998,50.62001039129031],[1.5786741493754912,50.61984966113306]]]}},{"type":"Feature","properties":{"category":"observed_front","snapshot_index":9,"pass_time_utc":"2026-08-13T02:51:00+00:00","dt_local":"2026-08-13T04:51:00+02:00","area_km2":2.688,"label":"Activité observée","coherence_level":"indisponible","coherence_fraction":0.0,"projection_displayed":false,"model_version":"fire_progression_arrival_v1"},"geometry":{"type":"Polygon","coordinates":[[[1.5857895225977827,50.61768697013231],[1.5858526760635872,50.615443706267435],[1.5823268809690736,50.61540347696741],[1.5823901861698244,50.61316020733644],[1.5788645541026467,50.6131198795366],[1.579372050754526,50.59517346879817],[1.5899451884288716,50.595294111789805],[1.5898822429547974,50.59753744404803],[1.5934067906994487,50.59757745977203],[1.5932811974616103,50.602064105393964],[1.59680606538272,50.60210402428414],[1.5963674138325965,50.61780706199095],[1.5857895225977827,50.61768697013231]]]}}]}