{"type":"FeatureCollection","name":"detection_envelopes","crs":{"type":"name","properties":{"name":"urn:ogc:def:crs:OGC:1.3:CRS84"}},"features":[{"type":"Feature","properties":{"cluster_id":1,"snapshot_index":1,"estimated_time_utc":"2026-09-17T01:02:00Z","observed_until_utc":"2026-09-17T01:02:00Z","target_time_utc":"2026-09-17T01:02:00Z","arrival_h":0.0,"hours_ago":107.85,"supported_detections_cumulative":5,"sources_cumulative":"VIIRS_NOAA21_NRT","last_source":"VIIRS_NOAA21_NRT","last_satellite":"N21","last_instrument":"VIIRS","detected_area_km2":0.9182186851918682,"product_type":"cumulative_active_fire_detection_extent"},"geometry":{"type":"LineString","coordinates":[[-0.936689785585885,44.18843860590578],[-0.935543961939158,44.189683780487165],[-0.933884387698521,44.19032317650948],[-0.932061354060272,44.190313397143875],[-0.929729083439831,44.18952236258395],[-0.926101594221467,44.19023697953573],[-0.923217551798644,44.189007584776164],[-0.920602029044955,44.18915340055434],[-0.918911734735018,44.188662020673824],[-0.917599159317087,44.187411489264484],[-0.917413667511809,44.1860635794838],[-0.918359832151801,44.18465210000649],[-0.920537169243639,44.183813528808685],[-0.92235276313688,44.18393067239433],[-0.92428477101401,44.184648370786206],[-0.927897629048635,44.1839565709603],[-0.930659627594795,44.184830747780694],[-0.934288013674725,44.18413298512526],[-0.936204259986366,44.1847838928887],[-0.937230538580695,44.185867994154094],[-0.937416499866939,44.18721587025844],[-0.936689785585885,44.18843860590578]]}},{"type":"Feature","properties":{"cluster_id":1,"snapshot_index":2,"estimated_time_utc":"2026-09-17T02:43:00Z","observed_until_utc":"2026-09-17T02:43:00Z","target_time_utc":"2026-09-17T07:02:00Z","arrival_h":1.6833333333333333,"hours_ago":106.16666666666667,"supported_detections_cumulative":18,"sources_cumulative":"VIIRS_NOAA20_NRT, VIIRS_NOAA21_NRT, VIIRS_SNPP_NRT","last_source":"VIIRS_NOAA21_NRT","last_satellite":"N21","last_instrument":"VIIRS","detected_area_km2":1.6680443470847282,"product_type":"cumulative_active_fire_detection_extent"},"geometry":{"type":"LineString","coordinates":[[-0.934922329907671,44.192779976815864],[-0.932559245129138,44.1932970806202],[-0.92930228087976,44.19225178007427],[-0.925620533541339,44.19273404271115],[-0.923959681852902,44.192096270346354],[-0.92285716557701,44.19075476345435],[-0.921012032382957,44.19090340491102],[-0.919272389732358,44.19038575708815],[-0.918009057591809,44.189161503261445],[-0.917405243397856,44.186855681682154],[-0.917244788771606,44.18474723831067],[-0.917964208133055,44.18349557084528],[-0.919382081600535,44.18267118698728],[-0.921111283733451,44.182422946762195],[-0.924359488469491,44.183462702677915],[-0.927712239297227,44.18284507410819],[-0.930627323716048,44.18374789503663],[-0.933581962985165,44.18340506197949],[-0.935626905086994,44.183943957725845],[-0.93725124817411,44.185909540794206],[-0.937281789291639,44.187618529091665],[-0.939608178735832,44.188502117214085],[-0.940555532052393,44.19045234733987],[-0.940013480846299,44.19170476015227],[-0.93871485200467,44.19262543088296],[-0.93702759875899,44.19299471616027],[-0.934922329907671,44.192779976815864]]}},{"type":"Feature","properties":{"cluster_id":1,"snapshot_index":3,"estimated_time_utc":"2026-09-21T12:53:00Z","observed_until_utc":"2026-09-21T12:53:00Z","target_time_utc":"2026-09-21T12:53:00Z","arrival_h":107.85,"hours_ago":0.0,"supported_detections_cumulative":20,"sources_cumulative":"VIIRS_NOAA20_NRT, VIIRS_NOAA21_NRT, VIIRS_SNPP_NRT","last_source":"VIIRS_NOAA21_NRT","last_satellite":"N21","last_instrument":"VIIRS","detected_area_km2":51.37246347022301,"product_type":"cumulative_active_fire_detection_extent"},"geometry":{"type":"MultiLineString","coordinates":[[[-0.760716856035323,44.03998113074223],[-0.760164110444131,44.042584115631804],[-0.758272387035761,44.044836358934546],[-0.755329598373867,44.04639491634006],[-0.751783812433473,44.04702244628898],[-0.748175006060685,44.04662338134506],[-0.745052762838268,44.04525849603932],[-0.742892501114415,44.04313564248053],[-0.742023046009085,44.040578071195725],[-0.742576601105662,44.037975180904105],[-0.74446871720321,44.03572321754195],[-0.74741125170607,44.03416496143427],[-0.750956285522122,44.033537577644196],[-0.754564282389505,44.03393654799016],[-0.757686132922758,44.03530115335532],[-0.759846648805662,44.037423705616284],[-0.760716856035323,44.03998113074223]],[[-0.67468394031794,44.04581120514105],[-0.677458121339759,44.04529796541066],[-0.68059583573483,44.04633738375367],[-0.683369764191706,44.04584843973409],[-0.68641854752942,44.04590372154333],[-0.688129713157324,44.04526568645344],[-0.691145704528345,44.0449829579926],[-0.693814605020505,44.04568786645164],[-0.696223102955209,44.04558133048343],[-0.697440866891037,44.043218614886364],[-0.699907396940412,44.04127721845559],[-0.703215986455297,44.04016437981051],[-0.706863050905547,44.040049466113324],[-0.710293541002227,44.04094996596444],[-0.713044444244121,44.042792925448715],[-0.715638218648086,44.04156265414597],[-0.718469494972421,44.042078596796],[-0.719582650070183,44.043060969743124],[-0.719948778309034,44.044224328173634],[-0.721947630059525,44.04537807537952],[-0.722475085111842,44.046546810416025],[-0.724056206908285,44.04692909743086],[-0.725297685147758,44.04782797561104],[-0.726039673588926,44.051111536219395],[-0.728440000167699,44.05085929202691],[-0.732202104746588,44.04907399118034],[-0.736729770118078,44.04876904581904],[-0.73935355403923,44.04935348301934],[-0.741629218238932,44.05046203786284],[-0.74336081421285,44.05199927023005],[-0.744403101748037,44.05384708921962],[-0.746690269601128,44.05470124936824],[-0.748514872884364,44.05457760987138],[-0.750122987993928,44.05501587006693],[-0.751902795917635,44.056868885735675],[-0.753433698263357,44.0574357701791],[-0.75589343957427,44.05620400460489],[-0.758520161753491,44.05562572445271],[-0.761266534994219,44.05562216226545],[-0.763951411552227,44.0562125515979],[-0.767417190462248,44.0582695564869],[-0.769221370197471,44.06114688744339],[-0.773010694466047,44.06382706767932],[-0.77426773041101,44.06662497388544],[-0.77755803160586,44.068079916005026],[-0.780068271245239,44.070815159358716],[-0.780502931962234,44.07403694760008],[-0.777807457736235,44.07923311317115],[-0.778402587562858,44.08252786163421],[-0.777495834875286,44.08512351585893],[-0.775306172945713,44.08723156029862],[-0.77040917336154,44.089762384863185],[-0.767920433037443,44.09051337973472],[-0.766873698085154,44.09171758228989],[-0.764720943275387,44.09241288227666],[-0.761942676626053,44.09477006929063],[-0.75951280071558,44.09569546288785],[-0.754759478523105,44.096360874325406],[-0.750232462079675,44.096023614643265],[-0.745553196780919,44.093711086762085],[-0.739473782748648,44.09471935961944],[-0.735933768339902,44.09406666977617],[-0.732430040107763,44.092233932829664],[-0.726042207446357,44.093019291206964],[-0.72255776154991,44.0923851161783],[-0.719672823668428,44.09085729065325],[-0.715220970719127,44.0918606754598],[-0.710701273537097,44.09120572810895],[-0.707235539794311,44.08914689119765],[-0.705519013418074,44.08654115445743],[-0.702195807729063,44.08441653505436],[-0.700615579255006,44.081994319394965],[-0.70044725342965,44.07940706220676],[-0.701268340380331,44.0774712667254],[-0.703414916102624,44.0753942825016],[-0.70613033968337,44.07416130478184],[-0.706686830339617,44.0728408674491],[-0.70530603820672,44.07162944097652],[-0.70192923464518,44.07222065973085],[-0.699135659535926,44.07201776977994],[-0.695891566262236,44.07090507306505],[-0.693761616915441,44.06930859902332],[-0.691116792827359,44.06967275861875],[-0.68838452919046,44.069467532336006],[-0.685852600553125,44.068699236091646],[-0.682877225147158,44.06699604356992],[-0.678689888599172,44.06792168978316],[-0.675043066453487,44.06777724283901],[-0.671750614690099,44.066637452049584],[-0.669313894367675,44.06467589365866],[-0.668112675296008,44.06223493979943],[-0.668289539684534,44.05960465593237],[-0.669370553839858,44.057736535681464],[-0.671514961021227,44.055983536226094],[-0.670452860577663,44.054841896254075],[-0.670354623474871,44.05331883811388],[-0.671330926578854,44.0508976040236],[-0.673740508676148,44.049380805688884],[-0.673234484249294,44.047545365886705],[-0.67468394031794,44.04581120514105]],[[-0.971315545301622,44.115832696611],[-0.971239373148496,44.11835549370639],[-0.969656190425649,44.11977206957822],[-0.96682355724895,44.12009427199042],[-0.964504389532328,44.118879151718936],[-0.964072099124238,44.11679574661551],[-0.965679828050704,44.11492976740082],[-0.965651532069667,44.11260286837583],[-0.967214043879219,44.11122792949145],[-0.970046233389541,44.11090571853362],[-0.972365194424718,44.112120716328704],[-0.972812565838053,44.114161256429604],[-0.971315545301622,44.115832696611]],[[-0.940252943691624,44.196677933550774],[-0.937706706643838,44.19743140456693],[-0.93496605822155,44.19762061046946],[-0.932267100950801,44.197229251255095],[-0.929462418532132,44.196067034239476],[-0.925881286197558,44.19672103609527],[-0.923838260768371,44.19821216641157],[-0.920584308168677,44.199321015170895],[-0.917845285927195,44.19952268362406],[-0.915142852428243,44.199143608357126],[-0.912660518248041,44.19819016948541],[-0.910209847265149,44.19623384300458],[-0.909163507387627,44.194401725730785],[-0.908697577135882,44.19122486861974],[-0.903596116785966,44.189327650156315],[-0.901049916832676,44.18660699042224],[-0.900502926139831,44.183959260121355],[-0.901402645816948,44.181406539633585],[-0.902938526577757,44.17976286494105],[-0.908014331918518,44.176327359557014],[-0.912229854455149,44.17508076221287],[-0.915884148815479,44.17521731803558],[-0.91922242423828,44.17637027321934],[-0.920722224051893,44.1754612154392],[-0.922677510942203,44.17522672385876],[-0.919749253905344,44.17382853298279],[-0.917995273231589,44.17230221566137],[-0.916932500376115,44.17047515838607],[-0.916652403690453,44.1685047275234],[-0.917179025471139,44.16656062134648],[-0.918466938232896,44.16481025368271],[-0.920405182225272,44.16340434015457],[-0.922826836561267,44.162463927033116],[-0.927420214703499,44.162136183123856],[-0.929995738734642,44.16269724004703],[-0.932289638747553,44.16379112182397],[-0.934836311731883,44.1665110241711],[-0.935528706854306,44.1701986894911],[-0.940669822006858,44.17216062093777],[-0.943217271116104,44.17488034062078],[-0.943682688675918,44.17814319953152],[-0.942218218209538,44.18148863197662],[-0.945406108764567,44.18321993683266],[-0.947147258338843,44.18475405072714],[-0.948363048659987,44.18719208863007],[-0.948374570254459,44.18917280817604],[-0.946611124021769,44.192243850623285],[-0.940252943691624,44.196677933550774]],[[-0.392913925391541,44.22495191000632],[-0.395087321813476,44.22707168071628],[-0.395967264131958,44.229628154525365],[-0.395419625340124,44.23223216340342],[-0.393486095614447,44.234519773744864],[-0.390579149974824,44.23605003824707],[-0.387496463505673,44.236651155159194],[-0.38612659305336,44.239915050594604],[-0.384358505172924,44.24143423365077],[-0.382053022298906,44.24251898784904],[-0.379408723614446,44.24307586733018],[-0.376653402823754,44.24305689778201],[-0.374024427625558,44.24246371342518],[-0.371748270344785,44.24134741608098],[-0.37002098178548,44.23980416852391],[-0.368991297468872,44.237966903569344],[-0.368747834507548,44.23599386608795],[-0.36942255831671,44.233865618056285],[-0.366403153471766,44.23163189053847],[-0.365180216935875,44.2291494102219],[-0.365641850953525,44.225886157083686],[-0.367576208347304,44.22359904707708],[-0.371393139817476,44.22180322909134],[-0.380720038335431,44.22044190014112],[-0.384263812700955,44.221106104351634],[-0.387799414079246,44.22325157913631],[-0.390627999446004,44.223846739677995],[-0.392913925391541,44.22495191000632]]]}}],"metadata":{"generated_at_utc":"2026-09-21T19:59:28.806676Z","product_type":"cumulative_active_fire_detection_extent","product_label":"Emprises cumulées des détections actives FIRMS","not_a_burn_perimeter":true,"not_a_continuous_fire_front":true,"not_an_arrival_time_interpolation":true,"snapshot_step_hours":6,"confidence_filter":{"VIIRS":["nominal","high"],"MODIS_minimum":30},"footprint_radius_m":{"VIIRS":300.0,"MODIS":750.0},"same_pass_neighbour_m":2000.0,"continuity_distance_m":3000.0,"clusters":[{"cluster_id":1,"first_supported_detection_utc":"2026-09-17T01:02:00Z","last_supported_detection_utc":"2026-09-21T12:53:00Z","pass_states":5,"published_snapshots":3,"final_detected_area_km2":2.1958793816203577}]},"bbox":[-0.9728125658380528,44.033537577644196,-0.3651802169358753,44.24307586733018]}