{"type":"FeatureCollection","name":"fire_progression_arrival_v1","features":[{"type":"Feature","properties":{"category":"arrival_step","arrival_snapshot_index":3,"first_detected_utc":"2026-09-16T13:23:00+00:00","first_detected_local":"2026-09-16T15:23:00+02:00","area_km2":4.875,"label":"Première détection FIRMS","model_version":"fire_progression_arrival_v1"},"geometry":{"type":"Polygon","coordinates":[[[-0.9394576672125399,44.196332443445435],[-0.9393016944015372,44.194085027077776],[-0.9424254124169328,44.19397276984113],[-0.9422693286862365,44.19172536042909],[-0.9453929110937828,44.19161301886718],[-0.9452367164627965,44.18936561641731],[-0.9483601632654219,44.1892531905377],[-0.9477350154000951,44.1802636229911],[-0.9446120614885541,44.18037603056085],[-0.9444559286250952,44.17812864009915],[-0.9382102301614266,44.17835317946212],[-0.9380543560291335,44.17610578226533],[-0.9349316114910893,44.17621791406849],[-0.9347758728705807,44.1739705147173],[-0.9285305932199243,44.17419450258631],[-0.9283751132685608,44.171947096529706],[-0.9221300307849115,44.17217071981486],[-0.9222852643784043,44.17441813497731],[-0.9191625815353063,44.174529817867224],[-0.9193177042163109,44.17677723999306],[-0.9161948859123124,44.17688883855594],[-0.9169700672909212,44.18812600802992],[-0.9200935017017311,44.18801438674361],[-0.9204039066272476,44.19250926223821],[-0.923527575268412,44.19239754296115],[-0.9236829194192681,44.19464497974463],[-0.9330542213605738,44.194309274849395],[-0.9332099476284743,44.196556700348495],[-0.9394576672125399,44.196332443445435]]]}},{"type":"Feature","properties":{"category":"arrival_step","arrival_snapshot_index":4,"first_detected_utc":"2026-09-16T13:42:00+00:00","first_detected_local":"2026-09-16T15:42:00+02:00","area_km2":0.438,"label":"Première détection FIRMS","model_version":"fire_progression_arrival_v1"},"geometry":{"type":"Polygon","coordinates":[[[-0.9166599579466767,44.183631133028825],[-0.9161948859123124,44.17688883855594],[-0.9193177042163109,44.17677723999306],[-0.9191625815353063,44.174529817867224],[-0.9222852643784043,44.17441813497731],[-0.9221300307849115,44.17217071981486],[-0.9158848991937771,44.17239398763211],[-0.9160398864235764,44.174641411886],[-0.9129171790529097,44.174752917033125],[-0.913536757742938,44.183742656339085],[-0.9166599579466767,44.183631133028825]]]}},{"type":"Feature","properties":{"category":"arrival_step","arrival_snapshot_index":5,"first_detected_utc":"2026-09-16T14:42:00+00:00","first_detected_local":"2026-09-16T16:42:00+02:00","area_km2":3.938,"label":"Première détection FIRMS","model_version":"fire_progression_arrival_v1"},"geometry":{"type":"MultiPolygon","coordinates":[[[[-0.9382102301614266,44.17835317946212],[-0.9380543560291335,44.17610578226533],[-0.9349316114910893,44.17621791406849],[-0.9347758728705807,44.1739705147173],[-0.9285305932199243,44.17419450258631],[-0.9283751132685608,44.171947096529706],[-0.9190074711229335,44.172282398157236],[-0.9185422134830665,44.16554015355585],[-0.9216644036598443,44.165428488854836],[-0.9215092191651084,44.1631810833884],[-0.9339973644954032,44.16273355425135],[-0.9343087309058393,44.16722833116639],[-0.9374309827679412,44.167116217625086],[-0.9375868075959642,44.16936360515644],[-0.9407091702886368,44.1692513981893],[-0.94102110325282,44.17374617137461],[-0.9441436999440497,44.173633866402],[-0.9444559286250952,44.17812864009915],[-0.9382102301614266,44.17835317946212]]],[[[-0.9143115068550429,44.19497988451224],[-0.9141565325137982,44.19273243409177],[-0.9110328270609241,44.19284388666719],[-0.9108779882436202,44.19059643409806],[-0.9077543938041119,44.190707793237245],[-0.90759969049134,44.188460338526795],[-0.9044762070681038,44.18857160423657],[-0.9043216392404579,44.186324147392135],[-0.9011982668363944,44.186435319679426],[-0.9007350063979191,44.17969294998052],[-0.9038580091161228,44.17958179127315],[-0.9037034901893811,44.17733434404937],[-0.9068263574767612,44.1772231009908],[-0.9066717275735466,44.17497566071022],[-0.9129171790529097,44.174752917033125],[-0.913536757742938,44.183742656339085],[-0.9166599579466767,44.183631133028825],[-0.9169700672909212,44.18812600802992],[-0.9200935017017311,44.18801438674361],[-0.9204039066272476,44.19250926223821],[-0.923527575268412,44.19239754296115],[-0.9236829194192681,44.19464497974463],[-0.9143115068550429,44.19497988451224]]]]}},{"type":"Feature","properties":{"category":"firms_extent_snapshot","snapshot_index":2,"pass_time_utc":"2026-09-16T12:46:00+00:00","dt_local":"2026-09-16T14:46:00+02:00","label":"Emprise FIRMS cumulée à ce passage","interpretation":"Enveloppe des détections FIRMS, pas une surface brûlée","cumulative":true,"point_count":7,"extent_method":"cumulative_detection_extent_smoothed_landmasked_web_v1","local_cluster_link_m":10000.0,"model_version":"fire_progression_arrival_v1"},"geometry":{"type":"Polygon","coordinates":[[[-0.9469460750440785,44.1864652157836],[-0.9465920776985628,44.18775179781372],[-0.9454369709794878,44.1887663805294],[-0.9409100731839157,44.18948079889615],[-0.9388577158879439,44.19064241878871],[-0.9382354202376378,44.19234664657914],[-0.9392050232541971,44.19432602190533],[-0.9391896151975095,44.19558374714508],[-0.9381269202835965,44.19689027765779],[-0.9363894469110237,44.1975596556643],[-0.9346412059401623,44.19754851158484],[-0.933032780485414,44.196931092307196],[-0.9320188731014264,44.195841090639725],[-0.9316924308237742,44.19386107571241],[-0.9308747711435492,44.19276366680514],[-0.9262402226627676,44.19136056379305],[-0.9247551943741736,44.189763616981054],[-0.9250526469667485,44.18795833176223],[-0.9278214115534109,44.18601169883009],[-0.9296538223969962,44.18303959595964],[-0.9363207156771861,44.18151036848635],[-0.9386907629082271,44.18167700895873],[-0.9415443206331346,44.183528530774176],[-0.9451902882270519,44.184313371989774],[-0.9464154145816606,44.18521047813463],[-0.9469460750440785,44.1864652157836]]]}},{"type":"Feature","properties":{"category":"observed_front","snapshot_index":2,"pass_time_utc":"2026-09-16T12:46:00+00:00","dt_local":"2026-09-16T14:46:00+02:00","area_km2":3.438,"label":"Activité observée","coherence_level":"indisponible","coherence_fraction":0.0,"projection_displayed":false,"model_version":"fire_progression_arrival_v1"},"geometry":{"type":"Polygon","coordinates":[[[-0.9394576672125399,44.196332443445435],[-0.9393016944015372,44.194085027077776],[-0.9424254124169328,44.19397276984113],[-0.9422693286862365,44.19172536042909],[-0.9453929110937828,44.19161301886718],[-0.9452367164627965,44.18936561641731],[-0.9483601632654219,44.1892531905377],[-0.9477350154000951,44.1802636229911],[-0.9446120614885541,44.18037603056085],[-0.9444559286250952,44.17812864009915],[-0.9382102301614266,44.17835317946212],[-0.9380543560291335,44.17610578226533],[-0.9286860854690041,44.1764419110582],[-0.928841590017258,44.17868932194202],[-0.9257186853550089,44.17880119168261],[-0.9258740789966006,44.18104860953037],[-0.9227510388346649,44.1811603949454],[-0.923527575268412,44.19239754296115],[-0.9266512316195998,44.19228573478465],[-0.9268066990374126,44.19453316701526],[-0.9330542213605738,44.194309274849395],[-0.9332099476284743,44.196556700348495],[-0.9394576672125399,44.196332443445435]]]}},{"type":"Feature","properties":{"category":"historical_support","snapshot_index":3,"pass_time_utc":"2026-09-16T13:23:00+00:00","dt_local":"2026-09-16T15:23:00+02:00","area_km2":4.875,"label":"Isoline temporelle","coherence_level":"indisponible","coherence_fraction":0.0,"projection_displayed":false,"model_version":"fire_progression_arrival_v1"},"geometry":{"type":"Polygon","coordinates":[[[-0.9394576672125399,44.196332443445435],[-0.9393016944015372,44.194085027077776],[-0.9424254124169328,44.19397276984113],[-0.9422693286862365,44.19172536042909],[-0.9453929110937828,44.19161301886718],[-0.9452367164627965,44.18936561641731],[-0.9483601632654219,44.1892531905377],[-0.9477350154000951,44.1802636229911],[-0.9446120614885541,44.18037603056085],[-0.9444559286250952,44.17812864009915],[-0.9382102301614266,44.17835317946212],[-0.9380543560291335,44.17610578226533],[-0.9349316114910893,44.17621791406849],[-0.9347758728705807,44.1739705147173],[-0.9285305932199243,44.17419450258631],[-0.9283751132685608,44.171947096529706],[-0.9221300307849115,44.17217071981486],[-0.9222852643784043,44.17441813497731],[-0.9191625815353063,44.174529817867224],[-0.9193177042163109,44.17677723999306],[-0.9161948859123124,44.17688883855594],[-0.9169700672909212,44.18812600802992],[-0.9200935017017311,44.18801438674361],[-0.9204039066272476,44.19250926223821],[-0.923527575268412,44.19239754296115],[-0.9236829194192681,44.19464497974463],[-0.9330542213605738,44.194309274849395],[-0.9332099476284743,44.196556700348495],[-0.9394576672125399,44.196332443445435]]]}},{"type":"Feature","properties":{"category":"observed_front","snapshot_index":3,"pass_time_utc":"2026-09-16T13:23:00+00:00","dt_local":"2026-09-16T15:23:00+02:00","area_km2":4.875,"label":"Activité observée","coherence_level":"indisponible","coherence_fraction":0.0,"projection_displayed":false,"model_version":"fire_progression_arrival_v1"},"geometry":{"type":"Polygon","coordinates":[[[-0.9394576672125399,44.196332443445435],[-0.9393016944015372,44.194085027077776],[-0.9424254124169328,44.19397276984113],[-0.9422693286862365,44.19172536042909],[-0.9453929110937828,44.19161301886718],[-0.9452367164627965,44.18936561641731],[-0.9483601632654219,44.1892531905377],[-0.9477350154000951,44.1802636229911],[-0.9446120614885541,44.18037603056085],[-0.9444559286250952,44.17812864009915],[-0.9382102301614266,44.17835317946212],[-0.9380543560291335,44.17610578226533],[-0.9349316114910893,44.17621791406849],[-0.9347758728705807,44.1739705147173],[-0.9285305932199243,44.17419450258631],[-0.9283751132685608,44.171947096529706],[-0.9221300307849115,44.17217071981486],[-0.9222852643784043,44.17441813497731],[-0.9191625815353063,44.174529817867224],[-0.9193177042163109,44.17677723999306],[-0.9161948859123124,44.17688883855594],[-0.9169700672909212,44.18812600802992],[-0.9200935017017311,44.18801438674361],[-0.9204039066272476,44.19250926223821],[-0.923527575268412,44.19239754296115],[-0.9236829194192681,44.19464497974463],[-0.9330542213605738,44.194309274849395],[-0.9332099476284743,44.196556700348495],[-0.9394576672125399,44.196332443445435]]]}},{"type":"Feature","properties":{"category":"historical_support","snapshot_index":4,"pass_time_utc":"2026-09-16T13:42:00+00:00","dt_local":"2026-09-16T15:42:00+02:00","area_km2":5.312,"label":"Isoline temporelle","coherence_level":"faible","coherence_fraction":1.0,"projection_displayed":false,"model_version":"fire_progression_arrival_v1"},"geometry":{"type":"Polygon","coordinates":[[[-0.9394576672125399,44.196332443445435],[-0.9393016944015372,44.194085027077776],[-0.9424254124169328,44.19397276984113],[-0.9422693286862365,44.19172536042909],[-0.9453929110937828,44.19161301886718],[-0.9452367164627965,44.18936561641731],[-0.9483601632654219,44.1892531905377],[-0.9477350154000951,44.1802636229911],[-0.9446120614885541,44.18037603056085],[-0.9444559286250952,44.17812864009915],[-0.9382102301614266,44.17835317946212],[-0.9380543560291335,44.17610578226533],[-0.9349316114910893,44.17621791406849],[-0.9347758728705807,44.1739705147173],[-0.9285305932199243,44.17419450258631],[-0.9283751132685608,44.171947096529706],[-0.9158848991937771,44.17239398763211],[-0.9160398864235764,44.174641411886],[-0.9129171790529097,44.174752917033125],[-0.913536757742938,44.183742656339085],[-0.9166599579466767,44.183631133028825],[-0.9169700672909212,44.18812600802992],[-0.9200935017017311,44.18801438674361],[-0.9204039066272476,44.19250926223821],[-0.923527575268412,44.19239754296115],[-0.9236829194192681,44.19464497974463],[-0.9330542213605738,44.194309274849395],[-0.9332099476284743,44.196556700348495],[-0.9394576672125399,44.196332443445435]]]}},{"type":"Feature","properties":{"category":"observed_front","snapshot_index":4,"pass_time_utc":"2026-09-16T13:42:00+00:00","dt_local":"2026-09-16T15:42:00+02:00","area_km2":3.75,"label":"Activité observée","coherence_level":"faible","coherence_fraction":1.0,"projection_displayed":false,"model_version":"fire_progression_arrival_v1"},"geometry":{"type":"Polygon","coordinates":[[[-0.936022126836254,44.191949776863744],[-0.9358663019551181,44.189702360701666],[-0.9389897857979435,44.18959020149985],[-0.9388338500024263,44.187342792296256],[-0.9419571982679706,44.18723054877183],[-0.9413330855629688,44.17824095421791],[-0.9382102301614266,44.17835317946212],[-0.9380543560291335,44.17610578226533],[-0.9349316114910893,44.17621791406849],[-0.9347758728705807,44.1739705147173],[-0.9285305932199243,44.17419450258631],[-0.9283751132685608,44.171947096529706],[-0.9158848991937771,44.17239398763211],[-0.9160398864235764,44.174641411886],[-0.9129171790529097,44.174752917033125],[-0.913536757742938,44.183742656339085],[-0.9166599579466767,44.183631133028825],[-0.9168150064856964,44.185878569329674],[-0.9199383176557445,44.185766952588445],[-0.9200935017017311,44.18801438674361],[-0.923216923835177,44.187902676564526],[-0.9233722434075341,44.19015010856667],[-0.9264957765014682,44.19003830494285],[-0.9266512316195998,44.19228573478465],[-0.936022126836254,44.191949776863744]]]}},{"type":"Feature","properties":{"category":"firms_extent_snapshot","snapshot_index":5,"pass_time_utc":"2026-09-16T14:42:00+00:00","dt_local":"2026-09-16T16:42:00+02:00","label":"Emprise FIRMS cumulée à ce passage","interpretation":"Enveloppe des détections FIRMS, pas une surface brûlée","cumulative":true,"point_count":37,"extent_method":"cumulative_detection_extent_smoothed_landmasked_web_v1","local_cluster_link_m":10000.0,"model_version":"fire_progression_arrival_v1"},"geometry":{"type":"MultiPolygon","coordinates":[[[[-0.3959682061923223,44.22965021545623],[-0.39566060795951413,44.23167324653595],[-0.3941399257450828,44.23394897066854],[-0.39213544979561243,44.235385864749205],[-0.38803752939390673,44.23705686416632],[-0.38498339732215825,44.240993607515485],[-0.38129904760145744,44.24273952999001],[-0.3775236498639361,44.243124684698394],[-0.37324245037855436,44.242157086438596],[-0.37003692071106264,44.23982303250758],[-0.36882500083107145,44.23733783358609],[-0.36877779741977407,44.23412170904446],[-0.3659282205459441,44.23097600471326],[-0.36510402926969465,44.22775059822729],[-0.3664501604680919,44.22467311800383],[-0.3696309579719092,44.22239804588704],[-0.37794676598031096,44.22062268687643],[-0.3807658688364156,44.22044535516722],[-0.38430431747407773,44.22112190781197],[-0.38782890984600765,44.22306388785077],[-0.3928784805462951,44.22493073028064],[-0.3950999326040712,44.22709180321516],[-0.3959682061923223,44.22965021545623]]],[[[-0.7805902919284542,44.07273739886417],[-0.7802972125145058,44.07476131549708],[-0.7780010509897823,44.079194809333906],[-0.7781291124767207,44.08385834075251],[-0.7759791979650289,44.08674883441601],[-0.768311233333329,44.09056074733655],[-0.7611355371971015,44.095151020022634],[-0.7578355234969044,44.09599801024446],[-0.7520415061410827,44.09635432473402],[-0.7494129083182692,44.09577639396343],[-0.7454265593084962,44.09412678653012],[-0.7385899701684832,44.094654147982006],[-0.7359615875307531,44.09407589504837],[-0.7319982593101027,44.09241844832623],[-0.7259964590384056,44.0930159805529],[-0.723378594611196,44.09263003698003],[-0.7198313812405307,44.091393147618795],[-0.7142714190576365,44.09186008878138],[-0.7099195678080289,44.09090152485583],[-0.7072646301939477,44.08917255130098],[-0.7054904326560874,44.086722250712455],[-0.7022248934388888,44.08444219642942],[-0.7008642259502214,44.08259744879149],[-0.7004654397507543,44.079330932994814],[-0.7028963247092898,44.07500944007158],[-0.7018383074247043,44.07288756175732],[-0.6973707647295612,44.07154948457014],[-0.693885238708826,44.06982127915694],[-0.6883405805953772,44.06945783793831],[-0.6830058532279106,44.06742812340969],[-0.6769636990467415,44.0679813294797],[-0.6732785013506796,44.06730857051352],[-0.6710115575363046,44.06619078943627],[-0.6689332545935613,44.06415915543065],[-0.6681086374691939,44.062213063338945],[-0.6681158704675357,44.06023255848916],[-0.6704944499221265,44.05624286477214],[-0.6702529749083733,44.05382061992932],[-0.670975918965617,44.05144664809751],[-0.6728403747093211,44.0494334821898],[-0.6734103368872506,44.04705437744901],[-0.6747087841726921,44.0457983234534],[-0.6771992880491899,44.045279103035746],[-0.6811184120056402,44.04616082734146],[-0.6908256270184632,44.04500297496407],[-0.6946432520274387,44.04517270216997],[-0.6963062947483077,44.04448616489396],[-0.6985212956221084,44.04217680659861],[-0.7006475403908443,44.04092382174634],[-0.7032610591055853,44.04015798643057],[-0.7068327441152619,44.04004645007246],[-0.7126575668984844,44.04186914048384],[-0.7163246665965791,44.04153337608226],[-0.7182044174158021,44.04194767359508],[-0.7227069591133397,44.0462294251143],[-0.7277435093278194,44.049702213624],[-0.7298729110707587,44.0497892581389],[-0.7340294877982738,44.04875585206701],[-0.7375997525952589,44.04889638733361],[-0.7416063288127412,44.05044739140414],[-0.745355908125327,44.05411557680668],[-0.7495255290518907,44.05478982283735],[-0.7526442405408725,44.05640974438845],[-0.7545726842263171,44.05654889519081],[-0.7603064408248646,44.05555838775356],[-0.7647329295444389,44.05651636345277],[-0.766903332874207,44.05781675376884],[-0.76947935639171,44.061180552487265],[-0.7724853837800515,44.063257102921405],[-0.7747104338658158,44.066518329546085],[-0.7787657064086092,44.06904665852845],[-0.7800576397444444,44.0707944637589],[-0.7805902919284542,44.07273739886417]]],[[[-0.7607150233664809,44.03995910127913],[-0.7601741046493007,44.04256325716941],[-0.7582926878106858,44.04481984735481],[-0.7553571152756193,44.046385265965924],[-0.7518143552750696,44.04702112676013],[-0.7482039234083457,44.04663059361215],[-0.7450756510653738,44.045273141734995],[-0.7429058755304213,44.04315549135145],[-0.7420248714685596,44.0406001009788],[-0.7425666012618795,44.0379960377057],[-0.7444484156634478,44.03573972647367],[-0.7473837393612891,44.034174609745],[-0.7509257498898915,44.03353889692368],[-0.7545353706804596,44.03392933745448],[-0.7576632454604901,44.035286510378256],[-0.7598332698326862,44.03740385887936],[-0.7607150233664809,44.03995910127913]]],[[[-0.9484582671680911,44.18787304850562],[-0.947948540071904,44.19042591735114],[-0.9466290706002708,44.192225951027424],[-0.9417552938155963,44.195877299547334],[-0.9395359477768896,44.196954187081225],[-0.9349202135572436,44.19761738688545],[-0.9293483087006553,44.19622143042149],[-0.9276818001122735,44.19616845662345],[-0.9222156396299621,44.1989020658644],[-0.9196515636377841,44.199455705605025],[-0.9168983578052579,44.19945676447906],[-0.9134511431491906,44.198570810749025],[-0.9107377687450232,44.19680318670143],[-0.9094389507134377,44.195056807900606],[-0.9082406809144049,44.19159446652731],[-0.9036317290602031,44.18934866420469],[-0.9017888148280928,44.18773399035864],[-0.9006057320370245,44.185357156938544],[-0.9005917422952575,44.18332214530698],[-0.9023345784840308,44.18029154079284],[-0.9079295040018978,44.17637470011539],[-0.9112231568522541,44.1752285304044],[-0.9152755401124165,44.17481140533674],[-0.9169586096414936,44.173816270886114],[-0.9175898056160304,44.17231586710346],[-0.9167439919704454,44.167823518934945],[-0.9175413773779362,44.16592788051434],[-0.9190688281798288,44.16428046443816],[-0.9228558231139501,44.162456735737955],[-0.9273898312321078,44.16213322796353],[-0.9307683258820811,44.1629915604283],[-0.9329632034708296,44.16427413698854],[-0.9348186621427147,44.16648041778669],[-0.9360423744902567,44.16990020444121],[-0.9406342068119441,44.17213961909854],[-0.9424398697965038,44.17370563516212],[-0.9437664766567986,44.17684345088558],[-0.9431354098661698,44.181376218957865],[-0.9471311436949097,44.18473527152149],[-0.9484582671680911,44.18787304850562]]]]}},{"type":"Feature","properties":{"category":"historical_support","snapshot_index":5,"pass_time_utc":"2026-09-16T14:42:00+00:00","dt_local":"2026-09-16T16:42:00+02:00","area_km2":9.25,"label":"Isoline temporelle","coherence_level":"indisponible","coherence_fraction":0.0,"projection_displayed":false,"model_version":"fire_progression_arrival_v1"},"geometry":{"type":"Polygon","coordinates":[[[-0.9394576672125399,44.196332443445435],[-0.9393016944015372,44.194085027077776],[-0.9424254124169328,44.19397276984113],[-0.9422693286862365,44.19172536042909],[-0.9453929110937828,44.19161301886718],[-0.9452367164627965,44.18936561641731],[-0.9483601632654219,44.1892531905377],[-0.9477350154000951,44.1802636229911],[-0.9446120614885541,44.18037603056085],[-0.9441436999440497,44.173633866402],[-0.94102110325282,44.17374617137461],[-0.9407091702886368,44.1692513981893],[-0.9375868075959642,44.16936360515644],[-0.9374309827679412,44.167116217625086],[-0.9343087309058393,44.16722833116639],[-0.9339973644954032,44.16273355425135],[-0.9215092191651084,44.1631810833884],[-0.9216644036598443,44.165428488854836],[-0.9185422134830665,44.16554015355585],[-0.9190074711229335,44.172282398157236],[-0.9158848991937771,44.17239398763211],[-0.9160398864235764,44.174641411886],[-0.9066717275735466,44.17497566071022],[-0.9068263574767612,44.1772231009908],[-0.9037034901893811,44.17733434404937],[-0.9038580091161228,44.17958179127315],[-0.9007350063979191,44.17969294998052],[-0.9011982668363944,44.186435319679426],[-0.9043216392404579,44.186324147392135],[-0.9044762070681038,44.18857160423657],[-0.90759969049134,44.188460338526795],[-0.9077543938041119,44.190707793237245],[-0.9108779882436202,44.19059643409806],[-0.9110328270609241,44.19284388666719],[-0.9141565325137982,44.19273243409177],[-0.9143115068550429,44.19497988451224],[-0.9330542213605738,44.194309274849395],[-0.9332099476284743,44.196556700348495],[-0.9394576672125399,44.196332443445435]]]}},{"type":"Feature","properties":{"category":"observed_front","snapshot_index":5,"pass_time_utc":"2026-09-16T14:42:00+00:00","dt_local":"2026-09-16T16:42:00+02:00","area_km2":9.125,"label":"Activité observée","coherence_level":"indisponible","coherence_fraction":0.0,"projection_displayed":false,"model_version":"fire_progression_arrival_v1"},"geometry":{"type":"Polygon","coordinates":[[[-0.9424254124169328,44.19397276984113],[-0.9422693286862365,44.19172536042909],[-0.9453929110937828,44.19161301886718],[-0.9452367164627965,44.18936561641731],[-0.9483601632654219,44.1892531905377],[-0.9477350154000951,44.1802636229911],[-0.9446120614885541,44.18037603056085],[-0.9441436999440497,44.173633866402],[-0.94102110325282,44.17374617137461],[-0.9407091702886368,44.1692513981893],[-0.9375868075959642,44.16936360515644],[-0.9374309827679412,44.167116217625086],[-0.9343087309058393,44.16722833116639],[-0.9339973644954032,44.16273355425135],[-0.9215092191651084,44.1631810833884],[-0.9216644036598443,44.165428488854836],[-0.9185422134830665,44.16554015355585],[-0.9190074711229335,44.172282398157236],[-0.9158848991937771,44.17239398763211],[-0.9160398864235764,44.174641411886],[-0.9066717275735466,44.17497566071022],[-0.9068263574767612,44.1772231009908],[-0.9037034901893811,44.17733434404937],[-0.9038580091161228,44.17958179127315],[-0.9007350063979191,44.17969294998052],[-0.9011982668363944,44.186435319679426],[-0.9043216392404579,44.186324147392135],[-0.9044762070681038,44.18857160423657],[-0.90759969049134,44.188460338526795],[-0.9077543938041119,44.190707793237245],[-0.9108779882436202,44.19059643409806],[-0.9110328270609241,44.19284388666719],[-0.9141565325137982,44.19273243409177],[-0.9143115068550429,44.19497988451224],[-0.9424254124169328,44.19397276984113]]]}},{"type":"Feature","properties":{"category":"firms_extent_snapshot","snapshot_index":6,"pass_time_utc":"2026-09-16T20:19:00+00:00","dt_local":"2026-09-16T22:19:00+02:00","label":"Emprise FIRMS cumulée à ce passage","interpretation":"Enveloppe des détections FIRMS, pas une surface brûlée","cumulative":true,"point_count":39,"extent_method":"cumulative_detection_extent_smoothed_landmasked_web_v1","local_cluster_link_m":10000.0,"model_version":"fire_progression_arrival_v1"},"geometry":{"type":"MultiPolygon","coordinates":[[[[-0.3959682061923223,44.22965021545623],[-0.39566060795951413,44.23167324653595],[-0.3941399257450828,44.23394897066854],[-0.39213544979561243,44.235385864749205],[-0.38803752939390673,44.23705686416632],[-0.38498339732215825,44.240993607515485],[-0.38129904760145744,44.24273952999001],[-0.3775236498639361,44.243124684698394],[-0.37324245037855436,44.242157086438596],[-0.37003692071106264,44.23982303250758],[-0.36882500083107145,44.23733783358609],[-0.36877779741977407,44.23412170904446],[-0.3659282205459441,44.23097600471326],[-0.36510402926969465,44.22775059822729],[-0.3664501604680919,44.22467311800383],[-0.3696309579719092,44.22239804588704],[-0.37794676598031096,44.22062268687643],[-0.3807658688364156,44.22044535516722],[-0.38430431747407773,44.22112190781197],[-0.38782890984600765,44.22306388785077],[-0.3928784805462951,44.22493073028064],[-0.3950999326040712,44.22709180321516],[-0.3959682061923223,44.22965021545623]]],[[[-0.7805902919284542,44.07273739886417],[-0.7802972125145058,44.07476131549708],[-0.7780010509897823,44.079194809333906],[-0.7781291124767207,44.08385834075251],[-0.7759791979650289,44.08674883441601],[-0.768311233333329,44.09056074733655],[-0.7611355371971015,44.095151020022634],[-0.7578355234969044,44.09599801024446],[-0.7520415061410827,44.09635432473402],[-0.7494129083182692,44.09577639396343],[-0.7454265593084962,44.09412678653012],[-0.7385899701684832,44.094654147982006],[-0.7359615875307531,44.09407589504837],[-0.7319982593101027,44.09241844832623],[-0.7259964590384056,44.0930159805529],[-0.723378594611196,44.09263003698003],[-0.7198313812405307,44.091393147618795],[-0.7142714190576365,44.09186008878138],[-0.7099195678080289,44.09090152485583],[-0.7072646301939477,44.08917255130098],[-0.7054904326560874,44.086722250712455],[-0.7022248934388888,44.08444219642942],[-0.7008642259502214,44.08259744879149],[-0.7004654397507543,44.079330932994814],[-0.7028963247092898,44.07500944007158],[-0.7018383074247043,44.07288756175732],[-0.6973707647295612,44.07154948457014],[-0.693885238708826,44.06982127915694],[-0.6883405805953772,44.06945783793831],[-0.6830058532279106,44.06742812340969],[-0.6769636990467415,44.0679813294797],[-0.6732785013506796,44.06730857051352],[-0.6710115575363046,44.06619078943627],[-0.6689332545935613,44.06415915543065],[-0.6681086374691939,44.062213063338945],[-0.6681158704675357,44.06023255848916],[-0.6704944499221265,44.05624286477214],[-0.6702529749083733,44.05382061992932],[-0.670975918965617,44.05144664809751],[-0.6728403747093211,44.0494334821898],[-0.6734103368872506,44.04705437744901],[-0.6747087841726921,44.0457983234534],[-0.6771992880491899,44.045279103035746],[-0.6811184120056402,44.04616082734146],[-0.6908256270184632,44.04500297496407],[-0.6946432520274387,44.04517270216997],[-0.6963062947483077,44.04448616489396],[-0.6985212956221084,44.04217680659861],[-0.7006475403908443,44.04092382174634],[-0.7032610591055853,44.04015798643057],[-0.7068327441152619,44.04004645007246],[-0.7126575668984844,44.04186914048384],[-0.7163246665965791,44.04153337608226],[-0.7182044174158021,44.04194767359508],[-0.7227069591133397,44.0462294251143],[-0.7277435093278194,44.049702213624],[-0.7298729110707587,44.0497892581389],[-0.7340294877982738,44.04875585206701],[-0.7375997525952589,44.04889638733361],[-0.7416063288127412,44.05044739140414],[-0.745355908125327,44.05411557680668],[-0.7495255290518907,44.05478982283735],[-0.7526442405408725,44.05640974438845],[-0.7545726842263171,44.05654889519081],[-0.7603064408248646,44.05555838775356],[-0.7647329295444389,44.05651636345277],[-0.766903332874207,44.05781675376884],[-0.76947935639171,44.061180552487265],[-0.7724853837800515,44.063257102921405],[-0.7747104338658158,44.066518329546085],[-0.7787657064086092,44.06904665852845],[-0.7800576397444444,44.0707944637589],[-0.7805902919284542,44.07273739886417]]],[[[-0.7607150233664809,44.03995910127913],[-0.7601741046493007,44.04256325716941],[-0.7582926878106858,44.04481984735481],[-0.7553571152756193,44.046385265965924],[-0.7518143552750696,44.04702112676013],[-0.7482039234083457,44.04663059361215],[-0.7450756510653738,44.045273141734995],[-0.7429058755304213,44.04315549135145],[-0.7420248714685596,44.0406001009788],[-0.7425666012618795,44.0379960377057],[-0.7444484156634478,44.03573972647367],[-0.7473837393612891,44.034174609745],[-0.7509257498898915,44.03353889692368],[-0.7545353706804596,44.03392933745448],[-0.7576632454604901,44.035286510378256],[-0.7598332698326862,44.03740385887936],[-0.7607150233664809,44.03995910127913]]],[[[-0.9484582671680911,44.18787304850562],[-0.947948540071904,44.19042591735114],[-0.9466290706002708,44.192225951027424],[-0.9417552938155963,44.195877299547334],[-0.9395359477768896,44.196954187081225],[-0.9350029664325251,44.197621733753984],[-0.9283155204274557,44.19641582421653],[-0.9259416447280456,44.196925258270284],[-0.9214353530601519,44.199133496671614],[-0.9168983578052579,44.19945676447906],[-0.9134511431491906,44.198570810749025],[-0.9107377687450232,44.19680318670143],[-0.9094389507134377,44.195056807900606],[-0.9082406809144049,44.19159446652731],[-0.9036317290602031,44.18934866420469],[-0.9017888148280928,44.18773399035864],[-0.9006057320370245,44.185357156938544],[-0.9005917422952575,44.18332214530698],[-0.9023345784840308,44.18029154079284],[-0.9079295040018978,44.17637470011539],[-0.9112231568522541,44.1752285304044],[-0.9152755401124165,44.17481140533674],[-0.9169586096414936,44.173816270886114],[-0.9175898056160304,44.17231586710346],[-0.9167439919704454,44.167823518934945],[-0.9175413773779362,44.16592788051434],[-0.9190688281798288,44.16428046443816],[-0.9228558231139501,44.162456735737955],[-0.9273898312321078,44.16213322796353],[-0.9307683258820811,44.1629915604283],[-0.9329632034708296,44.16427413698854],[-0.9348186621427147,44.16648041778669],[-0.9360423744902567,44.16990020444121],[-0.9406342068119441,44.17213961909854],[-0.9424398697965038,44.17370563516212],[-0.9437664766567986,44.17684345088558],[-0.9431354098661698,44.181376218957865],[-0.9471311436949097,44.18473527152149],[-0.9484582671680911,44.18787304850562]]]]}},{"type":"Feature","properties":{"category":"historical_support","snapshot_index":6,"pass_time_utc":"2026-09-16T20:19:00+00:00","dt_local":"2026-09-16T22:19:00+02:00","area_km2":9.25,"label":"Isoline temporelle","coherence_level":"indisponible","coherence_fraction":0.0,"projection_displayed":false,"model_version":"fire_progression_arrival_v1"},"geometry":{"type":"Polygon","coordinates":[[[-0.9394576672125399,44.196332443445435],[-0.9393016944015372,44.194085027077776],[-0.9424254124169328,44.19397276984113],[-0.9422693286862365,44.19172536042909],[-0.9453929110937828,44.19161301886718],[-0.9452367164627965,44.18936561641731],[-0.9483601632654219,44.1892531905377],[-0.9477350154000951,44.1802636229911],[-0.9446120614885541,44.18037603056085],[-0.9441436999440497,44.173633866402],[-0.94102110325282,44.17374617137461],[-0.9407091702886368,44.1692513981893],[-0.9375868075959642,44.16936360515644],[-0.9374309827679412,44.167116217625086],[-0.9343087309058393,44.16722833116639],[-0.9339973644954032,44.16273355425135],[-0.9215092191651084,44.1631810833884],[-0.9216644036598443,44.165428488854836],[-0.9185422134830665,44.16554015355585],[-0.9190074711229335,44.172282398157236],[-0.9158848991937771,44.17239398763211],[-0.9160398864235764,44.174641411886],[-0.9066717275735466,44.17497566071022],[-0.9068263574767612,44.1772231009908],[-0.9037034901893811,44.17733434404937],[-0.9038580091161228,44.17958179127315],[-0.9007350063979191,44.17969294998052],[-0.9011982668363944,44.186435319679426],[-0.9043216392404579,44.186324147392135],[-0.9044762070681038,44.18857160423657],[-0.90759969049134,44.188460338526795],[-0.9077543938041119,44.190707793237245],[-0.9108779882436202,44.19059643409806],[-0.9110328270609241,44.19284388666719],[-0.9141565325137982,44.19273243409177],[-0.9143115068550429,44.19497988451224],[-0.9330542213605738,44.194309274849395],[-0.9332099476284743,44.196556700348495],[-0.9394576672125399,44.196332443445435]]]}},{"type":"Feature","properties":{"category":"observed_front","snapshot_index":6,"pass_time_utc":"2026-09-16T20:19:00+00:00","dt_local":"2026-09-16T22:19:00+02:00","area_km2":3.438,"label":"Activité observée","coherence_level":"indisponible","coherence_fraction":0.0,"projection_displayed":false,"model_version":"fire_progression_arrival_v1"},"geometry":{"type":"Polygon","coordinates":[[[-0.9393016944015372,44.194085027077776],[-0.9391457339304936,44.19183761309479],[-0.9453929110937828,44.19161301886718],[-0.9446120614885541,44.18037603056085],[-0.9383661166234405,44.18060057906694],[-0.9382102301614266,44.17835317946212],[-0.922595768401825,44.17891297254592],[-0.9227510388346649,44.1811603949454],[-0.9165049216724086,44.181383699130684],[-0.9172802257058074,44.19262089261527],[-0.923527575268412,44.19239754296115],[-0.9236829194192681,44.19464497974463],[-0.9393016944015372,44.194085027077776]]]}}]}