{"type":"FeatureCollection","name":"detection_envelopes","crs":{"type":"name","properties":{"name":"urn:ogc:def:crs:OGC:1.3:CRS84"}},"features":[{"type":"Feature","properties":{"cluster_id":1,"snapshot_index":1,"estimated_time_utc":"2026-08-10T01:13:00Z","observed_until_utc":"2026-08-10T01:13:00Z","target_time_utc":"2026-08-10T01:13:00Z","arrival_h":0.0,"hours_ago":25.383333333333333,"supported_detections_cumulative":4,"sources_cumulative":"VIIRS_NOAA21_NRT","last_source":"VIIRS_NOAA21_NRT","last_satellite":"N21","last_instrument":"VIIRS","detected_area_km2":1.0923446053278096,"product_type":"cumulative_active_fire_detection_extent"},"geometry":{"type":"LineString","coordinates":[[0.608572726402168,49.01595304752446],[0.608988600149996,49.01671970909062],[0.607762590597506,49.018342658046],[0.607783740604475,49.01965300735944],[0.608787536987906,49.02083417877354],[0.610473501233118,49.02153253872582],[0.613235076394871,49.02148345346194],[0.616370583364415,49.01996245209366],[0.619240405054918,49.02109856753687],[0.621619050006142,49.02115853114146],[0.623366007665874,49.02052835565058],[0.624476342023438,49.019389174814464],[0.62407358175199,49.01713878974958],[0.622591507309774,49.01620030475431],[0.619731114075797,49.015521785227214],[0.619491008176955,49.01273310671564],[0.616946050155546,49.01114738696033],[0.610625314907325,49.01125697360947],[0.608484807544678,49.011941351248346],[0.607171473853694,49.01386040700806],[0.608572726402168,49.01595304752446]]}},{"type":"Feature","properties":{"cluster_id":1,"snapshot_index":2,"estimated_time_utc":"2026-08-10T04:44:00Z","observed_until_utc":"2026-08-10T04:44:00Z","target_time_utc":"2026-08-10T07:13:00Z","arrival_h":3.5166666666666666,"hours_ago":21.866666666666667,"supported_detections_cumulative":19,"sources_cumulative":"MODIS_NRT, VIIRS_NOAA20_NRT, VIIRS_NOAA21_NRT, VIIRS_SNPP_NRT","last_source":"MODIS_NRT","last_satellite":"Aqua","last_instrument":"MODIS","detected_area_km2":4.314187876780964,"product_type":"cumulative_active_fire_detection_extent"},"geometry":{"type":"LineString","coordinates":[[0.608566750316318,49.01616611831804],[0.603630487684832,49.01680690676459],[0.600106083922234,49.017956865070026],[0.597972833429693,49.0194133591666],[0.596342198681755,49.021815777038],[0.596233513816125,49.02444572317286],[0.597663545663431,49.026902815856054],[0.600414749295875,49.02881293890217],[0.604068290893875,49.02988522445419],[0.60898546226653,49.02982450818913],[0.612628297688409,49.02863585414115],[0.615675823541557,49.02609771436075],[0.616576098176336,49.02303798072619],[0.620047559889117,49.0217143269653],[0.622933124355125,49.02365848961275],[0.62567223342262,49.02457776330471],[0.629574728597854,49.024908641466574],[0.633439535705363,49.024229083213484],[0.637240388323954,49.02211040271448],[0.639073545988704,49.01906351752279],[0.638813710295351,49.0164381433518],[0.637046268508732,49.01407799425371],[0.634040432184419,49.01234232681336],[0.630253784042898,49.01149531222274],[0.626197929622837,49.01167738461632],[0.622561446679439,49.01288852627353],[0.621061599473619,49.01214194863508],[0.618767330200829,49.01194683016966],[0.616228008110857,49.011038517659806],[0.609847912876614,49.011390870525204],[0.608159304991042,49.012163672845865],[0.607208688602808,49.01355271703475],[0.607424984066525,49.014855399948374],[0.608566750316318,49.01616611831804]]}},{"type":"Feature","properties":{"cluster_id":1,"snapshot_index":3,"estimated_time_utc":"2026-08-10T12:42:00Z","observed_until_utc":"2026-08-10T12:42:00Z","target_time_utc":"2026-08-10T13:13:00Z","arrival_h":11.483333333333333,"hours_ago":13.9,"supported_detections_cumulative":24,"sources_cumulative":"MODIS_NRT, VIIRS_NOAA20_NRT, VIIRS_NOAA21_NRT, VIIRS_SNPP_NRT","last_source":"VIIRS_NOAA21_NRT","last_satellite":"N21","last_instrument":"VIIRS","detected_area_km2":4.734459215059617,"product_type":"cumulative_active_fire_detection_extent"},"geometry":{"type":"LineString","coordinates":[[0.607929271926013,49.01620426055313],[0.602737108643033,49.016997247028684],[0.600106083922234,49.017956865070026],[0.597972833429693,49.0194133591666],[0.596342198681755,49.021815777038],[0.596233513816125,49.02444572317286],[0.597663545663431,49.026902815856054],[0.600414749295875,49.02881293890217],[0.604068290893875,49.02988522445419],[0.611209303928605,49.029755719550955],[0.61506787672848,49.02906014850706],[0.618227755877304,49.027446452959076],[0.620633810462732,49.02431194489352],[0.621492741259159,49.02391881960701],[0.627351420336603,49.025735690665755],[0.630351728609912,49.025885627924744],[0.63328899712267,49.02545628716247],[0.637368805966711,49.02357523406476],[0.639618246368925,49.02065145555668],[0.63972472631667,49.01802146103834],[0.637618394380338,49.01462227645813],[0.63488561477558,49.01270118431971],[0.631178052350561,49.011604232585775],[0.626262631934533,49.01166585869803],[0.622561446679439,49.01288852627353],[0.616558064501387,49.01107745417644],[0.610166909107174,49.01132287863469],[0.60843599427976,49.011971572382876],[0.607374281689289,49.01308039223748],[0.607321627156782,49.014645559065244],[0.608655628837696,49.01600933633747],[0.607929271926013,49.01620426055313]]}},{"type":"Feature","properties":{"cluster_id":1,"snapshot_index":4,"estimated_time_utc":"2026-08-10T13:36:00Z","observed_until_utc":"2026-08-10T13:36:00Z","target_time_utc":"2026-08-10T19:13:00Z","arrival_h":12.383333333333333,"hours_ago":13.0,"supported_detections_cumulative":28,"sources_cumulative":"MODIS_NRT, VIIRS_NOAA20_NRT, VIIRS_NOAA21_NRT, VIIRS_SNPP_NRT","last_source":"VIIRS_NOAA20_NRT","last_satellite":"N20","last_instrument":"VIIRS","detected_area_km2":4.734459215059611,"product_type":"cumulative_active_fire_detection_extent"},"geometry":{"type":"LineString","coordinates":[[0.607536935700439,49.01626286666953],[0.602737108643033,49.016997247028684],[0.600052992060791,49.01798378953783],[0.597465745098843,49.01993324486952],[0.596176180969436,49.02242371500779],[0.596433890924709,49.025049166106946],[0.597663545663431,49.026902815856054],[0.600414749295875,49.02881293890217],[0.604068290893875,49.02988522445419],[0.611209303928605,49.029755719550955],[0.61506787672848,49.02906014850706],[0.618227755877304,49.027446452959076],[0.620633810462732,49.02431194489352],[0.621492741259159,49.02391881960701],[0.627351420336603,49.025735690665755],[0.630351728609912,49.025885627924744],[0.63328899712267,49.02545628716247],[0.637368805966711,49.02357523406476],[0.639618246368925,49.02065145555668],[0.63972472631667,49.01802146103834],[0.637618394380338,49.01462227645813],[0.63488561477558,49.01270118431971],[0.631178052350561,49.011604232585775],[0.626262631934533,49.01166585869803],[0.622561446679439,49.01288852627353],[0.616558064501387,49.01107745417644],[0.610166909107174,49.01132287863469],[0.608484807544678,49.011941351248346],[0.607395675313639,49.013038603487196],[0.607321627156782,49.014645559065244],[0.608655628837696,49.01600933633747],[0.607536935700439,49.01626286666953]]}},{"type":"Feature","properties":{"cluster_id":1,"snapshot_index":5,"estimated_time_utc":"2026-08-11T02:36:00Z","observed_until_utc":"2026-08-11T02:36:00Z","target_time_utc":"2026-08-11T02:36:00Z","arrival_h":25.383333333333333,"hours_ago":0.0,"supported_detections_cumulative":30,"sources_cumulative":"MODIS_NRT, VIIRS_NOAA20_NRT, VIIRS_NOAA21_NRT, VIIRS_SNPP_NRT","last_source":"VIIRS_NOAA21_NRT","last_satellite":"N21","last_instrument":"VIIRS","detected_area_km2":6.359727373533689,"product_type":"cumulative_active_fire_detection_extent"},"geometry":{"type":"LineString","coordinates":[[0.625444291947503,49.02531824119153],[0.629345761667864,49.025900409847345],[0.63328899712267,49.02545628716247],[0.63667346814328,49.02405350976449],[0.638983824405324,49.02190570008045],[0.639866405095635,49.019383982414396],[0.639216542155154,49.0167880054046],[0.637046268508732,49.01407799425371],[0.633982286979776,49.01232038503069],[0.62918425411868,49.01143954160021],[0.621393398474337,49.012250912274595],[0.618833587903354,49.01194170269509],[0.615867781724188,49.01059028546313],[0.612909491400044,49.01003985014628],[0.609902179814998,49.01008359216195],[0.606152972310897,49.01079327484361],[0.602019280017195,49.008890764547196],[0.598058276917621,49.00828959305897],[0.595071991248516,49.00852666241351],[0.592375675031773,49.00930036152793],[0.588874327138523,49.0116908209416],[0.587534637158566,49.014802424816985],[0.588581047628016,49.01800608880744],[0.591800203472345,49.02050695584012],[0.596384854185121,49.02170873908747],[0.59610843441204,49.023744787551884],[0.596764514171366,49.02572058380756],[0.59885012603295,49.02791486670736],[0.601263520449815,49.0291683852331],[0.605995691925723,49.03004899306518],[0.613125967414486,49.02954441870473],[0.615887751478075,49.028758748274534],[0.618183673888855,49.02747967894144],[0.620595307276986,49.024356066168814],[0.625444291947503,49.02531824119153]]}}],"metadata":{"generated_at_utc":"2026-08-14T08:36:37.224591Z","product_type":"cumulative_active_fire_detection_extent","product_label":"Emprises cumulées des détections actives FIRMS","not_a_burn_perimeter":true,"not_a_continuous_fire_front":true,"not_an_arrival_time_interpolation":true,"snapshot_step_hours":6,"confidence_filter":{"VIIRS":["nominal","high"],"MODIS_minimum":30},"footprint_radius_m":{"VIIRS":300.0,"MODIS":750.0},"same_pass_neighbour_m":2000.0,"continuity_distance_m":3000.0,"clusters":[{"cluster_id":1,"first_supported_detection_utc":"2026-08-10T01:13:00Z","last_supported_detection_utc":"2026-08-11T02:36:00Z","pass_states":14,"published_snapshots":5,"final_detected_area_km2":4.734459215059612}]},"bbox":[0.5875346371585661,49.00828959305897,0.6398664050956349,49.03004899306518]}