{"type":"FeatureCollection","name":"fire_progression_arrival_v1","features":[{"type":"Feature","properties":{"category":"arrival_step","arrival_snapshot_index":1,"first_detected_utc":"2026-08-10T01:13:00+00:00","first_detected_local":"2026-08-10T03:13:00+02:00","area_km2":2.875,"label":"Première détection FIRMS","model_version":"fire_progression_arrival_v1"},"geometry":{"type":"Polygon","coordinates":[[[0.6103576170426268,49.023099041677845],[0.610461039906714,49.02085211328917],[0.6070446203769015,49.02078404795479],[0.6071481819659597,49.01853711746566],[0.6037319190708897,49.01846895771371],[0.6042503308024157,49.00723424591198],[0.6076658555242737,49.007302391650185],[0.607769363366676,49.005055431838365],[0.6214309612781632,49.00532703165058],[0.6213280438329561,49.007574002631856],[0.6247436132017079,49.00764166238266],[0.6246408344675517,49.00988863126886],[0.6280565603435346,49.00995619659963],[0.6276459470643001,49.01894403441342],[0.6242296305964538,49.01887645796725],[0.6241268073892912,49.02112340241222],[0.6207103521396599,49.02105572596435],[0.6206073723429819,49.02330266272693],[0.6103576170426268,49.023099041677845]]]}},{"type":"Feature","properties":{"category":"arrival_step","arrival_snapshot_index":4,"first_detected_utc":"2026-08-10T02:53:00+00:00","first_detected_local":"2026-08-10T04:53:00+02:00","area_km2":0.562,"label":"Première détection FIRMS","model_version":"fire_progression_arrival_v1"},"geometry":{"type":"Polygon","coordinates":[[[0.606837470312088,49.025277894230264],[0.6069410498259985,49.023030973544195],[0.6035244915723776,49.02296280818582],[0.6036282098089337,49.0207158853997],[0.6002118082155657,49.02064762562425],[0.6006271820378489,49.011659896744916],[0.6040429930208001,49.011728145292615],[0.6037319190708897,49.01846895771371],[0.6071481819659597,49.01853711746566],[0.6070446203769015,49.02078404795479],[0.610461039906714,49.02085211328917],[0.6103576170426268,49.023099041677845],[0.613774193209505,49.02316701258644],[0.6136709090959028,49.02541393886735],[0.606837470312088,49.025277894230264]]]}},{"type":"Feature","properties":{"category":"arrival_step","arrival_snapshot_index":6,"first_detected_utc":"2026-08-10T04:44:00+00:00","first_detected_local":"2026-08-10T06:44:00+02:00","area_km2":2.75,"label":"Première détection FIRMS","model_version":"fire_progression_arrival_v1"},"geometry":{"type":"MultiPolygon","coordinates":[[[[0.6342738374515912,49.023572796291056],[0.6343762264755418,49.02132584841921],[0.6377927172408878,49.0213931359748],[0.6378949497217422,49.019146180437076],[0.6413113016496734,49.01921336800549],[0.6416175030446752,49.012472463748324],[0.6382015940935682,49.01240528446874],[0.6383037911977566,49.01015830937291],[0.6348880387213858,49.01009103565201],[0.6349903746038161,49.0078440584422],[0.6247436132017079,49.00764166238266],[0.6246408344675517,49.00988863126886],[0.6280565603435346,49.00995619659963],[0.6276459470643001,49.01894403441342],[0.6242296305964538,49.01887645796725],[0.6241268073892912,49.02112340241222],[0.6207103521396599,49.02105572596435],[0.6206073723429819,49.02330266272693],[0.6342738374515912,49.023572796291056]]],[[[0.610047294744218,49.029839797410276],[0.6101507444625406,49.02759288374201],[0.6135676160436475,49.027660860241575],[0.6136709090959028,49.02541393886735],[0.606837470312088,49.025277894230264],[0.6069410498259985,49.023030973544195],[0.6035244915723776,49.02296280818582],[0.6036282098089337,49.0207158853997],[0.6002118082155657,49.02064762562425],[0.6004195130967542,49.01615377097016],[0.5970034158191224,49.016085419596855],[0.5968994202138096,49.0183323465611],[0.5934831842773067,49.01826389516116],[0.5931707004165755,49.02500463821451],[0.5965873793995424,49.02507309806023],[0.5964833477914511,49.02732000541673],[0.5999001834857008,49.02738837084638],[0.599796290595592,49.02963527610359],[0.610047294744218,49.029839797410276]]]]}},{"type":"Feature","properties":{"category":"arrival_step","arrival_snapshot_index":7,"first_detected_utc":"2026-08-10T09:41:00+00:00","first_detected_local":"2026-08-10T11:41:00+02:00","area_km2":0.5,"label":"Première détection FIRMS","model_version":"fire_progression_arrival_v1"},"geometry":{"type":"Polygon","coordinates":[[[0.6135676160436475,49.027660860241575],[0.613774193209505,49.02316701258644],[0.6342738374515912,49.023572796291056],[0.6341714395666975,49.02581973926063],[0.6205043836343275,49.0255495945867],[0.6204013860125389,49.02779652154006],[0.6135676160436475,49.027660860241575]]]}},{"type":"Feature","properties":{"category":"firms_extent_snapshot","snapshot_index":1,"pass_time_utc":"2026-08-10T01:13:00+00:00","dt_local":"2026-08-10T03:13:00+02:00","label":"Emprise FIRMS cumulée à ce passage","interpretation":"Enveloppe des détections FIRMS, pas une surface brûlée","cumulative":true,"point_count":4,"extent_method":"cumulative_detection_extent_smoothed_landmasked_web_v1","local_cluster_link_m":10000.0,"model_version":"fire_progression_arrival_v1"},"geometry":{"type":"Polygon","coordinates":[[[0.6071729019217278,49.01383837806843],[0.6083670210207255,49.016505889339726],[0.6077729947324166,49.01962066492397],[0.6097827268130467,49.02133456112327],[0.6124278316643651,49.021629087590306],[0.6165206520429676,49.020592046671254],[0.6212582783017424,49.02120903878406],[0.6230164416089919,49.020717347152996],[0.6241754513046556,49.01984351783054],[0.6246774907677788,49.018631163977226],[0.6242517956509258,49.0173511805813],[0.6204710705991401,49.015122101108126],[0.6193415668265055,49.012511325239025],[0.6176367163972897,49.011345325266944],[0.615709939688918,49.01101469820291],[0.6098167202321932,49.011398941177355],[0.6079323629453249,49.01235489282403],[0.6071729019217278,49.01383837806843]]]}},{"type":"Feature","properties":{"category":"historical_support","snapshot_index":1,"pass_time_utc":"2026-08-10T01:13:00+00:00","dt_local":"2026-08-10T03:13:00+02:00","area_km2":2.875,"label":"Isoline temporelle","coherence_level":"indisponible","coherence_fraction":0.0,"projection_displayed":false,"model_version":"fire_progression_arrival_v1"},"geometry":{"type":"Polygon","coordinates":[[[0.6103576170426268,49.023099041677845],[0.610461039906714,49.02085211328917],[0.6070446203769015,49.02078404795479],[0.6071481819659597,49.01853711746566],[0.6037319190708897,49.01846895771371],[0.6042503308024157,49.00723424591198],[0.6076658555242737,49.007302391650185],[0.607769363366676,49.005055431838365],[0.6214309612781632,49.00532703165058],[0.6213280438329561,49.007574002631856],[0.6247436132017079,49.00764166238266],[0.6246408344675517,49.00988863126886],[0.6280565603435346,49.00995619659963],[0.6276459470643001,49.01894403441342],[0.6242296305964538,49.01887645796725],[0.6241268073892912,49.02112340241222],[0.6207103521396599,49.02105572596435],[0.6206073723429819,49.02330266272693],[0.6103576170426268,49.023099041677845]]]}},{"type":"Feature","properties":{"category":"observed_front","snapshot_index":1,"pass_time_utc":"2026-08-10T01:13:00+00:00","dt_local":"2026-08-10T03:13:00+02:00","area_km2":2.875,"label":"Activité observée","coherence_level":"indisponible","coherence_fraction":0.0,"projection_displayed":false,"model_version":"fire_progression_arrival_v1"},"geometry":{"type":"Polygon","coordinates":[[[0.6103576170426268,49.023099041677845],[0.610461039906714,49.02085211328917],[0.6070446203769015,49.02078404795479],[0.6071481819659597,49.01853711746566],[0.6037319190708897,49.01846895771371],[0.6042503308024157,49.00723424591198],[0.6076658555242737,49.007302391650185],[0.607769363366676,49.005055431838365],[0.6214309612781632,49.00532703165058],[0.6213280438329561,49.007574002631856],[0.6247436132017079,49.00764166238266],[0.6246408344675517,49.00988863126886],[0.6280565603435346,49.00995619659963],[0.6276459470643001,49.01894403441342],[0.6242296305964538,49.01887645796725],[0.6241268073892912,49.02112340241222],[0.6207103521396599,49.02105572596435],[0.6206073723429819,49.02330266272693],[0.6103576170426268,49.023099041677845]]]}},{"type":"Feature","properties":{"category":"historical_support","snapshot_index":2,"pass_time_utc":"2026-08-10T01:49:00+00:00","dt_local":"2026-08-10T03:49:00+02:00","area_km2":2.875,"label":"Isoline temporelle","coherence_level":"indisponible","coherence_fraction":0.0,"projection_displayed":false,"model_version":"fire_progression_arrival_v1"},"geometry":{"type":"Polygon","coordinates":[[[0.6103576170426268,49.023099041677845],[0.610461039906714,49.02085211328917],[0.6070446203769015,49.02078404795479],[0.6071481819659597,49.01853711746566],[0.6037319190708897,49.01846895771371],[0.6042503308024157,49.00723424591198],[0.6076658555242737,49.007302391650185],[0.607769363366676,49.005055431838365],[0.6214309612781632,49.00532703165058],[0.6213280438329561,49.007574002631856],[0.6247436132017079,49.00764166238266],[0.6246408344675517,49.00988863126886],[0.6280565603435346,49.00995619659963],[0.6276459470643001,49.01894403441342],[0.6242296305964538,49.01887645796725],[0.6241268073892912,49.02112340241222],[0.6207103521396599,49.02105572596435],[0.6206073723429819,49.02330266272693],[0.6103576170426268,49.023099041677845]]]}},{"type":"Feature","properties":{"category":"observed_front","snapshot_index":2,"pass_time_utc":"2026-08-10T01:49:00+00:00","dt_local":"2026-08-10T03:49:00+02:00","area_km2":2.188,"label":"Activité observée","coherence_level":"indisponible","coherence_fraction":0.0,"projection_displayed":false,"model_version":"fire_progression_arrival_v1"},"geometry":{"type":"Polygon","coordinates":[[[0.6103576170426268,49.023099041677845],[0.610461039906714,49.02085211328917],[0.6070446203769015,49.02078404795479],[0.6071481819659597,49.01853711746566],[0.6037319190708897,49.01846895771371],[0.6040429930208001,49.011728145292615],[0.6074588129736949,49.011796296635914],[0.6075623387270005,49.00954934658391],[0.6143937102443567,49.00968535206268],[0.6144969318198568,49.007438391536],[0.6179124833680899,49.007506245682855],[0.617809409405215,49.009753209000046],[0.6246408344675517,49.00988863126886],[0.624538046841102,49.012135595274046],[0.6279539203459238,49.012203163383454],[0.6276459470643001,49.01894403441342],[0.6242296305964538,49.01887645796725],[0.6241268073892912,49.02112340241222],[0.6207103521396599,49.02105572596435],[0.6206073723429819,49.02330266272693],[0.6103576170426268,49.023099041677845]]]}},{"type":"Feature","properties":{"category":"historical_support","snapshot_index":3,"pass_time_utc":"2026-08-10T02:09:00+00:00","dt_local":"2026-08-10T04:09:00+02:00","area_km2":2.875,"label":"Isoline temporelle","coherence_level":"indisponible","coherence_fraction":0.0,"projection_displayed":false,"model_version":"fire_progression_arrival_v1"},"geometry":{"type":"Polygon","coordinates":[[[0.6103576170426268,49.023099041677845],[0.610461039906714,49.02085211328917],[0.6070446203769015,49.02078404795479],[0.6071481819659597,49.01853711746566],[0.6037319190708897,49.01846895771371],[0.6042503308024157,49.00723424591198],[0.6076658555242737,49.007302391650185],[0.607769363366676,49.005055431838365],[0.6214309612781632,49.00532703165058],[0.6213280438329561,49.007574002631856],[0.6247436132017079,49.00764166238266],[0.6246408344675517,49.00988863126886],[0.6280565603435346,49.00995619659963],[0.6276459470643001,49.01894403441342],[0.6242296305964538,49.01887645796725],[0.6241268073892912,49.02112340241222],[0.6207103521396599,49.02105572596435],[0.6206073723429819,49.02330266272693],[0.6103576170426268,49.023099041677845]]]}},{"type":"Feature","properties":{"category":"observed_front","snapshot_index":3,"pass_time_utc":"2026-08-10T02:09:00+00:00","dt_local":"2026-08-10T04:09:00+02:00","area_km2":2.438,"label":"Activité observée","coherence_level":"indisponible","coherence_fraction":0.0,"projection_displayed":false,"model_version":"fire_progression_arrival_v1"},"geometry":{"type":"Polygon","coordinates":[[[0.6103576170426268,49.023099041677845],[0.610461039906714,49.02085211328917],[0.6070446203769015,49.02078404795479],[0.6071481819659597,49.01853711746566],[0.6037319190708897,49.01846895771371],[0.6040429930208001,49.011728145292615],[0.6074588129736949,49.011796296635914],[0.6075623387270005,49.00954934658391],[0.6109780200140364,49.009617397923854],[0.6110813892010026,49.00737044019166],[0.6247436132017079,49.00764166238266],[0.6246408344675517,49.00988863126886],[0.6280565603435346,49.00995619659963],[0.6276459470643001,49.01894403441342],[0.6242296305964538,49.01887645796725],[0.6241268073892912,49.02112340241222],[0.6207103521396599,49.02105572596435],[0.6206073723429819,49.02330266272693],[0.6103576170426268,49.023099041677845]]]}},{"type":"Feature","properties":{"category":"historical_support","snapshot_index":4,"pass_time_utc":"2026-08-10T02:53:00+00:00","dt_local":"2026-08-10T04:53:00+02:00","area_km2":3.438,"label":"Isoline temporelle","coherence_level":"indisponible","coherence_fraction":0.0,"projection_displayed":false,"model_version":"fire_progression_arrival_v1"},"geometry":{"type":"Polygon","coordinates":[[[0.606837470312088,49.025277894230264],[0.6069410498259985,49.023030973544195],[0.6035244915723776,49.02296280818582],[0.6036282098089337,49.0207158853997],[0.6002118082155657,49.02064762562425],[0.6006271820378489,49.011659896744916],[0.6040429930208001,49.011728145292615],[0.6042503308024157,49.00723424591198],[0.6076658555242737,49.007302391650185],[0.607769363366676,49.005055431838365],[0.6214309612781632,49.00532703165058],[0.6213280438329561,49.007574002631856],[0.6247436132017079,49.00764166238266],[0.6246408344675517,49.00988863126886],[0.6280565603435346,49.00995619659963],[0.6276459470643001,49.01894403441342],[0.6242296305964538,49.01887645796725],[0.6241268073892912,49.02112340241222],[0.6207103521396599,49.02105572596435],[0.6206073723429819,49.02330266272693],[0.613774193209505,49.02316701258644],[0.6136709090959028,49.02541393886735],[0.606837470312088,49.025277894230264]]]}},{"type":"Feature","properties":{"category":"observed_front","snapshot_index":4,"pass_time_utc":"2026-08-10T02:53:00+00:00","dt_local":"2026-08-10T04:53:00+02:00","area_km2":2.625,"label":"Activité observée","coherence_level":"indisponible","coherence_fraction":0.0,"projection_displayed":false,"model_version":"fire_progression_arrival_v1"},"geometry":{"type":"Polygon","coordinates":[[[0.606837470312088,49.025277894230264],[0.6069410498259985,49.023030973544195],[0.6035244915723776,49.02296280818582],[0.6036282098089337,49.0207158853997],[0.6002118082155657,49.02064762562425],[0.6006271820378489,49.011659896744916],[0.6040429930208001,49.011728145292615],[0.6041466663959979,49.00948119804321],[0.6109780200140364,49.009617397923854],[0.6110813892010026,49.00737044019166],[0.6179124833680899,49.007506245682855],[0.617809409405215,49.009753209000046],[0.6212251174838624,49.00982096873556],[0.6211221822297274,49.012067929958086],[0.624538046841102,49.012135595274046],[0.6241268073892912,49.02112340241222],[0.6207103521396599,49.02105572596435],[0.6206073723429819,49.02330266272693],[0.613774193209505,49.02316701258644],[0.6136709090959028,49.02541393886735],[0.606837470312088,49.025277894230264]]]}},{"type":"Feature","properties":{"category":"historical_support","snapshot_index":5,"pass_time_utc":"2026-08-10T03:30:00+00:00","dt_local":"2026-08-10T05:30:00+02:00","area_km2":3.438,"label":"Isoline temporelle","coherence_level":"indisponible","coherence_fraction":0.0,"projection_displayed":false,"model_version":"fire_progression_arrival_v1"},"geometry":{"type":"Polygon","coordinates":[[[0.606837470312088,49.025277894230264],[0.6069410498259985,49.023030973544195],[0.6035244915723776,49.02296280818582],[0.6036282098089337,49.0207158853997],[0.6002118082155657,49.02064762562425],[0.6006271820378489,49.011659896744916],[0.6040429930208001,49.011728145292615],[0.6042503308024157,49.00723424591198],[0.6076658555242737,49.007302391650185],[0.607769363366676,49.005055431838365],[0.6214309612781632,49.00532703165058],[0.6213280438329561,49.007574002631856],[0.6247436132017079,49.00764166238266],[0.6246408344675517,49.00988863126886],[0.6280565603435346,49.00995619659963],[0.6276459470643001,49.01894403441342],[0.6242296305964538,49.01887645796725],[0.6241268073892912,49.02112340241222],[0.6207103521396599,49.02105572596435],[0.6206073723429819,49.02330266272693],[0.613774193209505,49.02316701258644],[0.6136709090959028,49.02541393886735],[0.606837470312088,49.025277894230264]]]}},{"type":"Feature","properties":{"category":"observed_front","snapshot_index":5,"pass_time_utc":"2026-08-10T03:30:00+00:00","dt_local":"2026-08-10T05:30:00+02:00","area_km2":2.562,"label":"Activité observée","coherence_level":"indisponible","coherence_fraction":0.0,"projection_displayed":false,"model_version":"fire_progression_arrival_v1"},"geometry":{"type":"Polygon","coordinates":[[[0.6103576170426268,49.023099041677845],[0.610461039906714,49.02085211328917],[0.6070446203769015,49.02078404795479],[0.6071481819659597,49.01853711746566],[0.6037319190708897,49.01846895771371],[0.6041466663959979,49.00948119804321],[0.6075623387270005,49.00954934658391],[0.6076658555242737,49.007302391650185],[0.6247436132017079,49.00764166238266],[0.6246408344675517,49.00988863126886],[0.6280565603435346,49.00995619659963],[0.6276459470643001,49.01894403441342],[0.6242296305964538,49.01887645796725],[0.6241268073892912,49.02112340241222],[0.6207103521396599,49.02105572596435],[0.6206073723429819,49.02330266272693],[0.6103576170426268,49.023099041677845]]]}},{"type":"Feature","properties":{"category":"firms_extent_snapshot","snapshot_index":6,"pass_time_utc":"2026-08-10T04:44:00+00:00","dt_local":"2026-08-10T06:44:00+02:00","label":"Emprise FIRMS cumulée à ce passage","interpretation":"Enveloppe des détections FIRMS, pas une surface brûlée","cumulative":true,"point_count":19,"extent_method":"cumulative_detection_extent_smoothed_landmasked_web_v1","local_cluster_link_m":10000.0,"model_version":"fire_progression_arrival_v1"},"geometry":{"type":"Polygon","coordinates":[[[0.5960923582302686,49.02310520222672],[0.5971199421032389,49.02625637742025],[0.5996625660368691,49.02842501198426],[0.604035713326125,49.02988000475211],[0.6089362778046444,49.029831576177195],[0.6134267582891704,49.02818101146778],[0.6152317406661942,49.02666683209575],[0.6168450185700352,49.02415928595088],[0.6189590246892385,49.023122668382435],[0.6213399561905472,49.02309299486532],[0.62556181907531,49.02455161562302],[0.6285184719611738,49.02491647391175],[0.631590282998266,49.02468801615987],[0.6344174322419364,49.023865640786305],[0.6372092059066178,49.02213639143372],[0.638597932153355,49.020381503943625],[0.6391567981941266,49.018381997773695],[0.6388244748380097,49.01647048310457],[0.6363135798697392,49.01351816043317],[0.634011154214131,49.01233159140132],[0.6312918058719145,49.011623132007614],[0.6272960105703103,49.011522679420096],[0.622648430701529,49.01236762888731],[0.6161947150232037,49.011035964586675],[0.6102807812819451,49.011304292710285],[0.6077152126208601,49.01257761849322],[0.6069846821321659,49.01494205178315],[0.6060309965399211,49.01599437738485],[0.600905663959784,49.0175927084758],[0.5985626724680603,49.01891874140829],[0.596652890060521,49.02110589939362],[0.5960923582302686,49.02310520222672]]]}},{"type":"Feature","properties":{"category":"historical_support","snapshot_index":6,"pass_time_utc":"2026-08-10T04:44:00+00:00","dt_local":"2026-08-10T06:44:00+02:00","area_km2":6.188,"label":"Isoline temporelle","coherence_level":"indisponible","coherence_fraction":0.0,"projection_displayed":false,"model_version":"fire_progression_arrival_v1"},"geometry":{"type":"Polygon","coordinates":[[[0.599796290595592,49.02963527610359],[0.5999001834857008,49.02738837084638],[0.5964833477914511,49.02732000541673],[0.5965873793995424,49.02507309806023],[0.5931707004165755,49.02500463821451],[0.5934831842773067,49.01826389516116],[0.5968994202138096,49.0183323465611],[0.5970034158191224,49.016085419596855],[0.6004195130967542,49.01615377097016],[0.6006271820378489,49.011659896744916],[0.6040429930208001,49.011728145292615],[0.6042503308024157,49.00723424591198],[0.6076658555242737,49.007302391650185],[0.607769363366676,49.005055431838365],[0.6214309612781632,49.00532703165058],[0.6213280438329561,49.007574002631856],[0.6349903746038161,49.0078440584422],[0.6348880387213858,49.01009103565201],[0.6383037911977566,49.01015830937291],[0.6382015940935682,49.01240528446874],[0.6416175030446752,49.012472463748324],[0.6413113016496734,49.01921336800549],[0.6378949497217422,49.019146180437076],[0.6377927172408878,49.0213931359748],[0.6343762264755418,49.02132584841921],[0.6342738374515912,49.023572796291056],[0.613774193209505,49.02316701258644],[0.6135676160436475,49.027660860241575],[0.6101507444625406,49.02759288374201],[0.610047294744218,49.029839797410276],[0.599796290595592,49.02963527610359]]]}},{"type":"Feature","properties":{"category":"observed_front","snapshot_index":6,"pass_time_utc":"2026-08-10T04:44:00+00:00","dt_local":"2026-08-10T06:44:00+02:00","area_km2":4.938,"label":"Activité observée","coherence_level":"indisponible","coherence_fraction":0.0,"projection_displayed":false,"model_version":"fire_progression_arrival_v1"},"geometry":{"type":"Polygon","coordinates":[[[0.599796290595592,49.02963527610359],[0.5999001834857008,49.02738837084638],[0.5964833477914511,49.02732000541673],[0.5965873793995424,49.02507309806023],[0.5931707004165755,49.02500463821451],[0.5934831842773067,49.01826389516116],[0.5968994202138096,49.0183323465611],[0.5970034158191224,49.016085419596855],[0.6004195130967542,49.01615377097016],[0.6005233520592305,49.01390683630213],[0.6176032347249382,49.01424712098691],[0.6177063265245498,49.012000167435936],[0.6211221822297274,49.012067929958086],[0.6212251174838624,49.00982096873556],[0.6246408344675517,49.00988863126886],[0.6247436132017079,49.00764166238266],[0.6349903746038161,49.0078440584422],[0.6348880387213858,49.01009103565201],[0.6383037911977566,49.01015830937291],[0.6382015940935682,49.01240528446874],[0.6416175030446752,49.012472463748324],[0.6413113016496734,49.01921336800549],[0.6378949497217422,49.019146180437076],[0.6377927172408878,49.0213931359748],[0.6343762264755418,49.02132584841921],[0.6342738374515912,49.023572796291056],[0.613774193209505,49.02316701258644],[0.6135676160436475,49.027660860241575],[0.6101507444625406,49.02759288374201],[0.610047294744218,49.029839797410276],[0.599796290595592,49.02963527610359]]]}},{"type":"Feature","properties":{"category":"historical_support","snapshot_index":7,"pass_time_utc":"2026-08-10T09:41:00+00:00","dt_local":"2026-08-10T11:41:00+02:00","area_km2":6.688,"label":"Isoline temporelle","coherence_level":"indisponible","coherence_fraction":0.0,"projection_displayed":false,"model_version":"fire_progression_arrival_v1"},"geometry":{"type":"Polygon","coordinates":[[[0.599796290595592,49.02963527610359],[0.5999001834857008,49.02738837084638],[0.5964833477914511,49.02732000541673],[0.5965873793995424,49.02507309806023],[0.5931707004165755,49.02500463821451],[0.5934831842773067,49.01826389516116],[0.5968994202138096,49.0183323465611],[0.5970034158191224,49.016085419596855],[0.6004195130967542,49.01615377097016],[0.6006271820378489,49.011659896744916],[0.6040429930208001,49.011728145292615],[0.6042503308024157,49.00723424591198],[0.6076658555242737,49.007302391650185],[0.607769363366676,49.005055431838365],[0.6214309612781632,49.00532703165058],[0.6213280438329561,49.007574002631856],[0.6349903746038161,49.0078440584422],[0.6348880387213858,49.01009103565201],[0.6383037911977566,49.01015830937291],[0.6382015940935682,49.01240528446874],[0.6416175030446752,49.012472463748324],[0.6413113016496734,49.01921336800549],[0.6378949497217422,49.019146180437076],[0.6377927172408878,49.0213931359748],[0.6343762264755418,49.02132584841921],[0.6341714395666975,49.02581973926063],[0.6205043836343275,49.0255495945867],[0.6204013860125389,49.02779652154006],[0.6101507444625406,49.02759288374201],[0.610047294744218,49.029839797410276],[0.599796290595592,49.02963527610359]]]}},{"type":"Feature","properties":{"category":"observed_front","snapshot_index":7,"pass_time_utc":"2026-08-10T09:41:00+00:00","dt_local":"2026-08-10T11:41:00+02:00","area_km2":4.375,"label":"Activité observée","coherence_level":"indisponible","coherence_fraction":0.0,"projection_displayed":false,"model_version":"fire_progression_arrival_v1"},"geometry":{"type":"Polygon","coordinates":[[[0.6067338818340063,49.02752481000939],[0.606837470312088,49.025277894230264],[0.6034207643600569,49.02520972606847],[0.6035244915723776,49.02296280818582],[0.6001079422945215,49.022894545603094],[0.6004195130967542,49.01615377097016],[0.60383561935941,49.01622202513146],[0.603939310675659,49.013975087656554],[0.6073552782631942,49.01404324180262],[0.6074588129736949,49.011796296635914],[0.6211221822297274,49.012067929958086],[0.6212251174838624,49.00982096873556],[0.6348880387213858,49.01009103565201],[0.6347856939849074,49.01233800798115],[0.6382015940935682,49.01240528446874],[0.638099388146935,49.01465225468044],[0.64151544474423,49.01471943672284],[0.6413113016496734,49.01921336800549],[0.6378949497217422,49.019146180437076],[0.6377927172408878,49.0213931359748],[0.6343762264755418,49.02132584841921],[0.6341714395666975,49.02581973926063],[0.6205043836343275,49.0255495945867],[0.6204013860125389,49.02779652154006],[0.6067338818340063,49.02752481000939]]]}},{"type":"Feature","properties":{"category":"historical_support","snapshot_index":8,"pass_time_utc":"2026-08-10T11:38:00+00:00","dt_local":"2026-08-10T13:38:00+02:00","area_km2":6.688,"label":"Isoline temporelle","coherence_level":"indisponible","coherence_fraction":0.0,"projection_displayed":false,"model_version":"fire_progression_arrival_v1"},"geometry":{"type":"Polygon","coordinates":[[[0.599796290595592,49.02963527610359],[0.5999001834857008,49.02738837084638],[0.5964833477914511,49.02732000541673],[0.5965873793995424,49.02507309806023],[0.5931707004165755,49.02500463821451],[0.5934831842773067,49.01826389516116],[0.5968994202138096,49.0183323465611],[0.5970034158191224,49.016085419596855],[0.6004195130967542,49.01615377097016],[0.6006271820378489,49.011659896744916],[0.6040429930208001,49.011728145292615],[0.6042503308024157,49.00723424591198],[0.6076658555242737,49.007302391650185],[0.607769363366676,49.005055431838365],[0.6214309612781632,49.00532703165058],[0.6213280438329561,49.007574002631856],[0.6349903746038161,49.0078440584422],[0.6348880387213858,49.01009103565201],[0.6383037911977566,49.01015830937291],[0.6382015940935682,49.01240528446874],[0.6416175030446752,49.012472463748324],[0.6413113016496734,49.01921336800549],[0.6378949497217422,49.019146180437076],[0.6377927172408878,49.0213931359748],[0.6343762264755418,49.02132584841921],[0.6341714395666975,49.02581973926063],[0.6205043836343275,49.0255495945867],[0.6204013860125389,49.02779652154006],[0.6101507444625406,49.02759288374201],[0.610047294744218,49.029839797410276],[0.599796290595592,49.02963527610359]]]}},{"type":"Feature","properties":{"category":"observed_front","snapshot_index":8,"pass_time_utc":"2026-08-10T11:38:00+00:00","dt_local":"2026-08-10T13:38:00+02:00","area_km2":2.312,"label":"Activité observée","coherence_level":"indisponible","coherence_fraction":0.0,"projection_displayed":false,"model_version":"fire_progression_arrival_v1"},"geometry":{"type":"Polygon","coordinates":[[[0.6069410498259985,49.023030973544195],[0.6070446203769015,49.02078404795479],[0.6036282098089337,49.0207158853997],[0.6037319190708897,49.01846895771371],[0.6003156651492546,49.0184007007454],[0.6006271820378489,49.011659896744916],[0.6040429930208001,49.011728145292615],[0.6041466663959979,49.00948119804321],[0.6075623387270005,49.00954934658391],[0.6076658555242737,49.007302391650185],[0.6179124833680899,49.007506245682855],[0.617809409405215,49.009753209000046],[0.6212251174838624,49.00982096873556],[0.6211221822297274,49.012067929958086],[0.624538046841102,49.012135595274046],[0.6242296305964538,49.01887645796725],[0.6208133230255176,49.01880878430257],[0.6207103521396599,49.02105572596435],[0.6172939058008491,49.02098795229431],[0.6171907783138761,49.02323488626958],[0.6069410498259985,49.023030973544195]]]}},{"type":"Feature","properties":{"category":"historical_support","snapshot_index":9,"pass_time_utc":"2026-08-10T11:55:00+00:00","dt_local":"2026-08-10T13:55:00+02:00","area_km2":6.688,"label":"Isoline temporelle","coherence_level":"indisponible","coherence_fraction":0.0,"projection_displayed":false,"model_version":"fire_progression_arrival_v1"},"geometry":{"type":"Polygon","coordinates":[[[0.599796290595592,49.02963527610359],[0.5999001834857008,49.02738837084638],[0.5964833477914511,49.02732000541673],[0.5965873793995424,49.02507309806023],[0.5931707004165755,49.02500463821451],[0.5934831842773067,49.01826389516116],[0.5968994202138096,49.0183323465611],[0.5970034158191224,49.016085419596855],[0.6004195130967542,49.01615377097016],[0.6006271820378489,49.011659896744916],[0.6040429930208001,49.011728145292615],[0.6042503308024157,49.00723424591198],[0.6076658555242737,49.007302391650185],[0.607769363366676,49.005055431838365],[0.6214309612781632,49.00532703165058],[0.6213280438329561,49.007574002631856],[0.6349903746038161,49.0078440584422],[0.6348880387213858,49.01009103565201],[0.6383037911977566,49.01015830937291],[0.6382015940935682,49.01240528446874],[0.6416175030446752,49.012472463748324],[0.6413113016496734,49.01921336800549],[0.6378949497217422,49.019146180437076],[0.6377927172408878,49.0213931359748],[0.6343762264755418,49.02132584841921],[0.6341714395666975,49.02581973926063],[0.6205043836343275,49.0255495945867],[0.6204013860125389,49.02779652154006],[0.6101507444625406,49.02759288374201],[0.610047294744218,49.029839797410276],[0.599796290595592,49.02963527610359]]]}},{"type":"Feature","properties":{"category":"observed_front","snapshot_index":9,"pass_time_utc":"2026-08-10T11:55:00+00:00","dt_local":"2026-08-10T13:55:00+02:00","area_km2":2.25,"label":"Activité observée","coherence_level":"indisponible","coherence_fraction":0.0,"projection_displayed":false,"model_version":"fire_progression_arrival_v1"},"geometry":{"type":"Polygon","coordinates":[[[0.6138774683856149,49.02092008140246],[0.6139807346253918,49.01867314531902],[0.6105644538217122,49.018605180000876],[0.6106678587887827,49.0163582418166],[0.6072517345943369,49.01629018208039],[0.6075623387270005,49.00954934658391],[0.6109780200140364,49.009617397923854],[0.6110813892010026,49.00737044019166],[0.6144969318198568,49.007438391536],[0.6146001444659782,49.00519142613146],[0.6214309612781632,49.00532703165058],[0.6213280438329561,49.007574002631856],[0.6281591914616006,49.007709224934885],[0.6280565603435346,49.00995619659963],[0.6314722950990622,49.010023664727456],[0.631164791391212,49.01676455874616],[0.6277486137074587,49.01669708229395],[0.6276459470643001,49.01894403441342],[0.6242296305964538,49.01887645796725],[0.6241268073892912,49.02112340241222],[0.6138774683856149,49.02092008140246]]]}},{"type":"Feature","properties":{"category":"firms_extent_snapshot","snapshot_index":10,"pass_time_utc":"2026-08-10T12:42:00+00:00","dt_local":"2026-08-10T14:42:00+02:00","label":"Emprise FIRMS cumulée à ce passage","interpretation":"Enveloppe des détections FIRMS, pas une surface brûlée","cumulative":true,"point_count":24,"extent_method":"cumulative_detection_extent_smoothed_landmasked_web_v1","local_cluster_link_m":10000.0,"model_version":"fire_progression_arrival_v1"},"geometry":{"type":"Polygon","coordinates":[[[0.5960923582302686,49.02310520222672],[0.5971944207162605,49.02635512323508],[0.5988734020355928,49.02793073702953],[0.6011629943409089,49.02912855373557],[0.6059455050812353,49.03004636706749],[0.6121751901513822,49.02967969522201],[0.6167418893285469,49.02836888957237],[0.6202134777689443,49.02562016075703],[0.6218088528234191,49.02498760949477],[0.6239293200511273,49.0249154395472],[0.6293960939807669,49.025899778724984],[0.6323004225644497,49.02566799422893],[0.635057661063071,49.02487598282874],[0.637346461634592,49.02359167221317],[0.6389696990519252,49.0219256962824],[0.6397876217204918,49.02002155530217],[0.6397298733202744,49.01804324847598],[0.6370254629742362,49.01406070647823],[0.6348580770538846,49.01268861308845],[0.6321786045304021,49.01178939742672],[0.628212033222311,49.01145308369705],[0.622648430701529,49.01236762888731],[0.6161947150232037,49.011035964586675],[0.6105923282105937,49.01126088637016],[0.6078854007477048,49.01240055479436],[0.6068948823422659,49.0151084001033],[0.6058385964142268,49.01611744429263],[0.6009778076251991,49.01756464273949],[0.5985626724680603,49.01891874140829],[0.596652890060521,49.02110589939362],[0.5960923582302686,49.02310520222672]]]}},{"type":"Feature","properties":{"category":"historical_support","snapshot_index":10,"pass_time_utc":"2026-08-10T12:42:00+00:00","dt_local":"2026-08-10T14:42:00+02:00","area_km2":6.688,"label":"Isoline temporelle","coherence_level":"indisponible","coherence_fraction":0.0,"projection_displayed":false,"model_version":"fire_progression_arrival_v1"},"geometry":{"type":"Polygon","coordinates":[[[0.599796290595592,49.02963527610359],[0.5999001834857008,49.02738837084638],[0.5964833477914511,49.02732000541673],[0.5965873793995424,49.02507309806023],[0.5931707004165755,49.02500463821451],[0.5934831842773067,49.01826389516116],[0.5968994202138096,49.0183323465611],[0.5970034158191224,49.016085419596855],[0.6004195130967542,49.01615377097016],[0.6006271820378489,49.011659896744916],[0.6040429930208001,49.011728145292615],[0.6042503308024157,49.00723424591198],[0.6076658555242737,49.007302391650185],[0.607769363366676,49.005055431838365],[0.6214309612781632,49.00532703165058],[0.6213280438329561,49.007574002631856],[0.6349903746038161,49.0078440584422],[0.6348880387213858,49.01009103565201],[0.6383037911977566,49.01015830937291],[0.6382015940935682,49.01240528446874],[0.6416175030446752,49.012472463748324],[0.6413113016496734,49.01921336800549],[0.6378949497217422,49.019146180437076],[0.6377927172408878,49.0213931359748],[0.6343762264755418,49.02132584841921],[0.6341714395666975,49.02581973926063],[0.6205043836343275,49.0255495945867],[0.6204013860125389,49.02779652154006],[0.6101507444625406,49.02759288374201],[0.610047294744218,49.029839797410276],[0.599796290595592,49.02963527610359]]]}},{"type":"Feature","properties":{"category":"observed_front","snapshot_index":10,"pass_time_utc":"2026-08-10T12:42:00+00:00","dt_local":"2026-08-10T14:42:00+02:00","area_km2":0.562,"label":"Activité observée","coherence_level":"indisponible","coherence_fraction":0.0,"projection_displayed":false,"model_version":"fire_progression_arrival_v1"},"geometry":{"type":"Polygon","coordinates":[[[0.6105644538217122,49.018605180000876],[0.6108746418837842,49.01186435077449],[0.6211221822297274,49.012067929958086],[0.6208133230255176,49.01880878430257],[0.6105644538217122,49.018605180000876]]]}},{"type":"Feature","properties":{"category":"historical_support","snapshot_index":11,"pass_time_utc":"2026-08-10T13:16:00+00:00","dt_local":"2026-08-10T15:16:00+02:00","area_km2":6.688,"label":"Isoline temporelle","coherence_level":"indisponible","coherence_fraction":0.0,"projection_displayed":false,"model_version":"fire_progression_arrival_v1"},"geometry":{"type":"Polygon","coordinates":[[[0.599796290595592,49.02963527610359],[0.5999001834857008,49.02738837084638],[0.5964833477914511,49.02732000541673],[0.5965873793995424,49.02507309806023],[0.5931707004165755,49.02500463821451],[0.5934831842773067,49.01826389516116],[0.5968994202138096,49.0183323465611],[0.5970034158191224,49.016085419596855],[0.6004195130967542,49.01615377097016],[0.6006271820378489,49.011659896744916],[0.6040429930208001,49.011728145292615],[0.6042503308024157,49.00723424591198],[0.6076658555242737,49.007302391650185],[0.607769363366676,49.005055431838365],[0.6214309612781632,49.00532703165058],[0.6213280438329561,49.007574002631856],[0.6349903746038161,49.0078440584422],[0.6348880387213858,49.01009103565201],[0.6383037911977566,49.01015830937291],[0.6382015940935682,49.01240528446874],[0.6416175030446752,49.012472463748324],[0.6413113016496734,49.01921336800549],[0.6378949497217422,49.019146180437076],[0.6377927172408878,49.0213931359748],[0.6343762264755418,49.02132584841921],[0.6341714395666975,49.02581973926063],[0.6205043836343275,49.0255495945867],[0.6204013860125389,49.02779652154006],[0.6101507444625406,49.02759288374201],[0.610047294744218,49.029839797410276],[0.599796290595592,49.02963527610359]]]}},{"type":"Feature","properties":{"category":"observed_front","snapshot_index":11,"pass_time_utc":"2026-08-10T13:16:00+00:00","dt_local":"2026-08-10T15:16:00+02:00","area_km2":2.562,"label":"Activité observée","coherence_level":"indisponible","coherence_fraction":0.0,"projection_displayed":false,"model_version":"fire_progression_arrival_v1"},"geometry":{"type":"Polygon","coordinates":[[[0.6069410498259985,49.023030973544195],[0.6071481819659597,49.01853711746566],[0.6037319190708897,49.01846895771371],[0.6040429930208001,49.011728145292615],[0.6074588129736949,49.011796296635914],[0.6076658555242737,49.007302391650185],[0.6247436132017079,49.00764166238266],[0.624538046841102,49.012135595274046],[0.6279539203459238,49.012203163383454],[0.6276459470643001,49.01894403441342],[0.6242296305964538,49.01887645796725],[0.6240239752840648,49.023370341958106],[0.6069410498259985,49.023030973544195]]]}},{"type":"Feature","properties":{"category":"firms_extent_snapshot","snapshot_index":12,"pass_time_utc":"2026-08-10T13:36:00+00:00","dt_local":"2026-08-10T15:36:00+02:00","label":"Emprise FIRMS cumulée à ce passage","interpretation":"Enveloppe des détections FIRMS, pas une surface brûlée","cumulative":true,"point_count":28,"extent_method":"cumulative_detection_extent_smoothed_landmasked_web_v1","local_cluster_link_m":10000.0,"model_version":"fire_progression_arrival_v1"},"geometry":{"type":"Polygon","coordinates":[[[0.5960923582302686,49.02310520222672],[0.5971944207162605,49.02635512323508],[0.5988734020355928,49.02793073702953],[0.6011629943409089,49.02912855373557],[0.6059455050812353,49.03004636706749],[0.6121751901513822,49.02967969522201],[0.6167418893285469,49.02836888957237],[0.6202134777689443,49.02562016075703],[0.6218088528234191,49.02498760949477],[0.6239293200511273,49.0249154395472],[0.6293960939807669,49.025899778724984],[0.6323004225644497,49.02566799422893],[0.635057661063071,49.02487598282874],[0.637346461634592,49.02359167221317],[0.6389696990519252,49.0219256962824],[0.6397876217204918,49.02002155530217],[0.6397298733202744,49.01804324847598],[0.6370254629742362,49.01406070647823],[0.6348580770538846,49.01268861308845],[0.6321786045304021,49.01178939742672],[0.628212033222311,49.01145308369705],[0.622648430701529,49.01236762888731],[0.6161947150232037,49.011035964586675],[0.6105923282105937,49.01126088637016],[0.6078854007477048,49.01240055479436],[0.6068948823422659,49.0151084001033],[0.6058385964142268,49.01611744429263],[0.6009778076251991,49.01756464273949],[0.5985626724680603,49.01891874140829],[0.596652890060521,49.02110589939362],[0.5960923582302686,49.02310520222672]]]}},{"type":"Feature","properties":{"category":"historical_support","snapshot_index":12,"pass_time_utc":"2026-08-10T13:36:00+00:00","dt_local":"2026-08-10T15:36:00+02:00","area_km2":6.688,"label":"Isoline temporelle","coherence_level":"indisponible","coherence_fraction":0.0,"projection_displayed":false,"model_version":"fire_progression_arrival_v1"},"geometry":{"type":"Polygon","coordinates":[[[0.599796290595592,49.02963527610359],[0.5999001834857008,49.02738837084638],[0.5964833477914511,49.02732000541673],[0.5965873793995424,49.02507309806023],[0.5931707004165755,49.02500463821451],[0.5934831842773067,49.01826389516116],[0.5968994202138096,49.0183323465611],[0.5970034158191224,49.016085419596855],[0.6004195130967542,49.01615377097016],[0.6006271820378489,49.011659896744916],[0.6040429930208001,49.011728145292615],[0.6042503308024157,49.00723424591198],[0.6076658555242737,49.007302391650185],[0.607769363366676,49.005055431838365],[0.6214309612781632,49.00532703165058],[0.6213280438329561,49.007574002631856],[0.6349903746038161,49.0078440584422],[0.6348880387213858,49.01009103565201],[0.6383037911977566,49.01015830937291],[0.6382015940935682,49.01240528446874],[0.6416175030446752,49.012472463748324],[0.6413113016496734,49.01921336800549],[0.6378949497217422,49.019146180437076],[0.6377927172408878,49.0213931359748],[0.6343762264755418,49.02132584841921],[0.6341714395666975,49.02581973926063],[0.6205043836343275,49.0255495945867],[0.6204013860125389,49.02779652154006],[0.6101507444625406,49.02759288374201],[0.610047294744218,49.029839797410276],[0.599796290595592,49.02963527610359]]]}},{"type":"Feature","properties":{"category":"observed_front","snapshot_index":12,"pass_time_utc":"2026-08-10T13:36:00+00:00","dt_local":"2026-08-10T15:36:00+02:00","area_km2":2.562,"label":"Activité observée","coherence_level":"indisponible","coherence_fraction":0.0,"projection_displayed":false,"model_version":"fire_progression_arrival_v1"},"geometry":{"type":"Polygon","coordinates":[[[0.610461039906714,49.02085211328917],[0.6105644538217122,49.018605180000876],[0.6037319190708897,49.01846895771371],[0.6042503308024157,49.00723424591198],[0.6110813892010026,49.00737044019166],[0.6111847494458446,49.00512347758149],[0.6214309612781632,49.00532703165058],[0.6213280438329561,49.007574002631856],[0.6281591914616006,49.007709224934885],[0.6276459470643001,49.01894403441342],[0.6208133230255176,49.01880878430257],[0.6207103521396599,49.02105572596435],[0.610461039906714,49.02085211328917]]]}},{"type":"Feature","properties":{"category":"historical_support","snapshot_index":13,"pass_time_utc":"2026-08-11T01:32:00+00:00","dt_local":"2026-08-11T03:32:00+02:00","area_km2":6.688,"label":"Isoline temporelle","coherence_level":"indisponible","coherence_fraction":0.0,"projection_displayed":false,"model_version":"fire_progression_arrival_v1"},"geometry":{"type":"Polygon","coordinates":[[[0.599796290595592,49.02963527610359],[0.5999001834857008,49.02738837084638],[0.5964833477914511,49.02732000541673],[0.5965873793995424,49.02507309806023],[0.5931707004165755,49.02500463821451],[0.5934831842773067,49.01826389516116],[0.5968994202138096,49.0183323465611],[0.5970034158191224,49.016085419596855],[0.6004195130967542,49.01615377097016],[0.6006271820378489,49.011659896744916],[0.6040429930208001,49.011728145292615],[0.6042503308024157,49.00723424591198],[0.6076658555242737,49.007302391650185],[0.607769363366676,49.005055431838365],[0.6214309612781632,49.00532703165058],[0.6213280438329561,49.007574002631856],[0.6349903746038161,49.0078440584422],[0.6348880387213858,49.01009103565201],[0.6383037911977566,49.01015830937291],[0.6382015940935682,49.01240528446874],[0.6416175030446752,49.012472463748324],[0.6413113016496734,49.01921336800549],[0.6378949497217422,49.019146180437076],[0.6377927172408878,49.0213931359748],[0.6343762264755418,49.02132584841921],[0.6341714395666975,49.02581973926063],[0.6205043836343275,49.0255495945867],[0.6204013860125389,49.02779652154006],[0.6101507444625406,49.02759288374201],[0.610047294744218,49.029839797410276],[0.599796290595592,49.02963527610359]]]}},{"type":"Feature","properties":{"category":"observed_front","snapshot_index":13,"pass_time_utc":"2026-08-11T01:32:00+00:00","dt_local":"2026-08-11T03:32:00+02:00","area_km2":2.312,"label":"Activité observée","coherence_level":"indisponible","coherence_fraction":0.0,"projection_displayed":false,"model_version":"fire_progression_arrival_v1"},"geometry":{"type":"Polygon","coordinates":[[[0.6103576170426268,49.023099041677845],[0.610461039906714,49.02085211328917],[0.6070446203769015,49.02078404795479],[0.6071481819659597,49.01853711746566],[0.6037319190708897,49.01846895771371],[0.6040429930208001,49.011728145292615],[0.6074588129736949,49.011796296635914],[0.6075623387270005,49.00954934658391],[0.6109780200140364,49.009617397923854],[0.6110813892010026,49.00737044019166],[0.6213280438329561,49.007574002631856],[0.6212251174838624,49.00982096873556],[0.6246408344675517,49.00988863126886],[0.624538046841102,49.012135595274046],[0.6279539203459238,49.012203163383454],[0.6276459470643001,49.01894403441342],[0.6242296305964538,49.01887645796725],[0.6241268073892912,49.02112340241222],[0.6207103521396599,49.02105572596435],[0.6206073723429819,49.02330266272693],[0.6103576170426268,49.023099041677845]]]}},{"type":"Feature","properties":{"category":"firms_extent_snapshot","snapshot_index":14,"pass_time_utc":"2026-08-11T02:36:00+00:00","dt_local":"2026-08-11T04:36:00+02:00","label":"Emprise FIRMS cumulée à ce passage","interpretation":"Enveloppe des détections FIRMS, pas une surface brûlée","cumulative":true,"point_count":30,"extent_method":"cumulative_detection_extent_smoothed_landmasked_web_v1","local_cluster_link_m":10000.0,"model_version":"fire_progression_arrival_v1"},"geometry":{"type":"Polygon","coordinates":[[[0.5875340257861337,49.01482447008759],[0.5879081769453975,49.01684253726053],[0.5896117455881641,49.01910215995332],[0.5955401356525132,49.022304219697965],[0.5967252426369775,49.025647856370135],[0.5982206579611029,49.02742718243762],[0.6012346509251286,49.02915717116822],[0.6050261362679153,49.02999690065386],[0.612092191056131,49.02968747353663],[0.6149616714002126,49.02909299451453],[0.6175074954539429,49.02793953054678],[0.6202161925939752,49.02569986199362],[0.6220863550271526,49.02507745437486],[0.6293122635695453,49.02589947668757],[0.6333351294459403,49.02544303595774],[0.635883390242197,49.024497910916935],[0.6379194166130444,49.023116338653054],[0.6397876217204918,49.02002155530217],[0.6395346385419556,49.01745042605765],[0.638052279322034,49.015132437677174],[0.6357095298914325,49.013135758615775],[0.6331151210117668,49.01203088785127],[0.6291339358153298,49.01144017264247],[0.6206402170337009,49.01202941958746],[0.6130255057482421,49.01005134181325],[0.6058851889657093,49.0103959232204],[0.6019885508338348,49.00888196031343],[0.5990944179675362,49.0083430833519],[0.5951044516068603,49.00852116989357],[0.5914565697165751,49.00972477356974],[0.5884700239072691,49.01221138379211],[0.5875340257861337,49.01482447008759]]]}},{"type":"Feature","properties":{"category":"historical_support","snapshot_index":14,"pass_time_utc":"2026-08-11T02:36:00+00:00","dt_local":"2026-08-11T04:36:00+02:00","area_km2":6.688,"label":"Isoline temporelle","coherence_level":"indisponible","coherence_fraction":0.0,"projection_displayed":false,"model_version":"fire_progression_arrival_v1"},"geometry":{"type":"Polygon","coordinates":[[[0.599796290595592,49.02963527610359],[0.5999001834857008,49.02738837084638],[0.5964833477914511,49.02732000541673],[0.5965873793995424,49.02507309806023],[0.5931707004165755,49.02500463821451],[0.5934831842773067,49.01826389516116],[0.5968994202138096,49.0183323465611],[0.5970034158191224,49.016085419596855],[0.6004195130967542,49.01615377097016],[0.6006271820378489,49.011659896744916],[0.6040429930208001,49.011728145292615],[0.6042503308024157,49.00723424591198],[0.6076658555242737,49.007302391650185],[0.607769363366676,49.005055431838365],[0.6214309612781632,49.00532703165058],[0.6213280438329561,49.007574002631856],[0.6349903746038161,49.0078440584422],[0.6348880387213858,49.01009103565201],[0.6383037911977566,49.01015830937291],[0.6382015940935682,49.01240528446874],[0.6416175030446752,49.012472463748324],[0.6413113016496734,49.01921336800549],[0.6378949497217422,49.019146180437076],[0.6377927172408878,49.0213931359748],[0.6343762264755418,49.02132584841921],[0.6341714395666975,49.02581973926063],[0.6205043836343275,49.0255495945867],[0.6204013860125389,49.02779652154006],[0.6101507444625406,49.02759288374201],[0.610047294744218,49.029839797410276],[0.599796290595592,49.02963527610359]]]}},{"type":"Feature","properties":{"category":"observed_front","snapshot_index":14,"pass_time_utc":"2026-08-11T02:36:00+00:00","dt_local":"2026-08-11T04:36:00+02:00","area_km2":1.312,"label":"Activité observée","coherence_level":"indisponible","coherence_fraction":0.0,"projection_displayed":false,"model_version":"fire_progression_arrival_v1"},"geometry":{"type":"Polygon","coordinates":[[[0.610461039906714,49.02085211328917],[0.6105644538217122,49.018605180000876],[0.6071481819659597,49.01853711746566],[0.6074588129736949,49.011796296635914],[0.6108746418837842,49.01186435077449],[0.6109780200140364,49.009617397923854],[0.6212251174838624,49.00982096873556],[0.6211221822297274,49.012067929958086],[0.624538046841102,49.012135595274046],[0.6242296305964538,49.01887645796725],[0.6208133230255176,49.01880878430257],[0.6207103521396599,49.02105572596435],[0.610461039906714,49.02085211328917]]]}}]}