{"type":"FeatureCollection","name":"detection_envelopes","crs":{"type":"name","properties":{"name":"urn:ogc:def:crs:OGC:1.3:CRS84"}},"features":[{"type":"Feature","properties":{"cluster_id":1,"snapshot_index":1,"estimated_time_utc":"2026-10-02T01:56:00Z","observed_until_utc":"2026-10-02T01:56:00Z","target_time_utc":"2026-10-02T01:56:00Z","arrival_h":0.0,"hours_ago":73.06666666666666,"supported_detections_cumulative":2,"sources_cumulative":"VIIRS_SNPP_NRT","last_source":"VIIRS_SNPP_NRT","last_satellite":"N","last_instrument":"VIIRS","detected_area_km2":2.3033254220525743,"product_type":"cumulative_active_fire_detection_extent"},"geometry":{"type":"MultiLineString","coordinates":[[[3.487381980003835,50.337216472564776],[3.488325995606181,50.34037786956026],[3.490783314488167,50.341679977968134],[3.492649535675213,50.34209893505481],[3.49503278916327,50.3421753595994],[3.496890678439903,50.34174149715943],[3.500567022597163,50.339561917764854],[3.501444500046777,50.33838015525897],[3.500822137955513,50.336358323686554],[3.498459379856127,50.33471959585277],[3.497462774626963,50.333242027128215],[3.495639164978547,50.33244100197234],[3.496067005847304,50.330639799674366],[3.494593227188855,50.32887516143396],[3.494193162902103,50.326605392070206],[3.491308610762825,50.32523030128894],[3.487765346562841,50.32581345498687],[3.485396378251769,50.32861943938149],[3.486182770064492,50.33176849040052],[3.487615304164594,50.33307754413473],[3.486853438834839,50.334614658608515],[3.487381980003835,50.337216472564776]],[[3.556014996489632,50.39873420787518],[3.554804970685654,50.40094465008361],[3.555966875800378,50.403197696726856],[3.555877631885217,50.40491863540415],[3.557287616738439,50.40624688176387],[3.560727350021623,50.406781009514546],[3.56347414389019,50.40557282543724],[3.56615507572492,50.40577208004515],[3.568566840457109,50.40481574349283],[3.569461597354152,50.403406534515355],[3.56930194844771,50.400337400428995],[3.566391746008791,50.397082959851936],[3.562885164071317,50.396557878626304],[3.560156908431721,50.39774445942568],[3.557872442168769,50.397911601697764],[3.556014996489632,50.39873420787518]]]}},{"type":"Feature","properties":{"cluster_id":1,"snapshot_index":2,"estimated_time_utc":"2026-10-02T02:15:00Z","observed_until_utc":"2026-10-02T02:15:00Z","target_time_utc":"2026-10-02T07:56:00Z","arrival_h":0.31666666666666665,"hours_ago":72.75,"supported_detections_cumulative":4,"sources_cumulative":"VIIRS_NOAA20_NRT, VIIRS_SNPP_NRT","last_source":"VIIRS_NOAA20_NRT","last_satellite":"N20","last_instrument":"VIIRS","detected_area_km2":2.3061301432356522,"product_type":"cumulative_active_fire_detection_extent"},"geometry":{"type":"MultiLineString","coordinates":[[[3.487381980003835,50.337216472564776],[3.488325995606181,50.34037786956026],[3.490783314488167,50.341679977968134],[3.492649535675213,50.34209893505481],[3.49503278916327,50.3421753595994],[3.496890678439903,50.34174149715943],[3.500567022597163,50.339561917764854],[3.501444500046777,50.33838015525897],[3.500822137955513,50.336358323686554],[3.498459379856127,50.33471959585277],[3.497462774626963,50.333242027128215],[3.495639164978547,50.33244100197234],[3.496067005847304,50.330639799674366],[3.494593227188855,50.32887516143396],[3.494193162902103,50.326605392070206],[3.491308610762825,50.32523030128894],[3.487765346562841,50.32581345498687],[3.485396378251769,50.32861943938149],[3.486076742028199,50.331513130907],[3.487288717655171,50.333430912079365],[3.486853862941908,50.33465868466351],[3.487381980003835,50.337216472564776]],[[3.556014996489632,50.39873420787518],[3.554804970685654,50.40094465008361],[3.555966875800378,50.403197696726856],[3.555877631885217,50.40491863540415],[3.557287616738439,50.40624688176387],[3.560727350021623,50.406781009514546],[3.56347414389019,50.40557282543724],[3.56615507572492,50.40577208004515],[3.568566840457109,50.40481574349283],[3.569461597354152,50.403406534515355],[3.56930194844771,50.400337400428995],[3.566391746008791,50.397082959851936],[3.562885164071317,50.396557878626304],[3.560156908431721,50.39774445942568],[3.557872442168769,50.397911601697764],[3.556014996489632,50.39873420787518]]]}},{"type":"Feature","properties":{"cluster_id":1,"snapshot_index":3,"estimated_time_utc":"2026-10-03T01:00:00Z","observed_until_utc":"2026-10-03T01:00:00Z","target_time_utc":"2026-10-03T01:56:00Z","arrival_h":23.066666666666666,"hours_ago":50.0,"supported_detections_cumulative":5,"sources_cumulative":"VIIRS_NOAA20_NRT, VIIRS_NOAA21_NRT, VIIRS_SNPP_NRT","last_source":"VIIRS_NOAA21_NRT","last_satellite":"N21","last_instrument":"VIIRS","detected_area_km2":2.321201226489186,"product_type":"cumulative_active_fire_detection_extent"},"geometry":{"type":"MultiLineString","coordinates":[[[3.489117631577249,50.32531456728171],[3.486573560073015,50.326113668546114],[3.485398759815973,50.327764568761424],[3.485406881043688,50.329713109963905],[3.487288717655171,50.333430912079365],[3.486853862941908,50.33465868466351],[3.487864101437345,50.33788562817743],[3.487676116848488,50.3394131781166],[3.488576673755589,50.34058781169473],[3.491079591474886,50.34179202652886],[3.495440277278294,50.34213281844373],[3.497222761413988,50.34158450055188],[3.498503251183024,50.340432952637684],[3.500610326263028,50.33952770836707],[3.501433648391356,50.33728649911885],[3.497506744985602,50.333275883796986],[3.495639164978547,50.33244100197234],[3.496067005847304,50.330639799674366],[3.494634006084342,50.328959313264605],[3.493981648357905,50.326378497367955],[3.491708781848533,50.325295003223445],[3.489117631577249,50.32531456728171]],[[3.556014996489632,50.39873420787518],[3.554804970685654,50.40094465008361],[3.555966875800378,50.403197696726856],[3.555877631885217,50.40491863540415],[3.557287616738439,50.40624688176387],[3.560727350021623,50.406781009514546],[3.56347414389019,50.40557282543724],[3.56615507572492,50.40577208004515],[3.568566840457109,50.40481574349283],[3.569461597354152,50.403406534515355],[3.56930194844771,50.400337400428995],[3.566391746008791,50.397082959851936],[3.562885164071317,50.396557878626304],[3.560156908431721,50.39774445942568],[3.557872442168769,50.397911601697764],[3.556014996489632,50.39873420787518]]]}},{"type":"Feature","properties":{"cluster_id":1,"snapshot_index":4,"estimated_time_utc":"2026-10-03T02:43:00Z","observed_until_utc":"2026-10-03T02:43:00Z","target_time_utc":"2026-10-03T07:56:00Z","arrival_h":24.783333333333335,"hours_ago":48.28333333333333,"supported_detections_cumulative":8,"sources_cumulative":"VIIRS_NOAA20_NRT, VIIRS_NOAA21_NRT, VIIRS_SNPP_NRT","last_source":"VIIRS_NOAA21_NRT","last_satellite":"N21","last_instrument":"VIIRS","detected_area_km2":2.321451330093637,"product_type":"cumulative_active_fire_detection_extent"},"geometry":{"type":"MultiLineString","coordinates":[[[3.489117631577249,50.32531456728171],[3.486573560073015,50.326113668546114],[3.485398759815973,50.327764568761424],[3.485406881043688,50.329713109963905],[3.487288717655171,50.333430912079365],[3.486853862941908,50.33465868466351],[3.487864101437345,50.33788562817743],[3.487676116848488,50.3394131781166],[3.488576673755589,50.34058781169473],[3.491079591474886,50.34179202652886],[3.495440277278294,50.34213281844373],[3.497222761413988,50.34158450055188],[3.498503251183024,50.340432952637684],[3.500610326263028,50.33952770836707],[3.501433648391356,50.33728649911885],[3.497506744985602,50.333275883796986],[3.495639164978547,50.33244100197234],[3.496067005847304,50.330639799674366],[3.494568026864749,50.32879663623138],[3.493981648357905,50.326378497367955],[3.491708781848533,50.325295003223445],[3.489117631577249,50.32531456728171]],[[3.556014996489632,50.39873420787518],[3.554804970685654,50.40094465008361],[3.555966875800378,50.403197696726856],[3.555877631885217,50.40491863540415],[3.557287616738439,50.40624688176387],[3.560727350021623,50.406781009514546],[3.56347414389019,50.40557282543724],[3.56615507572492,50.40577208004515],[3.568566840457109,50.40481574349283],[3.569461597354152,50.403406534515355],[3.56930194844771,50.400337400428995],[3.566391746008791,50.397082959851936],[3.562885164071317,50.396557878626304],[3.560156908431721,50.39774445942568],[3.557872442168769,50.397911601697764],[3.556014996489632,50.39873420787518]]]}},{"type":"Feature","properties":{"cluster_id":1,"snapshot_index":5,"estimated_time_utc":"2026-10-05T03:00:00Z","observed_until_utc":"2026-10-05T03:00:00Z","target_time_utc":"2026-10-05T03:00:00Z","arrival_h":73.06666666666666,"hours_ago":0.0,"supported_detections_cumulative":11,"sources_cumulative":"VIIRS_NOAA20_NRT, VIIRS_NOAA21_NRT, VIIRS_SNPP_NRT","last_source":"VIIRS_NOAA20_NRT","last_satellite":"N20","last_instrument":"VIIRS","detected_area_km2":2.362697950171193,"product_type":"cumulative_active_fire_detection_extent"},"geometry":{"type":"MultiLineString","coordinates":[[[3.487381980003835,50.337216472564776],[3.487676116848488,50.3394131781166],[3.488576673755589,50.34058781169473],[3.491140464507112,50.341812538565804],[3.494669638604585,50.34259894008977],[3.498059242060127,50.341827414644],[3.501444500046777,50.33838015525897],[3.501327531720585,50.33703115467905],[3.499589840520561,50.33548655049345],[3.498892023764942,50.33388837339716],[3.495639164978547,50.33244100197234],[3.496067005847304,50.330639799674366],[3.494568026864749,50.32879663623138],[3.494193162902103,50.326605392070206],[3.491308610762825,50.32523030128894],[3.487554270991981,50.32563393087421],[3.485466472147917,50.32745944087657],[3.485393048436737,50.32966998235817],[3.487288717655171,50.333430912079365],[3.486853862941908,50.33465868466351],[3.487381980003835,50.337216472564776]],[[3.556014996489632,50.39873420787518],[3.554804970685654,50.40094465008361],[3.555966875800378,50.403197696726856],[3.555877631885217,50.40491863540415],[3.557287616738439,50.40624688176387],[3.560727350021623,50.406781009514546],[3.56347414389019,50.40557282543724],[3.56615507572492,50.40577208004515],[3.568566840457109,50.40481574349283],[3.569461597354152,50.403406534515355],[3.56930194844771,50.400337400428995],[3.566391746008791,50.397082959851936],[3.562885164071317,50.396557878626304],[3.560156908431721,50.39774445942568],[3.557872442168769,50.397911601697764],[3.556014996489632,50.39873420787518]]]}}],"metadata":{"generated_at_utc":"2026-10-06T10:46:50.673157Z","product_type":"cumulative_active_fire_detection_extent","product_label":"Emprises cumulées des détections actives FIRMS","not_a_burn_perimeter":true,"not_a_continuous_fire_front":true,"not_an_arrival_time_interpolation":true,"snapshot_step_hours":6,"confidence_filter":{"VIIRS":["nominal","high"],"MODIS_minimum":30},"footprint_radius_m":{"VIIRS":300.0,"MODIS":750.0},"same_pass_neighbour_m":2000.0,"continuity_distance_m":3000.0,"clusters":[{"cluster_id":1,"first_supported_detection_utc":"2026-10-02T01:56:00Z","last_supported_detection_utc":"2026-10-05T03:00:00Z","pass_states":8,"published_snapshots":5,"final_detected_area_km2":1.263666976612951}]},"bbox":[3.485393048436737,50.32523030128894,3.5694615973541524,50.406781009514546]}