{"type":"FeatureCollection","name":"fire_progression_arrival_v1","features":[{"type":"Feature","properties":{"category":"arrival_step","arrival_snapshot_index":4,"first_detected_utc":"2026-10-03T01:58:00+00:00","first_detected_local":"2026-10-03T03:58:00+02:00","area_km2":3.812,"label":"Première détection FIRMS","model_version":"fire_progression_arrival_v1"},"geometry":{"type":"Polygon","coordinates":[[[3.483986280665417,50.33979966301562],[3.4839432921659608,50.33531071627437],[3.4804365435782434,50.335324422525005],[3.480372542273492,50.32859094863865],[3.4768662589192454,50.32860455352443],[3.47680274166804,50.321871015549306],[3.480308558018113,50.32185741234975],[3.480287233720559,50.31961288640333],[3.4837928925368513,50.31959918411619],[3.483771414506318,50.31735465181692],[3.4942879125793165,50.31731294878182],[3.4943098574873535,50.31955747935807],[3.4978155085920024,50.31954337847338],[3.497837611087813,50.321787901547964],[3.5013434158688805,50.321773700427364],[3.5013879380681248,50.32626272463109],[3.504894052191339,50.3262484226755],[3.504983743119959,50.335226385528316],[3.501477006193484,50.335240689847765],[3.5015215521238137,50.339729630802054],[3.483986280665417,50.33979966301562]]]}},{"type":"Feature","properties":{"category":"arrival_step","arrival_snapshot_index":6,"first_detected_utc":"2026-10-05T02:04:00+00:00","first_detected_local":"2026-10-05T04:04:00+02:00","area_km2":0.312,"label":"Première détection FIRMS","model_version":"fire_progression_arrival_v1"},"geometry":{"type":"MultiPolygon","coordinates":[[[[3.498036621903767,50.341988297255185],[3.4980145017340853,50.33974383661744],[3.494507449379547,50.33975794274656],[3.4945294137856484,50.34200240396718],[3.498036621903767,50.341988297255185]]],[[[3.491022203716294,50.342016410988705],[3.491000395074033,50.33977194918935],[3.483986280665417,50.33979966301562],[3.4840077777792255,50.342044125960086],[3.487514991709541,50.34203031831971],[3.4875366465112667,50.344274773738],[3.4945513801429855,50.344246858232054],[3.4945294137856484,50.34200240396718],[3.491022203716294,50.342016410988705]]]]}},{"type":"Feature","properties":{"category":"arrival_step","arrival_snapshot_index":7,"first_detected_utc":"2026-10-05T02:41:00+00:00","first_detected_local":"2026-10-05T04:41:00+02:00","area_km2":0.312,"label":"Première détection FIRMS","model_version":"fire_progression_arrival_v1"},"geometry":{"type":"Polygon","coordinates":[[[3.5015215521238137,50.339729630802054],[3.501477006193484,50.335240689847765],[3.504983743119959,50.335226385528316],[3.504938893672814,50.33073741797687],[3.5084453171785874,50.33072301516978],[3.508513061500971,50.33745645429619],[3.505006170831322,50.33747085888866],[3.505028600534897,50.339715325300496],[3.5015215521238137,50.339729630802054]]]}},{"type":"Feature","properties":{"category":"arrival_step","arrival_snapshot_index":8,"first_detected_utc":"2026-10-05T03:00:00+00:00","first_detected_local":"2026-10-05T05:00:00+02:00","area_km2":0.25,"label":"Première détection FIRMS","model_version":"fire_progression_arrival_v1"},"geometry":{"type":"MultiPolygon","coordinates":[[[[3.508558234412346,50.34194537897731],[3.508513061500971,50.33745645429619],[3.505006170831322,50.33747085888866],[3.505028600534897,50.339715325300496],[3.5015215521238137,50.339729630802054],[3.5015438280568136,50.34197409085284],[3.508558234412346,50.34194537897731]]],[[[3.494573348451818,50.34649130553753],[3.4945513801429855,50.344246858232054],[3.4910440142959547,50.34426086583236],[3.4910658268132724,50.34650531371663],[3.494573348451818,50.34649130553753]]]]}},{"type":"Feature","properties":{"category":"arrival_step","arrival_snapshot_index":10,"first_detected_utc":"2026-10-06T01:43:00+00:00","first_detected_local":"2026-10-06T03:43:00+02:00","area_km2":2.75,"label":"Première détection FIRMS","model_version":"fire_progression_arrival_v1"},"geometry":{"type":"Polygon","coordinates":[[[3.55489106364758,50.40907930343165],[3.5548663855771134,50.406835062963665],[3.551354687518581,50.406850783539866],[3.551330167804183,50.40460653535951],[3.5478186237260645,50.404622155481476],[3.547745546067141,50.39788936666468],[3.5512566217442503,50.39787374847921],[3.551232110751057,50.395629472084934],[3.554743028142688,50.39561375475686],[3.5547183632373356,50.39336947196783],[3.568761386366535,50.39330560741603],[3.568786675635876,50.395549887565736],[3.5722975819214393,50.39553367129869],[3.572323029543885,50.39777794373376],[3.5758340896704253,50.39776162700488],[3.575910914512682,50.40449439998329],[3.572399385991356,50.40451071873527],[3.5724248426682315,50.40675496295563],[3.5689131557231772,50.40677118257388],[3.568938458490858,50.409015420401744],[3.55489106364758,50.40907930343165]]]}},{"type":"Feature","properties":{"category":"firms_extent_snapshot","snapshot_index":1,"pass_time_utc":"2026-10-02T01:56:00+00:00","dt_local":"2026-10-02T03:56:00+02:00","label":"Emprise FIRMS cumulée à ce passage","interpretation":"Enveloppe des détections FIRMS, pas une surface brûlée","cumulative":true,"point_count":2,"extent_method":"cumulative_detection_extent_smoothed_landmasked_web_v1","local_cluster_link_m":10000.0,"model_version":"fire_progression_arrival_v1"},"geometry":{"type":"MultiPolygon","coordinates":[[[[3.5584063377144433,50.4066535868878],[3.5607609961726485,50.40677629669898],[3.5630795837758007,50.406092798998344],[3.5597479074875062,50.403670939241984],[3.555116348423962,50.39992889315652],[3.554778596696348,50.400658984026414],[3.5559986913985795,50.405136449370694],[3.5584063377144433,50.4066535868878]]],[[[3.5692030485297614,50.4041007302117],[3.569191261559994,50.40006012041427],[3.567204655082662,50.39763373234655],[3.565273172820614,50.396676321586675],[3.562601642311216,50.39660464988079],[3.557393925776951,50.39806251357055],[3.5554718869327915,50.3991603294012],[3.55547034096099,50.39916367136644],[3.5639961827853943,50.4058997001966],[3.566829521968355,50.40563964172876],[3.5692030485297614,50.4041007302117]]],[[[3.4876845415363964,50.33759960251999],[3.488870105885458,50.33708694145565],[3.489937398172365,50.338653898089994],[3.4878792264367644,50.338808519235265],[3.4880926512735395,50.340133734466875],[3.490217378895274,50.34118294190705],[3.4945140384965128,50.34043128184288],[3.4964073228055987,50.34189335875241],[3.4965661785048106,50.3418661691042],[3.4974158914449034,50.341372982509206],[3.4955639673620125,50.3402026141404],[3.497950512612241,50.34106267197053],[3.4979577023856683,50.34105849876265],[3.4979939900272377,50.341037436068824],[3.497315300233322,50.339971112206534],[3.4983652068617026,50.33974242052177],[3.4990440905758615,50.340427906246546],[3.5006408298920713,50.33950103420557],[3.5015033171286847,50.337569192379455],[3.496517974662459,50.33238468398224],[3.4941763910655133,50.32658617232397],[3.4917575053485517,50.32530594523271],[3.4887682326044107,50.32541187218738],[3.4868009003900777,50.32656760567465],[3.485314529020429,50.329166617595604],[3.4869509057477197,50.333043472057554],[3.4876845415363964,50.33759960251999]]]]}},{"type":"Feature","properties":{"category":"firms_extent_snapshot","snapshot_index":2,"pass_time_utc":"2026-10-02T02:15:00+00:00","dt_local":"2026-10-02T04:15:00+02:00","label":"Emprise FIRMS cumulée à ce passage","interpretation":"Enveloppe des détections FIRMS, pas une surface brûlée","cumulative":true,"point_count":4,"extent_method":"cumulative_detection_extent_smoothed_landmasked_web_v1","local_cluster_link_m":10000.0,"model_version":"fire_progression_arrival_v1"},"geometry":{"type":"MultiPolygon","coordinates":[[[[3.5584063377144433,50.4066535868878],[3.5607609961726485,50.40677629669898],[3.5630795837758007,50.406092798998344],[3.5597479074875062,50.403670939241984],[3.555116348423962,50.39992889315652],[3.554778596696348,50.400658984026414],[3.5559986913985795,50.405136449370694],[3.5584063377144433,50.4066535868878]]],[[[3.5692030485297614,50.4041007302117],[3.569191261559994,50.40006012041427],[3.567204655082662,50.39763373234655],[3.565273172820614,50.396676321586675],[3.562601642311216,50.39660464988079],[3.557393925776951,50.39806251357055],[3.5554718869327915,50.3991603294012],[3.55547034096099,50.39916367136644],[3.5639961827853943,50.4058997001966],[3.566829521968355,50.40563964172876],[3.5692030485297614,50.4041007302117]]],[[[3.488870105885458,50.33708694145565],[3.489937398172365,50.338653898089994],[3.487869482597142,50.33880925116193],[3.4880926512735395,50.340133734466875],[3.490217378895274,50.34118294190705],[3.4945140384965128,50.34043128184288],[3.4964073228055987,50.34189335875241],[3.4965661785048106,50.3418661691042],[3.4974158914449034,50.341372982509206],[3.4955639673620125,50.3402026141404],[3.497950512612241,50.34106267197053],[3.4979577023856683,50.34105849876265],[3.4979939900272377,50.341037436068824],[3.497315300233322,50.339971112206534],[3.4983652068617026,50.33974242052177],[3.4990440905758615,50.340427906246546],[3.5006408298920713,50.33950103420557],[3.5015033171286847,50.337569192379455],[3.496517974662459,50.33238468398224],[3.4941763910655133,50.32658617232397],[3.4917575053485517,50.32530594523271],[3.4887682326044107,50.32541187218738],[3.4868009003900777,50.32656760567465],[3.485314529020429,50.329166617595604],[3.486933841567147,50.33325553066998],[3.4876669548580916,50.337607207174706],[3.488870105885458,50.33708694145565]]]]}},{"type":"Feature","properties":{"category":"observed_front","snapshot_index":2,"pass_time_utc":"2026-10-02T02:15:00+00:00","dt_local":"2026-10-02T04:15:00+02:00","area_km2":3.125,"label":"Activité observée","coherence_level":"indisponible","coherence_fraction":0.0,"projection_displayed":false,"model_version":"fire_progression_arrival_v1"},"geometry":{"type":"Polygon","coordinates":[[[3.4840077777792255,50.342044125960086],[3.483986280665417,50.33979966301562],[3.480479220589984,50.339813370398936],[3.4804365435782434,50.335324422525005],[3.4769297930953944,50.335338029097244],[3.4768662589192454,50.32860455352443],[3.480372542273492,50.32859094863865],[3.480329884209285,50.32410193137355],[3.497859715546341,50.324032417699804],[3.4978818219678476,50.326276926925225],[3.5013879380681248,50.32626272463109],[3.501432468175623,50.33075172111434],[3.504938893672814,50.33073741797687],[3.505006170831322,50.33747085888866],[3.501499278169458,50.33748516379916],[3.5015215521238137,50.339729630802054],[3.4980145017340853,50.33974383661744],[3.498036621903767,50.341988297255185],[3.4945294137856484,50.34200240396718],[3.494507449379547,50.33975794274656],[3.491000395074033,50.33977194918935],[3.491022203716294,50.342016410988705],[3.4840077777792255,50.342044125960086]]]}},{"type":"Feature","properties":{"category":"firms_extent_snapshot","snapshot_index":3,"pass_time_utc":"2026-10-03T01:00:00+00:00","dt_local":"2026-10-03T03:00:00+02:00","label":"Emprise FIRMS cumulée à ce passage","interpretation":"Enveloppe des détections FIRMS, pas une surface brûlée","cumulative":true,"point_count":5,"extent_method":"cumulative_detection_extent_smoothed_landmasked_web_v1","local_cluster_link_m":10000.0,"model_version":"fire_progression_arrival_v1"},"geometry":{"type":"MultiPolygon","coordinates":[[[[3.5584063377144433,50.4066535868878],[3.5607609961726485,50.40677629669898],[3.5630795837758007,50.406092798998344],[3.5597479074875062,50.403670939241984],[3.555116348423962,50.39992889315652],[3.554778596696348,50.400658984026414],[3.5559986913985795,50.405136449370694],[3.5584063377144433,50.4066535868878]]],[[[3.5692030485297614,50.4041007302117],[3.569191261559994,50.40006012041427],[3.567204655082662,50.39763373234655],[3.565273172820614,50.396676321586675],[3.562601642311216,50.39660464988079],[3.557393925776951,50.39806251357055],[3.5554718869327915,50.3991603294012],[3.55547034096099,50.39916367136644],[3.5639961827853943,50.4058997001966],[3.566829521968355,50.40563964172876],[3.5692030485297614,50.4041007302117]]],[[[3.488870105885458,50.33708694145565],[3.489937398172365,50.338653898089994],[3.487869482597142,50.33880925116193],[3.4880926512735395,50.340133734466875],[3.490217378895274,50.34118294190705],[3.4945140384965128,50.34043128184288],[3.4964073228055987,50.34189335875241],[3.4965661785048106,50.3418661691042],[3.4974158914449034,50.341372982509206],[3.4955639673620125,50.3402026141404],[3.497950512612241,50.34106267197053],[3.4979577023856683,50.34105849876265],[3.4979939900272377,50.341037436068824],[3.497315300233322,50.339971112206534],[3.4983652068617026,50.33974242052177],[3.4990440905758615,50.340427906246546],[3.5006408298920713,50.33950103420557],[3.5015033171286847,50.337569192379455],[3.496517974662459,50.33238468398224],[3.4941763910655133,50.32658617232397],[3.4915926826609405,50.32527465328699],[3.487878271819785,50.32553186024229],[3.4857292032316938,50.3269246963629],[3.485314529020429,50.329166617595604],[3.486933841567147,50.33325553066998],[3.4876669548580916,50.337607207174706],[3.488870105885458,50.33708694145565]]]]}},{"type":"Feature","properties":{"category":"observed_front","snapshot_index":3,"pass_time_utc":"2026-10-03T01:00:00+00:00","dt_local":"2026-10-03T03:00:00+02:00","area_km2":2.312,"label":"Activité observée","coherence_level":"indisponible","coherence_fraction":0.0,"projection_displayed":false,"model_version":"fire_progression_arrival_v1"},"geometry":{"type":"Polygon","coordinates":[[[3.4839218007798047,50.333066232484946],[3.4839003113023566,50.330821741754534],[3.480393874147031,50.3308354468726],[3.480372542273492,50.32859094863865],[3.4768662589192454,50.32860455352443],[3.47680274166804,50.321871015549306],[3.480308558018113,50.32185741234975],[3.480287233720559,50.31961288640333],[3.4837928925368513,50.31959918411619],[3.483771414506318,50.31735465181692],[3.4942879125793165,50.31731294878182],[3.4943098574873535,50.31955747935807],[3.4978155085920024,50.31954337847338],[3.497837611087813,50.321787901547964],[3.5013434158688805,50.321773700427364],[3.5014102021332105,50.32850722633961],[3.497903930352594,50.328521429220544],[3.4979260407008423,50.3307659245821],[3.494419611262298,50.330780028380076],[3.494441567866056,50.33302451738696],[3.4839218007798047,50.333066232484946]]]}},{"type":"Feature","properties":{"category":"historical_support","snapshot_index":4,"pass_time_utc":"2026-10-03T01:58:00+00:00","dt_local":"2026-10-03T03:58:00+02:00","area_km2":3.812,"label":"Isoline temporelle","coherence_level":"indisponible","coherence_fraction":0.0,"projection_displayed":false,"model_version":"fire_progression_arrival_v1"},"geometry":{"type":"Polygon","coordinates":[[[3.483986280665417,50.33979966301562],[3.4839432921659608,50.33531071627437],[3.4804365435782434,50.335324422525005],[3.480372542273492,50.32859094863865],[3.4768662589192454,50.32860455352443],[3.47680274166804,50.321871015549306],[3.480308558018113,50.32185741234975],[3.480287233720559,50.31961288640333],[3.4837928925368513,50.31959918411619],[3.483771414506318,50.31735465181692],[3.4942879125793165,50.31731294878182],[3.4943098574873535,50.31955747935807],[3.4978155085920024,50.31954337847338],[3.497837611087813,50.321787901547964],[3.5013434158688805,50.321773700427364],[3.5013879380681248,50.32626272463109],[3.504894052191339,50.3262484226755],[3.504983743119959,50.335226385528316],[3.501477006193484,50.335240689847765],[3.5015215521238137,50.339729630802054],[3.483986280665417,50.33979966301562]]]}},{"type":"Feature","properties":{"category":"observed_front","snapshot_index":4,"pass_time_utc":"2026-10-03T01:58:00+00:00","dt_local":"2026-10-03T03:58:00+02:00","area_km2":3.812,"label":"Activité observée","coherence_level":"indisponible","coherence_fraction":0.0,"projection_displayed":false,"model_version":"fire_progression_arrival_v1"},"geometry":{"type":"Polygon","coordinates":[[[3.483986280665417,50.33979966301562],[3.4839432921659608,50.33531071627437],[3.4804365435782434,50.335324422525005],[3.480372542273492,50.32859094863865],[3.4768662589192454,50.32860455352443],[3.47680274166804,50.321871015549306],[3.480308558018113,50.32185741234975],[3.480287233720559,50.31961288640333],[3.4837928925368513,50.31959918411619],[3.483771414506318,50.31735465181692],[3.4942879125793165,50.31731294878182],[3.4943098574873535,50.31955747935807],[3.4978155085920024,50.31954337847338],[3.497837611087813,50.321787901547964],[3.5013434158688805,50.321773700427364],[3.5013879380681248,50.32626272463109],[3.504894052191339,50.3262484226755],[3.504983743119959,50.335226385528316],[3.501477006193484,50.335240689847765],[3.5015215521238137,50.339729630802054],[3.483986280665417,50.33979966301562]]]}},{"type":"Feature","properties":{"category":"firms_extent_snapshot","snapshot_index":5,"pass_time_utc":"2026-10-03T02:43:00+00:00","dt_local":"2026-10-03T04:43:00+02:00","label":"Emprise FIRMS cumulée à ce passage","interpretation":"Enveloppe des détections FIRMS, pas une surface brûlée","cumulative":true,"point_count":8,"extent_method":"cumulative_detection_extent_smoothed_landmasked_web_v1","local_cluster_link_m":10000.0,"model_version":"fire_progression_arrival_v1"},"geometry":{"type":"MultiPolygon","coordinates":[[[[3.5584063377144433,50.4066535868878],[3.5607609961726485,50.40677629669898],[3.5630795837758007,50.406092798998344],[3.5597479074875062,50.403670939241984],[3.555116348423962,50.39992889315652],[3.554778596696348,50.400658984026414],[3.5559986913985795,50.405136449370694],[3.5584063377144433,50.4066535868878]]],[[[3.5692030485297614,50.4041007302117],[3.569191261559994,50.40006012041427],[3.567204655082662,50.39763373234655],[3.565273172820614,50.396676321586675],[3.562601642311216,50.39660464988079],[3.557393925776951,50.39806251357055],[3.5554718869327915,50.3991603294012],[3.55547034096099,50.39916367136644],[3.5639961827853943,50.4058997001966],[3.566829521968355,50.40563964172876],[3.5692030485297614,50.4041007302117]]],[[[3.488870105885458,50.33708694145565],[3.489937398172365,50.338653898089994],[3.487869482597142,50.33880925116193],[3.4880926512735395,50.340133734466875],[3.490217378895274,50.34118294190705],[3.4945140384965128,50.34043128184288],[3.4964073228055987,50.34189335875241],[3.4965661785048106,50.3418661691042],[3.4974158914449034,50.341372982509206],[3.4955639673620125,50.3402026141404],[3.497950512612241,50.34106267197053],[3.4979577023856683,50.34105849876265],[3.4979939900272377,50.341037436068824],[3.497315300233322,50.339971112206534],[3.4983652068617026,50.33974242052177],[3.4990440905758615,50.340427906246546],[3.5006408298920713,50.33950103420557],[3.5015033171286847,50.337569192379455],[3.496517974662459,50.33238468398224],[3.4941763910655133,50.32658617232397],[3.4915926826609405,50.32527465328699],[3.487878271819785,50.32553186024229],[3.4857292032316938,50.3269246963629],[3.485314529020429,50.329166617595604],[3.486933841567147,50.33325553066998],[3.4876669548580916,50.337607207174706],[3.488870105885458,50.33708694145565]]]]}},{"type":"Feature","properties":{"category":"historical_support","snapshot_index":5,"pass_time_utc":"2026-10-03T02:43:00+00:00","dt_local":"2026-10-03T04:43:00+02:00","area_km2":3.812,"label":"Isoline temporelle","coherence_level":"indisponible","coherence_fraction":0.0,"projection_displayed":false,"model_version":"fire_progression_arrival_v1"},"geometry":{"type":"Polygon","coordinates":[[[3.483986280665417,50.33979966301562],[3.4839432921659608,50.33531071627437],[3.4804365435782434,50.335324422525005],[3.480372542273492,50.32859094863865],[3.4768662589192454,50.32860455352443],[3.47680274166804,50.321871015549306],[3.480308558018113,50.32185741234975],[3.480287233720559,50.31961288640333],[3.4837928925368513,50.31959918411619],[3.483771414506318,50.31735465181692],[3.4942879125793165,50.31731294878182],[3.4943098574873535,50.31955747935807],[3.4978155085920024,50.31954337847338],[3.497837611087813,50.321787901547964],[3.5013434158688805,50.321773700427364],[3.5013879380681248,50.32626272463109],[3.504894052191339,50.3262484226755],[3.504983743119959,50.335226385528316],[3.501477006193484,50.335240689847765],[3.5015215521238137,50.339729630802054],[3.483986280665417,50.33979966301562]]]}},{"type":"Feature","properties":{"category":"observed_front","snapshot_index":5,"pass_time_utc":"2026-10-03T02:43:00+00:00","dt_local":"2026-10-03T04:43:00+02:00","area_km2":2.0,"label":"Activité observée","coherence_level":"indisponible","coherence_fraction":0.0,"projection_displayed":false,"model_version":"fire_progression_arrival_v1"},"geometry":{"type":"Polygon","coordinates":[[[3.483986280665417,50.33979966301562],[3.4839432921659608,50.33531071627437],[3.4804365435782434,50.335324422525005],[3.480393874147031,50.3308354468726],[3.4839003113023566,50.330821741754534],[3.4838788237333636,50.328577244086816],[3.487385103285035,50.328563439869015],[3.4873634619428677,50.32631893583798],[3.4978818219678476,50.326276926925225],[3.497903930352594,50.328521429220544],[3.5014102021332105,50.32850722633961],[3.501432468175623,50.33075172111434],[3.504938893672814,50.33073741797687],[3.504983743119959,50.335226385528316],[3.501477006193484,50.335240689847765],[3.5015215521238137,50.339729630802054],[3.483986280665417,50.33979966301562]]]}},{"type":"Feature","properties":{"category":"historical_support","snapshot_index":6,"pass_time_utc":"2026-10-05T02:04:00+00:00","dt_local":"2026-10-05T04:04:00+02:00","area_km2":4.125,"label":"Isoline temporelle","coherence_level":"indisponible","coherence_fraction":0.0,"projection_displayed":false,"model_version":"fire_progression_arrival_v1"},"geometry":{"type":"Polygon","coordinates":[[[3.4875366465112667,50.344274773738],[3.487514991709541,50.34203031831971],[3.4840077777792255,50.342044125960086],[3.4839432921659608,50.33531071627437],[3.4804365435782434,50.335324422525005],[3.480372542273492,50.32859094863865],[3.4768662589192454,50.32860455352443],[3.47680274166804,50.321871015549306],[3.480308558018113,50.32185741234975],[3.480287233720559,50.31961288640333],[3.4837928925368513,50.31959918411619],[3.483771414506318,50.31735465181692],[3.4942879125793165,50.31731294878182],[3.4943098574873535,50.31955747935807],[3.4978155085920024,50.31954337847338],[3.497837611087813,50.321787901547964],[3.5013434158688805,50.321773700427364],[3.5013879380681248,50.32626272463109],[3.504894052191339,50.3262484226755],[3.504983743119959,50.335226385528316],[3.501477006193484,50.335240689847765],[3.5015215521238137,50.339729630802054],[3.4980145017340853,50.33974383661744],[3.498036621903767,50.341988297255185],[3.4945294137856484,50.34200240396718],[3.4945513801429855,50.344246858232054],[3.4875366465112667,50.344274773738]],[[3.491022203716294,50.342016410988705],[3.4945294137856484,50.34200240396718],[3.494507449379547,50.33975794274656],[3.491000395074033,50.33977194918935],[3.491022203716294,50.342016410988705]]]}},{"type":"Feature","properties":{"category":"observed_front","snapshot_index":6,"pass_time_utc":"2026-10-05T02:04:00+00:00","dt_local":"2026-10-05T04:04:00+02:00","area_km2":1.875,"label":"Activité observée","coherence_level":"indisponible","coherence_fraction":0.0,"projection_displayed":false,"model_version":"fire_progression_arrival_v1"},"geometry":{"type":"Polygon","coordinates":[[[3.4875366465112667,50.344274773738],[3.487514991709541,50.34203031831971],[3.4840077777792255,50.342044125960086],[3.4839432921659608,50.33531071627437],[3.4804365435782434,50.335324422525005],[3.4804152079151978,50.333079938169284],[3.4839218007798047,50.333066232484946],[3.4839003113023566,50.330821741754534],[3.4874067465492278,50.330807936966366],[3.487385103285035,50.328563439869015],[3.497903930352594,50.328521429220544],[3.4979260407008423,50.3307659245821],[3.501432468175623,50.33075172111434],[3.5014547361956265,50.33299620895162],[3.504961317400545,50.33298190522318],[3.504983743119959,50.335226385528316],[3.501477006193484,50.335240689847765],[3.5015215521238137,50.339729630802054],[3.4980145017340853,50.33974383661744],[3.498036621903767,50.341988297255185],[3.4945294137856484,50.34200240396718],[3.4945513801429855,50.344246858232054],[3.4875366465112667,50.344274773738]],[[3.491022203716294,50.342016410988705],[3.4945294137856484,50.34200240396718],[3.494507449379547,50.33975794274656],[3.491000395074033,50.33977194918935],[3.491022203716294,50.342016410988705]]]}},{"type":"Feature","properties":{"category":"historical_support","snapshot_index":7,"pass_time_utc":"2026-10-05T02:41:00+00:00","dt_local":"2026-10-05T04:41:00+02:00","area_km2":4.438,"label":"Isoline temporelle","coherence_level":"indisponible","coherence_fraction":0.0,"projection_displayed":false,"model_version":"fire_progression_arrival_v1"},"geometry":{"type":"Polygon","coordinates":[[[3.4875366465112667,50.344274773738],[3.487514991709541,50.34203031831971],[3.4840077777792255,50.342044125960086],[3.4839432921659608,50.33531071627437],[3.4804365435782434,50.335324422525005],[3.480372542273492,50.32859094863865],[3.4768662589192454,50.32860455352443],[3.47680274166804,50.321871015549306],[3.480308558018113,50.32185741234975],[3.480287233720559,50.31961288640333],[3.4837928925368513,50.31959918411619],[3.483771414506318,50.31735465181692],[3.4942879125793165,50.31731294878182],[3.4943098574873535,50.31955747935807],[3.4978155085920024,50.31954337847338],[3.497837611087813,50.321787901547964],[3.5013434158688805,50.321773700427364],[3.5013879380681248,50.32626272463109],[3.504894052191339,50.3262484226755],[3.504938893672814,50.33073741797687],[3.5084453171785874,50.33072301516978],[3.508513061500971,50.33745645429619],[3.505006170831322,50.33747085888866],[3.505028600534897,50.339715325300496],[3.4980145017340853,50.33974383661744],[3.498036621903767,50.341988297255185],[3.4945294137856484,50.34200240396718],[3.4945513801429855,50.344246858232054],[3.4875366465112667,50.344274773738]],[[3.491022203716294,50.342016410988705],[3.4945294137856484,50.34200240396718],[3.494507449379547,50.33975794274656],[3.491000395074033,50.33977194918935],[3.491022203716294,50.342016410988705]]]}},{"type":"Feature","properties":{"category":"observed_front","snapshot_index":7,"pass_time_utc":"2026-10-05T02:41:00+00:00","dt_local":"2026-10-05T04:41:00+02:00","area_km2":4.5,"label":"Activité observée","coherence_level":"indisponible","coherence_fraction":0.0,"projection_displayed":false,"model_version":"fire_progression_arrival_v1"},"geometry":{"type":"MultiPolygon","coordinates":[[[[3.498036621903767,50.341988297255185],[3.4980145017340853,50.33974383661744],[3.505028600534897,50.339715325300496],[3.505006170831322,50.33747085888866],[3.508513061500971,50.33745645429619],[3.5084453171785874,50.33072301516978],[3.504938893672814,50.33073741797687],[3.5049164719365002,50.3284929237931],[3.5014102021332105,50.32850722633961],[3.5013879380681248,50.32626272463109],[3.4908695838913957,50.32630503252874],[3.4908913809146807,50.32854953598532],[3.487385103285035,50.328563439869015],[3.4874067465492278,50.330807936966366],[3.4839003113023566,50.330821741754534],[3.4839647854610805,50.33755519311915],[3.4874716878765217,50.337541386619726],[3.487493338831378,50.33978585594572],[3.494507449379547,50.33975794274656],[3.4945294137856484,50.34200240396718],[3.498036621903767,50.341988297255185]]],[[[3.565426613121472,50.40903154087798],[3.565401466527649,50.406787302383904],[3.5689131557231772,50.40677118257388],[3.5688878552059706,50.4045269376832],[3.572399385991356,50.40451071873527],[3.572323029543885,50.39777794373376],[3.56881196715419,50.397794160670976],[3.568786675635876,50.395549887565736],[3.565275767101339,50.39556600404516],[3.56525063392255,50.393321723229434],[3.5547183632373356,50.39336947196783],[3.554743028142688,50.39561375475686],[3.551232110751057,50.395629472084934],[3.5512566217442503,50.39787374847921],[3.547745546067141,50.39788936666468],[3.5478186237260645,50.404622155481476],[3.551330167804183,50.40460653535951],[3.551354687518581,50.406850783539866],[3.5548663855771134,50.406835062963665],[3.55489106364758,50.40907930343165],[3.565426613121472,50.40903154087798]]]]}},{"type":"Feature","properties":{"category":"firms_extent_snapshot","snapshot_index":8,"pass_time_utc":"2026-10-05T03:00:00+00:00","dt_local":"2026-10-05T05:00:00+02:00","label":"Emprise FIRMS cumulée à ce passage","interpretation":"Enveloppe des détections FIRMS, pas une surface brûlée","cumulative":true,"point_count":11,"extent_method":"cumulative_detection_extent_smoothed_landmasked_web_v1","local_cluster_link_m":10000.0,"model_version":"fire_progression_arrival_v1"},"geometry":{"type":"MultiPolygon","coordinates":[[[[3.5584063377144433,50.4066535868878],[3.5607609961726485,50.40677629669898],[3.5630795837758007,50.406092798998344],[3.5597479074875062,50.403670939241984],[3.555116348423962,50.39992889315652],[3.554778596696348,50.400658984026414],[3.5559986913985795,50.405136449370694],[3.5584063377144433,50.4066535868878]]],[[[3.5692030485297614,50.4041007302117],[3.569191261559994,50.40006012041427],[3.567204655082662,50.39763373234655],[3.565273172820614,50.396676321586675],[3.562601642311216,50.39660464988079],[3.557393925776951,50.39806251357055],[3.5554718869327915,50.3991603294012],[3.55547034096099,50.39916367136644],[3.5639961827853943,50.4058997001966],[3.566829521968355,50.40563964172876],[3.5692030485297614,50.4041007302117]]],[[[3.487687301575716,50.33759840905109],[3.488870105885458,50.33708694145565],[3.489937398172365,50.338653898089994],[3.487897039342885,50.338807181183576],[3.4881355073027733,50.34018145960235],[3.489975208038869,50.341225302270765],[3.4945140384965128,50.34043128184288],[3.4968976686043503,50.34227200620376],[3.4971707910191503,50.34225872672131],[3.497896390451119,50.341676631809776],[3.4955639673620125,50.3402026141404],[3.4980277736001004,50.34109051383459],[3.497315300233322,50.339971112206534],[3.4983652068617026,50.33974242052177],[3.499225092837517,50.34061066483938],[3.5008776935442967,50.339284761759096],[3.5015033171286847,50.337569192379455],[3.49904395437562,50.33404831672254],[3.49650803831363,50.332130543718975],[3.494133540859231,50.32653844839338],[3.4915926826609405,50.32527465328699],[3.487878271819785,50.32553186024229],[3.4857292032316938,50.3269246963629],[3.485314529020429,50.329166617595604],[3.486933841567147,50.33325553066998],[3.487687301575716,50.33759840905109]]]]}},{"type":"Feature","properties":{"category":"historical_support","snapshot_index":8,"pass_time_utc":"2026-10-05T03:00:00+00:00","dt_local":"2026-10-05T05:00:00+02:00","area_km2":4.688,"label":"Isoline temporelle","coherence_level":"indisponible","coherence_fraction":0.0,"projection_displayed":false,"model_version":"fire_progression_arrival_v1"},"geometry":{"type":"Polygon","coordinates":[[[3.4910658268132724,50.34650531371663],[3.4910440142959547,50.34426086583236],[3.4875366465112667,50.344274773738],[3.487514991709541,50.34203031831971],[3.4840077777792255,50.342044125960086],[3.4839432921659608,50.33531071627437],[3.4804365435782434,50.335324422525005],[3.480372542273492,50.32859094863865],[3.4768662589192454,50.32860455352443],[3.47680274166804,50.321871015549306],[3.480308558018113,50.32185741234975],[3.480287233720559,50.31961288640333],[3.4837928925368513,50.31959918411619],[3.483771414506318,50.31735465181692],[3.4942879125793165,50.31731294878182],[3.4943098574873535,50.31955747935807],[3.4978155085920024,50.31954337847338],[3.497837611087813,50.321787901547964],[3.5013434158688805,50.321773700427364],[3.5013879380681248,50.32626272463109],[3.504894052191339,50.3262484226755],[3.504938893672814,50.33073741797687],[3.5084453171785874,50.33072301516978],[3.508558234412346,50.34194537897731],[3.5015438280568136,50.34197409085284],[3.5015215521238137,50.339729630802054],[3.4980145017340853,50.33974383661744],[3.498036621903767,50.341988297255185],[3.4945294137856484,50.34200240396718],[3.494573348451818,50.34649130553753],[3.4910658268132724,50.34650531371663]],[[3.491022203716294,50.342016410988705],[3.4945294137856484,50.34200240396718],[3.494507449379547,50.33975794274656],[3.491000395074033,50.33977194918935],[3.491022203716294,50.342016410988705]]]}},{"type":"Feature","properties":{"category":"observed_front","snapshot_index":8,"pass_time_utc":"2026-10-05T03:00:00+00:00","dt_local":"2026-10-05T05:00:00+02:00","area_km2":1.875,"label":"Activité observée","coherence_level":"indisponible","coherence_fraction":0.0,"projection_displayed":false,"model_version":"fire_progression_arrival_v1"},"geometry":{"type":"Polygon","coordinates":[[[3.4910658268132724,50.34650531371663],[3.4910440142959547,50.34426086583236],[3.4875366465112667,50.344274773738],[3.487514991709541,50.34203031831971],[3.4840077777792255,50.342044125960086],[3.4839432921659608,50.33531071627437],[3.487450038844715,50.3352969103454],[3.4874283917357025,50.33305242712639],[3.4909349807690626,50.33303852209371],[3.490913179873817,50.330794032508194],[3.501432468175623,50.33075172111434],[3.5014547361956265,50.33299620895162],[3.504961317400545,50.33298190522318],[3.504983743119959,50.335226385528316],[3.5084904780544868,50.335211981530996],[3.508558234412346,50.34194537897731],[3.5015438280568136,50.34197409085284],[3.5015215521238137,50.339729630802054],[3.4980145017340853,50.33974383661744],[3.498036621903767,50.341988297255185],[3.4945294137856484,50.34200240396718],[3.494573348451818,50.34649130553753],[3.4910658268132724,50.34650531371663]],[[3.491022203716294,50.342016410988705],[3.4945294137856484,50.34200240396718],[3.494507449379547,50.33975794274656],[3.491000395074033,50.33977194918935],[3.491022203716294,50.342016410988705]]]}},{"type":"Feature","properties":{"category":"historical_support","snapshot_index":9,"pass_time_utc":"2026-10-06T01:00:00+00:00","dt_local":"2026-10-06T03:00:00+02:00","area_km2":4.688,"label":"Isoline temporelle","coherence_level":"indisponible","coherence_fraction":0.0,"projection_displayed":false,"model_version":"fire_progression_arrival_v1"},"geometry":{"type":"Polygon","coordinates":[[[3.4910658268132724,50.34650531371663],[3.4910440142959547,50.34426086583236],[3.4875366465112667,50.344274773738],[3.487514991709541,50.34203031831971],[3.4840077777792255,50.342044125960086],[3.4839432921659608,50.33531071627437],[3.4804365435782434,50.335324422525005],[3.480372542273492,50.32859094863865],[3.4768662589192454,50.32860455352443],[3.47680274166804,50.321871015549306],[3.480308558018113,50.32185741234975],[3.480287233720559,50.31961288640333],[3.4837928925368513,50.31959918411619],[3.483771414506318,50.31735465181692],[3.4942879125793165,50.31731294878182],[3.4943098574873535,50.31955747935807],[3.4978155085920024,50.31954337847338],[3.497837611087813,50.321787901547964],[3.5013434158688805,50.321773700427364],[3.5013879380681248,50.32626272463109],[3.504894052191339,50.3262484226755],[3.504938893672814,50.33073741797687],[3.5084453171785874,50.33072301516978],[3.508558234412346,50.34194537897731],[3.5015438280568136,50.34197409085284],[3.5015215521238137,50.339729630802054],[3.4980145017340853,50.33974383661744],[3.498036621903767,50.341988297255185],[3.4945294137856484,50.34200240396718],[3.494573348451818,50.34649130553753],[3.4910658268132724,50.34650531371663]],[[3.491022203716294,50.342016410988705],[3.4945294137856484,50.34200240396718],[3.494507449379547,50.33975794274656],[3.491000395074033,50.33977194918935],[3.491022203716294,50.342016410988705]]]}},{"type":"Feature","properties":{"category":"observed_front","snapshot_index":9,"pass_time_utc":"2026-10-06T01:00:00+00:00","dt_local":"2026-10-06T03:00:00+02:00","area_km2":2.312,"label":"Activité observée","coherence_level":"indisponible","coherence_fraction":0.0,"projection_displayed":false,"model_version":"fire_progression_arrival_v1"},"geometry":{"type":"Polygon","coordinates":[[[3.55489106364758,50.40907930343165],[3.5548663855771134,50.406835062963665],[3.551354687518581,50.406850783539866],[3.551330167804183,50.40460653535951],[3.5478186237260645,50.404622155481476],[3.547745546067141,50.39788936666468],[3.5512566217442503,50.39787374847921],[3.551232110751057,50.395629472084934],[3.554743028142688,50.39561375475686],[3.5547183632373356,50.39336947196783],[3.56525063392255,50.393321723229434],[3.565275767101339,50.39556600404516],[3.568786675635876,50.395549887565736],[3.56881196715419,50.397794160670976],[3.572323029543885,50.39777794373376],[3.572399385991356,50.40451071873527],[3.5688878552059706,50.4045269376832],[3.5689131557231772,50.40677118257388],[3.565401466527649,50.406787302383904],[3.565426613121472,50.40903154087798],[3.55489106364758,50.40907930343165]]]}},{"type":"Feature","properties":{"category":"historical_support","snapshot_index":10,"pass_time_utc":"2026-10-06T01:43:00+00:00","dt_local":"2026-10-06T03:43:00+02:00","area_km2":7.438,"label":"Isoline temporelle","coherence_level":"indisponible","coherence_fraction":0.0,"projection_displayed":false,"model_version":"fire_progression_arrival_v1"},"geometry":{"type":"MultiPolygon","coordinates":[[[[3.498036621903767,50.341988297255185],[3.4980145017340853,50.33974383661744],[3.5015215521238137,50.339729630802054],[3.5015438280568136,50.34197409085284],[3.508558234412346,50.34194537897731],[3.5084453171785874,50.33072301516978],[3.504938893672814,50.33073741797687],[3.504894052191339,50.3262484226755],[3.5013879380681248,50.32626272463109],[3.5013434158688805,50.321773700427364],[3.497837611087813,50.321787901547964],[3.4978155085920024,50.31954337847338],[3.4943098574873535,50.31955747935807],[3.4942879125793165,50.31731294878182],[3.483771414506318,50.31735465181692],[3.4837928925368513,50.31959918411619],[3.480287233720559,50.31961288640333],[3.480308558018113,50.32185741234975],[3.47680274166804,50.321871015549306],[3.4768662589192454,50.32860455352443],[3.480372542273492,50.32859094863865],[3.4804365435782434,50.335324422525005],[3.4839432921659608,50.33531071627437],[3.4840077777792255,50.342044125960086],[3.487514991709541,50.34203031831971],[3.4875366465112667,50.344274773738],[3.4910440142959547,50.34426086583236],[3.4910658268132724,50.34650531371663],[3.494573348451818,50.34649130553753],[3.4945294137856484,50.34200240396718],[3.498036621903767,50.341988297255185]],[[3.491022203716294,50.342016410988705],[3.491000395074033,50.33977194918935],[3.494507449379547,50.33975794274656],[3.4945294137856484,50.34200240396718],[3.491022203716294,50.342016410988705]]],[[[3.568938458490858,50.409015420401744],[3.5689131557231772,50.40677118257388],[3.5724248426682315,50.40675496295563],[3.572399385991356,50.40451071873527],[3.575910914512682,50.40449439998329],[3.5758340896704253,50.39776162700488],[3.572323029543885,50.39777794373376],[3.5722975819214393,50.39553367129869],[3.568786675635876,50.395549887565736],[3.568761386366535,50.39330560741603],[3.5547183632373356,50.39336947196783],[3.554743028142688,50.39561375475686],[3.551232110751057,50.395629472084934],[3.5512566217442503,50.39787374847921],[3.547745546067141,50.39788936666468],[3.5478186237260645,50.404622155481476],[3.551330167804183,50.40460653535951],[3.551354687518581,50.406850783539866],[3.5548663855771134,50.406835062963665],[3.55489106364758,50.40907930343165],[3.568938458490858,50.409015420401744]]]]}},{"type":"Feature","properties":{"category":"observed_front","snapshot_index":10,"pass_time_utc":"2026-10-06T01:43:00+00:00","dt_local":"2026-10-06T03:43:00+02:00","area_km2":2.75,"label":"Activité observée","coherence_level":"indisponible","coherence_fraction":0.0,"projection_displayed":false,"model_version":"fire_progression_arrival_v1"},"geometry":{"type":"Polygon","coordinates":[[[3.55489106364758,50.40907930343165],[3.5548663855771134,50.406835062963665],[3.551354687518581,50.406850783539866],[3.551330167804183,50.40460653535951],[3.5478186237260645,50.404622155481476],[3.547745546067141,50.39788936666468],[3.5512566217442503,50.39787374847921],[3.551232110751057,50.395629472084934],[3.554743028142688,50.39561375475686],[3.5547183632373356,50.39336947196783],[3.568761386366535,50.39330560741603],[3.568786675635876,50.395549887565736],[3.5722975819214393,50.39553367129869],[3.572323029543885,50.39777794373376],[3.5758340896704253,50.39776162700488],[3.575910914512682,50.40449439998329],[3.572399385991356,50.40451071873527],[3.5724248426682315,50.40675496295563],[3.5689131557231772,50.40677118257388],[3.568938458490858,50.409015420401744],[3.55489106364758,50.40907930343165]]]}}]}