{"type":"FeatureCollection","name":"detection_envelopes","crs":{"type":"name","properties":{"name":"urn:ogc:def:crs:OGC:1.3:CRS84"}},"features":[{"type":"Feature","properties":{"cluster_id":1,"snapshot_index":1,"estimated_time_utc":"2026-09-26T14:29:00Z","observed_until_utc":"2026-09-26T14:29:00Z","target_time_utc":"2026-09-26T14:29:00Z","arrival_h":0.0,"hours_ago":12.45,"supported_detections_cumulative":4,"sources_cumulative":"MODIS_NRT","last_source":"MODIS_NRT","last_satellite":"Aqua","last_instrument":"MODIS","detected_area_km2":6.7432851119253,"product_type":"cumulative_active_fire_detection_extent"},"geometry":{"type":"MultiLineString","coordinates":[[[4.106080857779859,44.55685698208106],[4.106031789734655,44.557856656744],[4.102256706864427,44.56074108256549],[4.101217698394269,44.56389247573007],[4.102410091641991,44.56710470043339],[4.105550214559107,44.56949710122252],[4.108917679572373,44.57045486289429],[4.112602310244258,44.57042642337774],[4.115255494259636,44.569717482897445],[4.118559033199557,44.567584799259926],[4.119730877452849,44.56744837682506],[4.120503059911208,44.56798493526562],[4.121710757194834,44.57100751548476],[4.123386004104328,44.57258572663859],[4.126472284049362,44.574024983008535],[4.129229638212382,44.57448885375457],[4.131995104994758,44.57435686153451],[4.134533789768181,44.57367805552784],[4.137933512976107,44.57141098544201],[4.139073955669681,44.569605403073695],[4.139432019683147,44.567640922918265],[4.137692656019919,44.56334219021397],[4.141086126579411,44.56043582580976],[4.142151160976819,44.55724483230585],[4.140956715110615,44.554033049959],[4.137815952285974,44.55164167104075],[4.134449119295567,44.550684797762756],[4.131619315882355,44.55061447617281],[4.128944125894762,44.55112955190819],[4.124535231075439,44.5530335191088],[4.123693385765766,44.55255368331972],[4.122067126171843,44.54970223913928],[4.119469272071141,44.5478965339374],[4.11605116523145,44.54691509797959],[4.112307699954786,44.54695287374711],[4.108195231143591,44.54840668158513],[4.105549271949618,44.551034036319315],[4.104924802700305,44.55428408739084],[4.106080857779859,44.55685698208106]],[[4.122347743243032,44.56380657484928],[4.121405404044829,44.564179066786494],[4.12032508391636,44.5638271108812],[4.118703984402112,44.56009586613745],[4.119101887575872,44.55938055823168],[4.122115870209923,44.557815083368794],[4.123266189257593,44.55823977159389],[4.125038752464921,44.56147419639941],[4.122347743243032,44.56380657484928]]]}},{"type":"Feature","properties":{"cluster_id":1,"snapshot_index":2,"estimated_time_utc":"2026-09-26T20:17:00Z","observed_until_utc":"2026-09-26T20:17:00Z","target_time_utc":"2026-09-26T20:29:00Z","arrival_h":5.8,"hours_ago":6.65,"supported_detections_cumulative":5,"sources_cumulative":"MODIS_NRT","last_source":"MODIS_NRT","last_satellite":"Terra","last_instrument":"MODIS","detected_area_km2":7.415072591635518,"product_type":"cumulative_active_fire_detection_extent"},"geometry":{"type":"MultiLineString","coordinates":[[[4.106140624682381,44.55693430449011],[4.106031789734655,44.557856656744],[4.103258390524565,44.5596282275475],[4.101595003530823,44.56192984503662],[4.101273047811411,44.564553780200654],[4.101999491968657,44.56651078698934],[4.104054812764288,44.568644563098516],[4.106353245781198,44.56982782144554],[4.109835847167049,44.57054500056262],[4.113221136345543,44.5703112112829],[4.114399880286819,44.573325604232345],[4.11754085751014,44.575717670174356],[4.121827185044392,44.576765106928164],[4.12549050921484,44.57647821197697],[4.129724966851783,44.574501173731036],[4.134587834666689,44.573656687899245],[4.137933512976107,44.57141098544201],[4.139073955669681,44.569605403073695],[4.139432019683147,44.567640922918265],[4.137692656019919,44.56334219021397],[4.141086126579411,44.56043582580976],[4.142151160976819,44.55724483230585],[4.140956715110615,44.554033049959],[4.137815952285974,44.55164167104075],[4.134449119295567,44.550684797762756],[4.131619315882355,44.55061447617281],[4.128944125894762,44.55112955190819],[4.124535231075439,44.5530335191088],[4.123693385765766,44.55255368331972],[4.122067126171843,44.54970223913928],[4.119469272071141,44.5478965339374],[4.11605116523145,44.54691509797959],[4.112307699954786,44.54695287374711],[4.108195231143591,44.54840668158513],[4.105549271949618,44.551034036319315],[4.104924802700305,44.55428408739084],[4.106140624682381,44.55693430449011]],[[4.120108733464366,44.563511741612096],[4.118769180366545,44.55974771709523],[4.121532923108973,44.5579480116868],[4.122602807676278,44.55786167953104],[4.123374886306156,44.55839821579606],[4.124973593171865,44.561822349387164],[4.122915857062148,44.56329885548778],[4.120108733464366,44.563511741612096]]]}},{"type":"Feature","properties":{"cluster_id":1,"snapshot_index":3,"estimated_time_utc":"2026-09-27T02:13:00Z","observed_until_utc":"2026-09-27T02:13:00Z","target_time_utc":"2026-09-27T02:29:00Z","arrival_h":11.733333333333333,"hours_ago":0.7166666666666667,"supported_detections_cumulative":16,"sources_cumulative":"MODIS_NRT, VIIRS_NOAA20_NRT, VIIRS_NOAA21_NRT, VIIRS_SNPP_NRT","last_source":"VIIRS_NOAA20_NRT","last_satellite":"N20","last_instrument":"VIIRS","detected_area_km2":7.434796484380525,"product_type":"cumulative_active_fire_detection_extent"},"geometry":{"type":"MultiLineString","coordinates":[[[4.10625282577409,44.55718601413811],[4.105954747650364,44.55792572672647],[4.102752903902683,44.560130019925886],[4.101595003530823,44.56192984503662],[4.101273047811411,44.564553780200654],[4.101999491968657,44.56651078698934],[4.104054812764288,44.568644563098516],[4.106353245781198,44.56982782144554],[4.109835847167049,44.57054500056262],[4.113221136345543,44.5703112112829],[4.114399880286819,44.573325604232345],[4.11754085751014,44.575717670174356],[4.121827185044392,44.576765106928164],[4.12549050921484,44.57647821197697],[4.128920512257416,44.57508117218938],[4.134587834666689,44.573656687899245],[4.137933512976107,44.57141098544201],[4.139073955669681,44.569605403073695],[4.139432019683147,44.567640922918265],[4.137692656019919,44.56334219021397],[4.141086126579411,44.56043582580976],[4.142151160976819,44.55724483230585],[4.140956715110615,44.554033049959],[4.137815952285974,44.55164167104075],[4.134449119295567,44.550684797762756],[4.131619315882355,44.55061447617281],[4.128944125894762,44.55112955190819],[4.124535231075439,44.5530335191088],[4.123693385765766,44.55255368331972],[4.122067126171843,44.54970223913928],[4.119469272071141,44.5478965339374],[4.11605116523145,44.54691509797959],[4.112307699954786,44.54695287374711],[4.108195231143591,44.54840668158513],[4.105549271949618,44.551034036319315],[4.104924802700305,44.55428408739084],[4.10625282577409,44.55718601413811]],[[4.120046708025045,44.56308542226958],[4.118769180366545,44.55974771709523],[4.121532923108973,44.5579480116868],[4.122602807676278,44.55786167953104],[4.125038866720894,44.56147992923774],[4.12358056718363,44.56215428788706],[4.12267327125963,44.56329280594899],[4.120122423650502,44.563542431761356],[4.120046708025045,44.56308542226958]]]}},{"type":"Feature","properties":{"cluster_id":1,"snapshot_index":4,"estimated_time_utc":"2026-09-27T02:56:00Z","observed_until_utc":"2026-09-27T02:56:00Z","target_time_utc":"2026-09-27T02:56:00Z","arrival_h":12.45,"hours_ago":0.0,"supported_detections_cumulative":17,"sources_cumulative":"MODIS_NRT, VIIRS_NOAA20_NRT, VIIRS_NOAA21_NRT, VIIRS_SNPP_NRT","last_source":"VIIRS_NOAA21_NRT","last_satellite":"N21","last_instrument":"VIIRS","detected_area_km2":12.184754799669895,"product_type":"cumulative_active_fire_detection_extent"},"geometry":{"type":"MultiLineString","coordinates":[[[4.078438510612423,44.35782360524011],[4.074325751698709,44.35925676565703],[4.071640026925321,44.361911554246014],[4.071015697176505,44.365161143593625],[4.072635415029628,44.36827451969928],[4.076075194121898,44.37043611790421],[4.080470115820045,44.37117978475872],[4.082298981377392,44.372658032412474],[4.085328632685759,44.372773289174674],[4.085469465933111,44.374876571205824],[4.086427132835412,44.37673459565598],[4.088095649761897,44.378313208703986],[4.09033134723446,44.37947643229703],[4.092941663126168,44.38012406181048],[4.095701734527931,44.38020030524099],[4.100042349408325,44.37903738103723],[4.103026846142309,44.37660846076884],[4.104060310280873,44.37403604902328],[4.103656101942279,44.371461840174035],[4.102289358964182,44.36952701248564],[4.103498183696119,44.36727633310658],[4.103597259156559,44.36525301673169],[4.101982811188509,44.36218396576215],[4.097061728255887,44.35867702206249],[4.093746881771086,44.35744794006465],[4.089237267912026,44.35733379632666],[4.085772312976817,44.358412832904925],[4.081194651927524,44.35770582545767],[4.078438510612423,44.35782360524011]],[[4.106258002194962,44.557450172697095],[4.103258390524565,44.5596282275475],[4.101595003530823,44.56192984503662],[4.101273047811411,44.564553780200654],[4.101999491968657,44.56651078698934],[4.104054812764288,44.568644563098516],[4.106353245781198,44.56982782144554],[4.109835847167049,44.57054500056262],[4.113221136345543,44.5703112112829],[4.114399880286819,44.573325604232345],[4.11754085751014,44.575717670174356],[4.121827185044392,44.576765106928164],[4.12549050921484,44.57647821197697],[4.128920512257416,44.57508117218938],[4.134587834666689,44.573656687899245],[4.137933512976107,44.57141098544201],[4.139073955669681,44.569605403073695],[4.139432019683147,44.567640922918265],[4.137692656019919,44.56334219021397],[4.141086126579411,44.56043582580976],[4.142151160976819,44.55724483230585],[4.140956715110615,44.554033049959],[4.137815952285974,44.55164167104075],[4.134449119295567,44.550684797762756],[4.131619315882355,44.55061447617281],[4.128944125894762,44.55112955190819],[4.124535231075439,44.5530335191088],[4.123693385765766,44.55255368331972],[4.122067126171843,44.54970223913928],[4.119469272071141,44.5478965339374],[4.11605116523145,44.54691509797959],[4.112307699954786,44.54695287374711],[4.108195231143591,44.54840668158513],[4.105549271949618,44.551034036319315],[4.104924802700305,44.55428408739084],[4.106258002194962,44.557450172697095]],[[4.11988783883749,44.562388034492045],[4.118814845221667,44.55966562597798],[4.121532923108973,44.5579480116868],[4.122717625758791,44.55789432391903],[4.125038866720894,44.56147992923774],[4.12358056718363,44.56215428788706],[4.12267327125963,44.56329280594899],[4.120122423650502,44.563542431761356],[4.11988783883749,44.562388034492045]]]}}],"metadata":{"generated_at_utc":"2026-09-30T22:17:11.539338Z","product_type":"cumulative_active_fire_detection_extent","product_label":"Emprises cumulées des détections actives FIRMS","not_a_burn_perimeter":true,"not_a_continuous_fire_front":true,"not_an_arrival_time_interpolation":true,"snapshot_step_hours":6,"confidence_filter":{"VIIRS":["nominal","high"],"MODIS_minimum":30},"footprint_radius_m":{"VIIRS":300.0,"MODIS":750.0},"same_pass_neighbour_m":2000.0,"continuity_distance_m":3000.0,"clusters":[{"cluster_id":1,"first_supported_detection_utc":"2026-09-26T14:29:00Z","last_supported_detection_utc":"2026-09-27T02:56:00Z","pass_states":6,"published_snapshots":4,"final_detected_area_km2":7.434796484380529}]},"bbox":[4.071015697176505,44.35733379632666,4.142151160976819,44.576765106928164]}