{"type":"FeatureCollection","name":"fire_progression_arrival_v1","features":[{"type":"Feature","properties":{"category":"arrival_step","arrival_snapshot_index":1,"first_detected_utc":"2026-09-26T14:29:00+00:00","first_detected_local":"2026-09-26T16:29:00+02:00","area_km2":8.562,"label":"Première détection FIRMS","model_version":"fire_progression_arrival_v1"},"geometry":{"type":"Polygon","coordinates":[[[4.124115360416486,44.57411339991183],[4.124070538937506,44.571863020402674],[4.117774068590248,44.57192691583162],[4.117729501664989,44.569676535751604],[4.105137020368224,44.569803244771514],[4.105092958921142,44.56755286156247],[4.101944955270467,44.56758431323665],[4.101857093849514,44.56308355038245],[4.098709337631067,44.563114909782854],[4.098621741114297,44.558614152565596],[4.101769246437452,44.558582795722906],[4.1016814130309305,44.55408204928476],[4.104828663998232,44.55405060530559],[4.1046965639347555,44.547299504968784],[4.107843435186019,44.547267975153574],[4.107799283468802,44.54501761379999],[4.114092764641083,44.54495428770431],[4.114048365700258,44.54270393100849],[4.1203415819764535,44.54264024879508],[4.120386231658046,44.5448906028938],[4.1266796844397815,44.544826559369774],[4.126724588439225,44.54707691293174],[4.136165116881329,44.54698017111538],[4.136210400625304,44.54923052280367],[4.139357361621877,44.54919809484638],[4.139402774373035,44.55144844728031],[4.142549857147141,44.551415928312146],[4.14273204604493,44.560417353356286],[4.139584461582347,44.560449877629566],[4.139766206739937,44.56945134080011],[4.136618116805433,44.569483780661756],[4.136663436664959,44.571734152880616],[4.1303669949890836,44.57179876608525],[4.130412067466162,44.57404914297391],[4.124115360416486,44.57411339991183]]]}},{"type":"Feature","properties":{"category":"arrival_step","arrival_snapshot_index":2,"first_detected_utc":"2026-09-26T20:17:00+00:00","first_detected_local":"2026-09-26T22:17:00+02:00","area_km2":0.5,"label":"Première détection FIRMS","model_version":"fire_progression_arrival_v1"},"geometry":{"type":"Polygon","coordinates":[[[4.117863213102932,44.57642768209332],[4.11781863906942,44.57417729794664],[4.114670273059376,44.57420911237499],[4.1146258280807455,44.57195872896253],[4.111477584027333,44.57199045237084],[4.1114332680835775,44.56974006969972],[4.117729501664989,44.569676535751604],[4.117774068590248,44.57192691583162],[4.124070538937506,44.571863020402674],[4.124115360416486,44.57411339991183],[4.127263715733499,44.57408131630569],[4.127308666296095,44.57633169653791],[4.117863213102932,44.57642768209332]]]}},{"type":"Feature","properties":{"category":"firms_extent_snapshot","snapshot_index":1,"pass_time_utc":"2026-09-26T14:29:00+00:00","dt_local":"2026-09-26T16:29:00+02:00","label":"Emprise FIRMS cumulée à ce passage","interpretation":"Enveloppe des détections FIRMS, pas une surface brûlée","cumulative":true,"point_count":4,"extent_method":"cumulative_detection_extent_smoothed_landmasked_web_v1","local_cluster_link_m":10000.0,"model_version":"fire_progression_arrival_v1"},"geometry":{"type":"MultiPolygon","coordinates":[[[[4.101218509109529,44.563914542817514],[4.101663297524385,44.56586984830085],[4.102882957889554,44.567648647499425],[4.104772504268142,44.56909772764383],[4.107098195035144,44.57007060755718],[4.111717721989293,44.57052796931328],[4.116902332143706,44.56910163450133],[4.118895795799762,44.56907306229902],[4.120632033614749,44.56977382918213],[4.1228275876615506,44.57215772010735],[4.125657738044592,44.573758216470424],[4.12919889739984,44.574486733726395],[4.132860535834708,44.57419104847101],[4.136762689714771,44.57246429294045],[4.139041893731518,44.569679193641164],[4.139380054191176,44.567056856003575],[4.138365332787412,44.56356788542337],[4.141783465579549,44.559186309435134],[4.142150334358399,44.557222765582004],[4.141704211973175,44.5552676303014],[4.139343034229175,44.552517980729874],[4.136197156995381,44.55104696105094],[4.131650031570623,44.5506122681418],[4.126845139667561,44.5518094133311],[4.125096310091509,44.55179286891032],[4.123545433828113,44.5512147354584],[4.120944156045819,44.5487490934243],[4.1185724909767165,44.54752816327817],[4.115102582904105,44.546823430573625],[4.1114426262512245,44.54711852395183],[4.108161328771295,44.54842928236538],[4.105568501161299,44.551003878762124],[4.104870232574275,44.55364485449752],[4.1055617147462184,44.557376238722156],[4.102237472566882,44.56077123966644],[4.101218509109529,44.563914542817514]]],[[[4.070961691870444,44.36452194700169],[4.071698066930714,44.367046579910976],[4.0732294475550885,44.36882411321781],[4.075980580280412,44.37039919248954],[4.079936910633258,44.371333316861076],[4.084165385128117,44.37331977041502],[4.086928013744443,44.377317206194384],[4.090358859991955,44.3794863254259],[4.093887417344073,44.38021591290959],[4.097536679035319,44.37992142309011],[4.100750896576876,44.378647704593824],[4.10304063543112,44.37658872750199],[4.104088946161295,44.37345121179236],[4.102792380750606,44.369544310281356],[4.1036306925388395,44.366542962630504],[4.103236785538159,44.36403391503975],[4.10138856937103,44.36163452914328],[4.09548986835196,44.35794368610746],[4.091039996853778,44.35719080340256],[4.085493413404908,44.35826677868262],[4.080241282383211,44.35768078916469],[4.076722461443551,44.35820925653534],[4.07430248286634,44.35927120591306],[4.072476282061982,44.36075683903695],[4.071329754503084,44.36255880657322],[4.070961691870444,44.36452194700169]]]]}},{"type":"Feature","properties":{"category":"historical_support","snapshot_index":1,"pass_time_utc":"2026-09-26T14:29:00+00:00","dt_local":"2026-09-26T16:29:00+02:00","area_km2":8.562,"label":"Isoline temporelle","coherence_level":"indisponible","coherence_fraction":0.0,"projection_displayed":false,"model_version":"fire_progression_arrival_v1"},"geometry":{"type":"Polygon","coordinates":[[[4.124115360416486,44.57411339991183],[4.124070538937506,44.571863020402674],[4.117774068590248,44.57192691583162],[4.117729501664989,44.569676535751604],[4.105137020368224,44.569803244771514],[4.105092958921142,44.56755286156247],[4.101944955270467,44.56758431323665],[4.101857093849514,44.56308355038245],[4.098709337631067,44.563114909782854],[4.098621741114297,44.558614152565596],[4.101769246437452,44.558582795722906],[4.1016814130309305,44.55408204928476],[4.104828663998232,44.55405060530559],[4.1046965639347555,44.547299504968784],[4.107843435186019,44.547267975153574],[4.107799283468802,44.54501761379999],[4.114092764641083,44.54495428770431],[4.114048365700258,44.54270393100849],[4.1203415819764535,44.54264024879508],[4.120386231658046,44.5448906028938],[4.1266796844397815,44.544826559369774],[4.126724588439225,44.54707691293174],[4.136165116881329,44.54698017111538],[4.136210400625304,44.54923052280367],[4.139357361621877,44.54919809484638],[4.139402774373035,44.55144844728031],[4.142549857147141,44.551415928312146],[4.14273204604493,44.560417353356286],[4.139584461582347,44.560449877629566],[4.139766206739937,44.56945134080011],[4.136618116805433,44.569483780661756],[4.136663436664959,44.571734152880616],[4.1303669949890836,44.57179876608525],[4.130412067466162,44.57404914297391],[4.124115360416486,44.57411339991183]]]}},{"type":"Feature","properties":{"category":"observed_front","snapshot_index":1,"pass_time_utc":"2026-09-26T14:29:00+00:00","dt_local":"2026-09-26T16:29:00+02:00","area_km2":8.562,"label":"Activité observée","coherence_level":"indisponible","coherence_fraction":0.0,"projection_displayed":false,"model_version":"fire_progression_arrival_v1"},"geometry":{"type":"Polygon","coordinates":[[[4.124115360416486,44.57411339991183],[4.124070538937506,44.571863020402674],[4.117774068590248,44.57192691583162],[4.117729501664989,44.569676535751604],[4.105137020368224,44.569803244771514],[4.105092958921142,44.56755286156247],[4.101944955270467,44.56758431323665],[4.101857093849514,44.56308355038245],[4.098709337631067,44.563114909782854],[4.098621741114297,44.558614152565596],[4.101769246437452,44.558582795722906],[4.1016814130309305,44.55408204928476],[4.104828663998232,44.55405060530559],[4.1046965639347555,44.547299504968784],[4.107843435186019,44.547267975153574],[4.107799283468802,44.54501761379999],[4.114092764641083,44.54495428770431],[4.114048365700258,44.54270393100849],[4.1203415819764535,44.54264024879508],[4.120386231658046,44.5448906028938],[4.1266796844397815,44.544826559369774],[4.126724588439225,44.54707691293174],[4.136165116881329,44.54698017111538],[4.136210400625304,44.54923052280367],[4.139357361621877,44.54919809484638],[4.139402774373035,44.55144844728031],[4.142549857147141,44.551415928312146],[4.14273204604493,44.560417353356286],[4.139584461582347,44.560449877629566],[4.139766206739937,44.56945134080011],[4.136618116805433,44.569483780661756],[4.136663436664959,44.571734152880616],[4.1303669949890836,44.57179876608525],[4.130412067466162,44.57404914297391],[4.124115360416486,44.57411339991183]]]}},{"type":"Feature","properties":{"category":"firms_extent_snapshot","snapshot_index":2,"pass_time_utc":"2026-09-26T20:17:00+00:00","dt_local":"2026-09-26T22:17:00+02:00","label":"Emprise FIRMS cumulée à ce passage","interpretation":"Enveloppe des détections FIRMS, pas une surface brûlée","cumulative":true,"point_count":5,"extent_method":"cumulative_detection_extent_smoothed_landmasked_web_v1","local_cluster_link_m":10000.0,"model_version":"fire_progression_arrival_v1"},"geometry":{"type":"MultiPolygon","coordinates":[[[[4.101218509109529,44.563914542817514],[4.101987628143966,44.566490406516756],[4.104023198038282,44.568620318221065],[4.107169215970445,44.570092264918074],[4.112435931883351,44.5710677082611],[4.116824518992529,44.575351718598824],[4.12093933749942,44.576678799920984],[4.125519815411012,44.57647124513292],[4.12984493897959,44.57468058926521],[4.134627260933052,44.57363924144403],[4.136762689714771,44.57246429294045],[4.1383813501055675,44.570856305951416],[4.139432085071188,44.56766299759989],[4.138365332787412,44.56356788542337],[4.141783465579549,44.559186309435134],[4.142150334358399,44.557222765582004],[4.141704211973175,44.5552676303014],[4.139343034229175,44.552517980729874],[4.136197156995381,44.55104696105094],[4.131650031570623,44.5506122681418],[4.126845139667561,44.5518094133311],[4.125096310091509,44.55179286891032],[4.123545433828113,44.5512147354584],[4.120944156045819,44.5487490934243],[4.1185724909767165,44.54752816327817],[4.115102582904105,44.546823430573625],[4.1114426262512245,44.54711852395183],[4.108161328771295,44.54842928236538],[4.105568501161299,44.551003878762124],[4.104870232574275,44.55364485449752],[4.1055617147462184,44.557376238722156],[4.102237472566882,44.56077123966644],[4.101218509109529,44.563914542817514]]],[[[4.070961691870444,44.36452194700169],[4.071698066930714,44.367046579910976],[4.0732294475550885,44.36882411321781],[4.075980580280412,44.37039919248954],[4.079936910633258,44.371333316861076],[4.084165385128117,44.37331977041502],[4.086928013744443,44.377317206194384],[4.090358859991955,44.3794863254259],[4.093887417344073,44.38021591290959],[4.097536679035319,44.37992142309011],[4.100750896576876,44.378647704593824],[4.10304063543112,44.37658872750199],[4.104088946161295,44.37345121179236],[4.102792380750606,44.369544310281356],[4.1036306925388395,44.366542962630504],[4.103236785538159,44.36403391503975],[4.10138856937103,44.36163452914328],[4.09548986835196,44.35794368610746],[4.091039996853778,44.35719080340256],[4.085493413404908,44.35826677868262],[4.080241282383211,44.35768078916469],[4.076722461443551,44.35820925653534],[4.07430248286634,44.35927120591306],[4.072476282061982,44.36075683903695],[4.071329754503084,44.36255880657322],[4.070961691870444,44.36452194700169]]]]}},{"type":"Feature","properties":{"category":"historical_support","snapshot_index":2,"pass_time_utc":"2026-09-26T20:17:00+00:00","dt_local":"2026-09-26T22:17:00+02:00","area_km2":9.062,"label":"Isoline temporelle","coherence_level":"indisponible","coherence_fraction":0.0,"projection_displayed":false,"model_version":"fire_progression_arrival_v1"},"geometry":{"type":"Polygon","coordinates":[[[4.117863213102932,44.57642768209332],[4.11781863906942,44.57417729794664],[4.114670273059376,44.57420911237499],[4.1146258280807455,44.57195872896253],[4.111477584027333,44.57199045237084],[4.1114332680835775,44.56974006969972],[4.105137020368224,44.569803244771514],[4.105092958921142,44.56755286156247],[4.101944955270467,44.56758431323665],[4.101857093849514,44.56308355038245],[4.098709337631067,44.563114909782854],[4.098621741114297,44.558614152565596],[4.101769246437452,44.558582795722906],[4.1016814130309305,44.55408204928476],[4.104828663998232,44.55405060530559],[4.1046965639347555,44.547299504968784],[4.107843435186019,44.547267975153574],[4.107799283468802,44.54501761379999],[4.114092764641083,44.54495428770431],[4.114048365700258,44.54270393100849],[4.1203415819764535,44.54264024879508],[4.120386231658046,44.5448906028938],[4.1266796844397815,44.544826559369774],[4.126724588439225,44.54707691293174],[4.136165116881329,44.54698017111538],[4.136210400625304,44.54923052280367],[4.139357361621877,44.54919809484638],[4.139402774373035,44.55144844728031],[4.142549857147141,44.551415928312146],[4.14273204604493,44.560417353356286],[4.139584461582347,44.560449877629566],[4.139766206739937,44.56945134080011],[4.136618116805433,44.569483780661756],[4.136663436664959,44.571734152880616],[4.1303669949890836,44.57179876608525],[4.130412067466162,44.57404914297391],[4.127263715733499,44.57408131630569],[4.127308666296095,44.57633169653791],[4.117863213102932,44.57642768209332]]]}},{"type":"Feature","properties":{"category":"observed_front","snapshot_index":2,"pass_time_utc":"2026-09-26T20:17:00+00:00","dt_local":"2026-09-26T22:17:00+02:00","area_km2":2.312,"label":"Activité observée","coherence_level":"indisponible","coherence_fraction":0.0,"projection_displayed":false,"model_version":"fire_progression_arrival_v1"},"geometry":{"type":"Polygon","coordinates":[[[4.117863213102932,44.57642768209332],[4.11781863906942,44.57417729794664],[4.114670273059376,44.57420911237499],[4.1146258280807455,44.57195872896253],[4.111477584027333,44.57199045237084],[4.111344646796098,44.565239310476194],[4.114492514406627,44.565207590948894],[4.114448083601099,44.56295721569675],[4.117595822208449,44.56292540775504],[4.117551269494598,44.5606750358485],[4.126994087614309,44.560579077690676],[4.127039016677225,44.56282944568378],[4.13018674101573,44.562797278911845],[4.1302317991196835,44.565047647641315],[4.133379645324383,44.565015389846685],[4.133515217628986,44.571766504343756],[4.1303669949890836,44.57179876608525],[4.130412067466162,44.57404914297391],[4.127263715733499,44.57408131630569],[4.127308666296095,44.57633169653791],[4.117863213102932,44.57642768209332]]]}},{"type":"Feature","properties":{"category":"historical_support","snapshot_index":3,"pass_time_utc":"2026-09-27T01:13:00+00:00","dt_local":"2026-09-27T03:13:00+02:00","area_km2":9.062,"label":"Isoline temporelle","coherence_level":"indisponible","coherence_fraction":0.0,"projection_displayed":false,"model_version":"fire_progression_arrival_v1"},"geometry":{"type":"Polygon","coordinates":[[[4.117863213102932,44.57642768209332],[4.11781863906942,44.57417729794664],[4.114670273059376,44.57420911237499],[4.1146258280807455,44.57195872896253],[4.111477584027333,44.57199045237084],[4.1114332680835775,44.56974006969972],[4.105137020368224,44.569803244771514],[4.105092958921142,44.56755286156247],[4.101944955270467,44.56758431323665],[4.101857093849514,44.56308355038245],[4.098709337631067,44.563114909782854],[4.098621741114297,44.558614152565596],[4.101769246437452,44.558582795722906],[4.1016814130309305,44.55408204928476],[4.104828663998232,44.55405060530559],[4.1046965639347555,44.547299504968784],[4.107843435186019,44.547267975153574],[4.107799283468802,44.54501761379999],[4.114092764641083,44.54495428770431],[4.114048365700258,44.54270393100849],[4.1203415819764535,44.54264024879508],[4.120386231658046,44.5448906028938],[4.1266796844397815,44.544826559369774],[4.126724588439225,44.54707691293174],[4.136165116881329,44.54698017111538],[4.136210400625304,44.54923052280367],[4.139357361621877,44.54919809484638],[4.139402774373035,44.55144844728031],[4.142549857147141,44.551415928312146],[4.14273204604493,44.560417353356286],[4.139584461582347,44.560449877629566],[4.139766206739937,44.56945134080011],[4.136618116805433,44.569483780661756],[4.136663436664959,44.571734152880616],[4.1303669949890836,44.57179876608525],[4.130412067466162,44.57404914297391],[4.127263715733499,44.57408131630569],[4.127308666296095,44.57633169653791],[4.117863213102932,44.57642768209332]]]}},{"type":"Feature","properties":{"category":"observed_front","snapshot_index":3,"pass_time_utc":"2026-09-27T01:13:00+00:00","dt_local":"2026-09-27T03:13:00+02:00","area_km2":2.5,"label":"Activité observée","coherence_level":"indisponible","coherence_fraction":0.0,"projection_displayed":false,"model_version":"fire_progression_arrival_v1"},"geometry":{"type":"Polygon","coordinates":[[[4.124115360416486,44.57411339991183],[4.124070538937506,44.571863020402674],[4.117774068590248,44.57192691583162],[4.117729501664989,44.569676535751604],[4.1145813866460275,44.56970834758513],[4.114403656337786,44.56070684249304],[4.117551269494598,44.5606750358485],[4.117506720332537,44.55842466599368],[4.123801685100988,44.55836078619752],[4.123756888630473,44.55611042100285],[4.126904240233394,44.55607834786246],[4.126949162133175,44.55832871174913],[4.1332441054435,44.55826429375241],[4.133289281801876,44.56051465706684],[4.136436873497997,44.5604823121998],[4.136618116805433,44.569483780661756],[4.133470023257431,44.56951613080557],[4.133515217628986,44.571766504343756],[4.127218768755256,44.571830938104945],[4.127263715733499,44.57408131630569],[4.124115360416486,44.57411339991183]]]}},{"type":"Feature","properties":{"category":"historical_support","snapshot_index":4,"pass_time_utc":"2026-09-27T01:52:00+00:00","dt_local":"2026-09-27T03:52:00+02:00","area_km2":9.062,"label":"Isoline temporelle","coherence_level":"indisponible","coherence_fraction":0.0,"projection_displayed":false,"model_version":"fire_progression_arrival_v1"},"geometry":{"type":"Polygon","coordinates":[[[4.117863213102932,44.57642768209332],[4.11781863906942,44.57417729794664],[4.114670273059376,44.57420911237499],[4.1146258280807455,44.57195872896253],[4.111477584027333,44.57199045237084],[4.1114332680835775,44.56974006969972],[4.105137020368224,44.569803244771514],[4.105092958921142,44.56755286156247],[4.101944955270467,44.56758431323665],[4.101857093849514,44.56308355038245],[4.098709337631067,44.563114909782854],[4.098621741114297,44.558614152565596],[4.101769246437452,44.558582795722906],[4.1016814130309305,44.55408204928476],[4.104828663998232,44.55405060530559],[4.1046965639347555,44.547299504968784],[4.107843435186019,44.547267975153574],[4.107799283468802,44.54501761379999],[4.114092764641083,44.54495428770431],[4.114048365700258,44.54270393100849],[4.1203415819764535,44.54264024879508],[4.120386231658046,44.5448906028938],[4.1266796844397815,44.544826559369774],[4.126724588439225,44.54707691293174],[4.136165116881329,44.54698017111538],[4.136210400625304,44.54923052280367],[4.139357361621877,44.54919809484638],[4.139402774373035,44.55144844728031],[4.142549857147141,44.551415928312146],[4.14273204604493,44.560417353356286],[4.139584461582347,44.560449877629566],[4.139766206739937,44.56945134080011],[4.136618116805433,44.569483780661756],[4.136663436664959,44.571734152880616],[4.1303669949890836,44.57179876608525],[4.130412067466162,44.57404914297391],[4.127263715733499,44.57408131630569],[4.127308666296095,44.57633169653791],[4.117863213102932,44.57642768209332]]]}},{"type":"Feature","properties":{"category":"observed_front","snapshot_index":4,"pass_time_utc":"2026-09-27T01:52:00+00:00","dt_local":"2026-09-27T03:52:00+02:00","area_km2":2.812,"label":"Activité observée","coherence_level":"indisponible","coherence_fraction":0.0,"projection_displayed":false,"model_version":"fire_progression_arrival_v1"},"geometry":{"type":"Polygon","coordinates":[[[4.124160185469813,44.57636378145254],[4.124115360416486,44.57411339991183],[4.11781863906942,44.57417729794664],[4.117774068590248,44.57192691583162],[4.1146258280807455,44.57195872896253],[4.114403656337786,44.56070684249304],[4.117551269494598,44.5606750358485],[4.117506720332537,44.55842466599368],[4.1332441054435,44.55826429375241],[4.133289281801876,44.56051465706684],[4.136436873497997,44.5604823121998],[4.136663436664959,44.571734152880616],[4.1303669949890836,44.57179876608525],[4.130412067466162,44.57404914297391],[4.127263715733499,44.57408131630569],[4.127308666296095,44.57633169653791],[4.124160185469813,44.57636378145254]]]}},{"type":"Feature","properties":{"category":"firms_extent_snapshot","snapshot_index":5,"pass_time_utc":"2026-09-27T02:13:00+00:00","dt_local":"2026-09-27T04:13:00+02:00","label":"Emprise FIRMS cumulée à ce passage","interpretation":"Enveloppe des détections FIRMS, pas une surface brûlée","cumulative":true,"point_count":16,"extent_method":"cumulative_detection_extent_smoothed_landmasked_web_v1","local_cluster_link_m":10000.0,"model_version":"fire_progression_arrival_v1"},"geometry":{"type":"MultiPolygon","coordinates":[[[[4.101218509109529,44.563914542817514],[4.101987628143966,44.566490406516756],[4.104023198038282,44.568620318221065],[4.107169215970445,44.570092264918074],[4.112435931883351,44.5710677082611],[4.116824518992529,44.575351718598824],[4.12093933749942,44.576678799920984],[4.125519815411012,44.57647124513292],[4.134627260933052,44.57363924144403],[4.136762689714771,44.57246429294045],[4.1383813501055675,44.570856305951416],[4.139432085071188,44.56766299759989],[4.138365332787412,44.56356788542337],[4.141783465579549,44.559186309435134],[4.142150334358399,44.557222765582004],[4.141704211973175,44.5552676303014],[4.139343034229175,44.552517980729874],[4.136197156995381,44.55104696105094],[4.131650031570623,44.5506122681418],[4.126845139667561,44.5518094133311],[4.125096310091509,44.55179286891032],[4.123545433828113,44.5512147354584],[4.120944156045819,44.5487490934243],[4.1185724909767165,44.54752816327817],[4.115102582904105,44.546823430573625],[4.1114426262512245,44.54711852395183],[4.108161328771295,44.54842928236538],[4.105568501161299,44.551003878762124],[4.104870232574275,44.55364485449752],[4.1055617147462184,44.557376238722156],[4.102237472566882,44.56077123966644],[4.101218509109529,44.563914542817514]]],[[[4.070961691870444,44.36452194700169],[4.071698066930714,44.367046579910976],[4.0732294475550885,44.36882411321781],[4.075980580280412,44.37039919248954],[4.079936910633258,44.371333316861076],[4.084165385128117,44.37331977041502],[4.086928013744443,44.377317206194384],[4.090358859991955,44.3794863254259],[4.093887417344073,44.38021591290959],[4.097536679035319,44.37992142309011],[4.100750896576876,44.378647704593824],[4.10304063543112,44.37658872750199],[4.104088946161295,44.37345121179236],[4.102792380750606,44.369544310281356],[4.1036306925388395,44.366542962630504],[4.103236785538159,44.36403391503975],[4.10138856937103,44.36163452914328],[4.09548986835196,44.35794368610746],[4.091039996853778,44.35719080340256],[4.085493413404908,44.35826677868262],[4.080241282383211,44.35768078916469],[4.076722461443551,44.35820925653534],[4.07430248286634,44.35927120591306],[4.072476282061982,44.36075683903695],[4.071329754503084,44.36255880657322],[4.070961691870444,44.36452194700169]]]]}},{"type":"Feature","properties":{"category":"historical_support","snapshot_index":5,"pass_time_utc":"2026-09-27T02:13:00+00:00","dt_local":"2026-09-27T04:13:00+02:00","area_km2":9.062,"label":"Isoline temporelle","coherence_level":"indisponible","coherence_fraction":0.0,"projection_displayed":false,"model_version":"fire_progression_arrival_v1"},"geometry":{"type":"Polygon","coordinates":[[[4.117863213102932,44.57642768209332],[4.11781863906942,44.57417729794664],[4.114670273059376,44.57420911237499],[4.1146258280807455,44.57195872896253],[4.111477584027333,44.57199045237084],[4.1114332680835775,44.56974006969972],[4.105137020368224,44.569803244771514],[4.105092958921142,44.56755286156247],[4.101944955270467,44.56758431323665],[4.101857093849514,44.56308355038245],[4.098709337631067,44.563114909782854],[4.098621741114297,44.558614152565596],[4.101769246437452,44.558582795722906],[4.1016814130309305,44.55408204928476],[4.104828663998232,44.55405060530559],[4.1046965639347555,44.547299504968784],[4.107843435186019,44.547267975153574],[4.107799283468802,44.54501761379999],[4.114092764641083,44.54495428770431],[4.114048365700258,44.54270393100849],[4.1203415819764535,44.54264024879508],[4.120386231658046,44.5448906028938],[4.1266796844397815,44.544826559369774],[4.126724588439225,44.54707691293174],[4.136165116881329,44.54698017111538],[4.136210400625304,44.54923052280367],[4.139357361621877,44.54919809484638],[4.139402774373035,44.55144844728031],[4.142549857147141,44.551415928312146],[4.14273204604493,44.560417353356286],[4.139584461582347,44.560449877629566],[4.139766206739937,44.56945134080011],[4.136618116805433,44.569483780661756],[4.136663436664959,44.571734152880616],[4.1303669949890836,44.57179876608525],[4.130412067466162,44.57404914297391],[4.127263715733499,44.57408131630569],[4.127308666296095,44.57633169653791],[4.117863213102932,44.57642768209332]]]}},{"type":"Feature","properties":{"category":"observed_front","snapshot_index":5,"pass_time_utc":"2026-09-27T02:13:00+00:00","dt_local":"2026-09-27T04:13:00+02:00","area_km2":2.688,"label":"Activité observée","coherence_level":"indisponible","coherence_fraction":0.0,"projection_displayed":false,"model_version":"fire_progression_arrival_v1"},"geometry":{"type":"Polygon","coordinates":[[[4.120967001525124,44.57414539379219],[4.120922305545835,44.57189501297829],[4.117774068590248,44.57192691583162],[4.117729501664989,44.569676535751604],[4.1145813866460275,44.56970834758513],[4.114403656337786,44.56070684249304],[4.117551269494598,44.5606750358485],[4.117506720332537,44.55842466599368],[4.123801685100988,44.55836078619752],[4.123756888630473,44.55611042100285],[4.126904240233394,44.55607834786246],[4.126949162133175,44.55832871174913],[4.1332441054435,44.55826429375241],[4.133289281801876,44.56051465706684],[4.136436873497997,44.5604823121998],[4.136663436664959,44.571734152880616],[4.1303669949890836,44.57179876608525],[4.130412067466162,44.57404914297391],[4.120967001525124,44.57414539379219]]]}},{"type":"Feature","properties":{"category":"firms_extent_snapshot","snapshot_index":6,"pass_time_utc":"2026-09-27T02:56:00+00:00","dt_local":"2026-09-27T04:56:00+02:00","label":"Emprise FIRMS cumulée à ce passage","interpretation":"Enveloppe des détections FIRMS, pas une surface brûlée","cumulative":true,"point_count":17,"extent_method":"cumulative_detection_extent_smoothed_landmasked_web_v1","local_cluster_link_m":10000.0,"model_version":"fire_progression_arrival_v1"},"geometry":{"type":"MultiPolygon","coordinates":[[[[4.101218509109529,44.563914542817514],[4.101987628143966,44.566490406516756],[4.104023198038282,44.568620318221065],[4.107169215970445,44.570092264918074],[4.112435931883351,44.5710677082611],[4.116824518992529,44.575351718598824],[4.12093933749942,44.576678799920984],[4.125519815411012,44.57647124513292],[4.134627260933052,44.57363924144403],[4.136762689714771,44.57246429294045],[4.1383813501055675,44.570856305951416],[4.139432085071188,44.56766299759989],[4.138365332787412,44.56356788542337],[4.141783465579549,44.559186309435134],[4.142150334358399,44.557222765582004],[4.141704211973175,44.5552676303014],[4.139343034229175,44.552517980729874],[4.136197156995381,44.55104696105094],[4.131650031570623,44.5506122681418],[4.126845139667561,44.5518094133311],[4.125096310091509,44.55179286891032],[4.123545433828113,44.5512147354584],[4.120944156045819,44.5487490934243],[4.1185724909767165,44.54752816327817],[4.115102582904105,44.546823430573625],[4.1114426262512245,44.54711852395183],[4.108161328771295,44.54842928236538],[4.105568501161299,44.551003878762124],[4.104870232574275,44.55364485449752],[4.1055617147462184,44.557376238722156],[4.102237472566882,44.56077123966644],[4.101218509109529,44.563914542817514]]],[[[4.070961691870444,44.36452194700169],[4.071698066930714,44.367046579910976],[4.0732294475550885,44.36882411321781],[4.075980580280412,44.37039919248954],[4.079936910633258,44.371333316861076],[4.084165385128117,44.37331977041502],[4.086928013744443,44.377317206194384],[4.090358859991955,44.3794863254259],[4.093887417344073,44.38021591290959],[4.097536679035319,44.37992142309011],[4.100750896576876,44.378647704593824],[4.10304063543112,44.37658872750199],[4.104088946161295,44.37345121179236],[4.102792380750606,44.369544310281356],[4.1036306925388395,44.366542962630504],[4.103236785538159,44.36403391503975],[4.10138856937103,44.36163452914328],[4.09548986835196,44.35794368610746],[4.091039996853778,44.35719080340256],[4.085493413404908,44.35826677868262],[4.080241282383211,44.35768078916469],[4.076722461443551,44.35820925653534],[4.07430248286634,44.35927120591306],[4.072476282061982,44.36075683903695],[4.071329754503084,44.36255880657322],[4.070961691870444,44.36452194700169]]]]}},{"type":"Feature","properties":{"category":"historical_support","snapshot_index":6,"pass_time_utc":"2026-09-27T02:56:00+00:00","dt_local":"2026-09-27T04:56:00+02:00","area_km2":9.062,"label":"Isoline temporelle","coherence_level":"indisponible","coherence_fraction":0.0,"projection_displayed":false,"model_version":"fire_progression_arrival_v1"},"geometry":{"type":"Polygon","coordinates":[[[4.117863213102932,44.57642768209332],[4.11781863906942,44.57417729794664],[4.114670273059376,44.57420911237499],[4.1146258280807455,44.57195872896253],[4.111477584027333,44.57199045237084],[4.1114332680835775,44.56974006969972],[4.105137020368224,44.569803244771514],[4.105092958921142,44.56755286156247],[4.101944955270467,44.56758431323665],[4.101857093849514,44.56308355038245],[4.098709337631067,44.563114909782854],[4.098621741114297,44.558614152565596],[4.101769246437452,44.558582795722906],[4.1016814130309305,44.55408204928476],[4.104828663998232,44.55405060530559],[4.1046965639347555,44.547299504968784],[4.107843435186019,44.547267975153574],[4.107799283468802,44.54501761379999],[4.114092764641083,44.54495428770431],[4.114048365700258,44.54270393100849],[4.1203415819764535,44.54264024879508],[4.120386231658046,44.5448906028938],[4.1266796844397815,44.544826559369774],[4.126724588439225,44.54707691293174],[4.136165116881329,44.54698017111538],[4.136210400625304,44.54923052280367],[4.139357361621877,44.54919809484638],[4.139402774373035,44.55144844728031],[4.142549857147141,44.551415928312146],[4.14273204604493,44.560417353356286],[4.139584461582347,44.560449877629566],[4.139766206739937,44.56945134080011],[4.136618116805433,44.569483780661756],[4.136663436664959,44.571734152880616],[4.1303669949890836,44.57179876608525],[4.130412067466162,44.57404914297391],[4.127263715733499,44.57408131630569],[4.127308666296095,44.57633169653791],[4.117863213102932,44.57642768209332]]]}},{"type":"Feature","properties":{"category":"observed_front","snapshot_index":6,"pass_time_utc":"2026-09-27T02:56:00+00:00","dt_local":"2026-09-27T04:56:00+02:00","area_km2":2.312,"label":"Activité observée","coherence_level":"indisponible","coherence_fraction":0.0,"projection_displayed":false,"model_version":"fire_progression_arrival_v1"},"geometry":{"type":"Polygon","coordinates":[[[4.11781863906942,44.57417729794664],[4.117774068590248,44.57192691583162],[4.1146258280807455,44.57195872896253],[4.1145813866460275,44.56970834758513],[4.1114332680835775,44.56974006969972],[4.111300341451531,44.56298893393049],[4.114448083601099,44.56295721569675],[4.114403656337786,44.56070684249304],[4.117551269494598,44.5606750358485],[4.117506720332537,44.55842466599368],[4.126949162133175,44.55832871174913],[4.126994087614309,44.560579077690676],[4.130141686503982,44.56054691223051],[4.13018674101573,44.562797278911845],[4.133334461762027,44.56276502243272],[4.133470023257431,44.56951613080557],[4.130321926105932,44.56954839123137],[4.1303669949890836,44.57179876608525],[4.127218768755256,44.571830938104945],[4.127263715733499,44.57408131630569],[4.11781863906942,44.57417729794664]]]}}]}