{"type":"FeatureCollection","name":"detection_envelopes","crs":{"type":"name","properties":{"name":"urn:ogc:def:crs:OGC:1.3:CRS84"}},"features":[{"type":"Feature","properties":{"cluster_id":1,"snapshot_index":1,"estimated_time_utc":"2026-10-06T01:45:00Z","observed_until_utc":"2026-10-06T01:45:00Z","target_time_utc":"2026-10-06T01:45:00Z","arrival_h":0.0,"hours_ago":24.6,"supported_detections_cumulative":4,"sources_cumulative":"VIIRS_NOAA21_NRT","last_source":"VIIRS_NOAA21_NRT","last_satellite":"N21","last_instrument":"VIIRS","detected_area_km2":0.9907722989196351,"product_type":"cumulative_active_fire_detection_extent"},"geometry":{"type":"MultiLineString","coordinates":[[[3.925378003687237,48.1800093059851],[3.925817751131463,48.18257153750151],[3.927650688754532,48.18391433139757],[3.930725200799501,48.184109380981866],[3.93310535641618,48.18279340436882],[3.93355399144632,48.18125578626399],[3.932318352963472,48.17936346135236],[3.93230663151831,48.17746738189595],[3.93033907288507,48.175875646549564],[3.927648751680015,48.175615325504545],[3.925322134085514,48.17655557980704],[3.924415385545888,48.17826959678636],[3.925378003687237,48.1800093059851]],[[3.922522458362115,48.16645150841388],[3.918822760279315,48.16667378510013],[3.916672210806563,48.16778555796909],[3.916129898556359,48.16981874321745],[3.91789570534593,48.171512930277125],[3.920935316777972,48.17187562500486],[3.923332498408593,48.171052567219654],[3.92673696270126,48.170969348872354],[3.928578068107468,48.169934196432735],[3.929133531214051,48.167944127091275],[3.927727917026157,48.16638800108882],[3.925099763875883,48.16578209184959],[3.922522458362115,48.16645150841388]]]}},{"type":"Feature","properties":{"cluster_id":1,"snapshot_index":2,"estimated_time_utc":"2026-10-06T02:43:00Z","observed_until_utc":"2026-10-06T02:43:00Z","target_time_utc":"2026-10-06T07:45:00Z","arrival_h":0.9666666666666667,"hours_ago":23.633333333333333,"supported_detections_cumulative":7,"sources_cumulative":"VIIRS_NOAA20_NRT, VIIRS_NOAA21_NRT, VIIRS_SNPP_NRT","last_source":"VIIRS_NOAA20_NRT","last_satellite":"N20","last_instrument":"VIIRS","detected_area_km2":1.139271355133142,"product_type":"cumulative_active_fire_detection_extent"},"geometry":{"type":"MultiLineString","coordinates":[[[3.922178969259749,48.16660648379241],[3.91851340246725,48.16675056025987],[3.91633784467151,48.16821596475621],[3.916013720584727,48.17088221585116],[3.918339130963642,48.17258658994388],[3.920344935417797,48.172769668316725],[3.923317481837717,48.17220203126521],[3.925105123669362,48.171176190311805],[3.92748748121997,48.17069338151423],[3.928912345375646,48.16950375548426],[3.929035966529995,48.1676874834156],[3.927353856367902,48.16620693085197],[3.924704857876175,48.165800343279265],[3.922178969259749,48.16660648379241]],[[3.92669707683029,48.18344488102307],[3.928445929875986,48.184127325829714],[3.930725200799501,48.184109380981866],[3.932449542985155,48.18339959146224],[3.93350020384196,48.18204684830696],[3.933396853965756,48.1807373480674],[3.932318352963472,48.17936346135236],[3.932145928413572,48.17717781264292],[3.930946772377248,48.17614035612227],[3.929222900974096,48.17561155430815],[3.927265041587642,48.17568058581371],[3.925586981210274,48.17635873887466],[3.922679989820147,48.17984292100263],[3.923330385187919,48.18190348721176],[3.92669707683029,48.18344488102307]]]}},{"type":"Feature","properties":{"cluster_id":1,"snapshot_index":3,"estimated_time_utc":"2026-10-07T00:41:00Z","observed_until_utc":"2026-10-07T00:41:00Z","target_time_utc":"2026-10-07T01:45:00Z","arrival_h":22.933333333333334,"hours_ago":1.6666666666666667,"supported_detections_cumulative":8,"sources_cumulative":"VIIRS_NOAA20_NRT, VIIRS_NOAA21_NRT, VIIRS_SNPP_NRT","last_source":"VIIRS_NOAA20_NRT","last_satellite":"N20","last_instrument":"VIIRS","detected_area_km2":1.321933835324229,"product_type":"cumulative_active_fire_detection_extent"},"geometry":{"type":"MultiLineString","coordinates":[[[3.922050635140192,48.16664149230548],[3.91851340246725,48.16675056025987],[3.91633784467151,48.16821596475621],[3.916013720584727,48.17088221585116],[3.918339130963642,48.17258658994388],[3.920344935417797,48.172769668316725],[3.923317481837717,48.17220203126521],[3.925105123669362,48.171176190311805],[3.92748748121997,48.17069338151423],[3.928912345375646,48.16950375548426],[3.929035966529995,48.1676874834156],[3.927353856367902,48.16620693085197],[3.924704857876175,48.165800343279265],[3.922050635140192,48.16664149230548]],[[3.928831889453232,48.18418653564103],[3.932161513371277,48.18358131183504],[3.933574082559403,48.1814761065552],[3.932318352963472,48.17936346135236],[3.93196952885896,48.176940736341315],[3.93033907288507,48.175875646549564],[3.928369581976755,48.17556211214222],[3.926477623857932,48.17590601438718],[3.925087407112328,48.17676883508687],[3.924424530844699,48.17810604384182],[3.922906931417187,48.17933618027526],[3.922713830658611,48.180976320601886],[3.921194809069921,48.18203634408202],[3.920725769146184,48.183353592227675],[3.921692303239791,48.18505295571861],[3.924051625236475,48.18595650373194],[3.926732575758103,48.18565400233971],[3.928831889453232,48.18418653564103]]]}},{"type":"Feature","properties":{"cluster_id":1,"snapshot_index":4,"estimated_time_utc":"2026-10-07T02:21:00Z","observed_until_utc":"2026-10-07T02:21:00Z","target_time_utc":"2026-10-07T02:21:00Z","arrival_h":24.6,"hours_ago":0.0,"supported_detections_cumulative":12,"sources_cumulative":"VIIRS_NOAA20_NRT, VIIRS_NOAA21_NRT, VIIRS_SNPP_NRT","last_source":"VIIRS_NOAA20_NRT","last_satellite":"N20","last_instrument":"VIIRS","detected_area_km2":1.4694551193905467,"product_type":"cumulative_active_fire_detection_extent"},"geometry":{"type":"MultiLineString","coordinates":[[[3.921781267594683,48.16668417291427],[3.918452760841324,48.166767919233095],[3.916313310937637,48.16825692417886],[3.916033600338105,48.170924289371875],[3.918400366528425,48.17260300055412],[3.920344935417797,48.172769668316725],[3.923317481837717,48.17220203126521],[3.925105123669362,48.171176190311805],[3.92748748121997,48.17069338151423],[3.92893686991843,48.169462793478445],[3.929016077638495,48.167645411992005],[3.927068870734281,48.166095682907404],[3.924379063743346,48.16583528560354],[3.921781267594683,48.16668417291427]],[[3.931158210292666,48.18400190380639],[3.932709549142958,48.18319986559574],[3.933556875859306,48.18178476467051],[3.932318352963472,48.17936346135236],[3.93230663151831,48.17746738189595],[3.93033907288507,48.175875646549564],[3.927265041587642,48.17568058581371],[3.925586981210274,48.17635873887466],[3.924441628192229,48.17796479549497],[3.921884556713497,48.17934551815318],[3.920902829246731,48.18409236839615],[3.92460117163246,48.18689195999598],[3.92723036977881,48.187497871548054],[3.930319669846349,48.18646992599071],[3.931158210292666,48.18400190380639]]]}}],"metadata":{"generated_at_utc":"2026-10-07T07:43:26.027050Z","product_type":"cumulative_active_fire_detection_extent","product_label":"Emprises cumulées des détections actives FIRMS","not_a_burn_perimeter":true,"not_a_continuous_fire_front":true,"not_an_arrival_time_interpolation":true,"snapshot_step_hours":6,"confidence_filter":{"VIIRS":["nominal","high"],"MODIS_minimum":30},"footprint_radius_m":{"VIIRS":300.0,"MODIS":750.0},"same_pass_neighbour_m":2000.0,"continuity_distance_m":3000.0,"clusters":[{"cluster_id":1,"first_supported_detection_utc":"2026-10-06T01:45:00Z","last_supported_detection_utc":"2026-10-07T02:21:00Z","pass_states":6,"published_snapshots":4,"final_detected_area_km2":1.4694551193905467}]},"bbox":[3.9160137205847265,48.16578209184959,3.9335740825594026,48.187497871548054]}