{"type":"FeatureCollection","name":"fire_progression_arrival_v1","features":[{"type":"Feature","properties":{"category":"arrival_step","arrival_snapshot_index":3,"first_detected_utc":"2026-10-05T12:46:00+00:00","first_detected_local":"2026-10-05T14:46:00+02:00","area_km2":2.75,"label":"Première détection FIRMS","model_version":"fire_progression_arrival_v1"},"geometry":{"type":"Polygon","coordinates":[[[3.9251105779949067,48.18648235343313],[3.925071168985513,48.184233006193104],[3.921707579934444,48.18425931135055],[3.9216683175365064,48.18200995953368],[3.918304868394939,48.18203616779851],[3.9181875309579706,48.17528808817418],[3.9215505504089574,48.175261883136535],[3.9215113013871044,48.17301251736714],[3.9248741742893376,48.17298621760799],[3.9248347854172585,48.17073684943885],[3.9382856705843663,48.17063069679101],[3.938325632224861,48.17288006060279],[3.941688488229422,48.17285328186004],[3.9417285964770525,48.17510264109309],[3.945091592268276,48.17507576545092],[3.945212367193736,48.1818238189275],[3.941848941721003,48.18185069787943],[3.9418890636374613,48.18410004315874],[3.9385254914948633,48.184126827398096],[3.938565473565415,48.186376170279566],[3.9251105779949067,48.18648235343313]]]}},{"type":"Feature","properties":{"category":"arrival_step","arrival_snapshot_index":4,"first_detected_utc":"2026-10-05T13:31:00+00:00","first_detected_local":"2026-10-05T15:31:00+02:00","area_km2":0.562,"label":"Première détection FIRMS","model_version":"fire_progression_arrival_v1"},"geometry":{"type":"Polygon","coordinates":[[[3.9217861147660162,48.18875800448967],[3.921746845677471,48.186508659670395],[3.9183831100145183,48.18653487008692],[3.918343987538285,48.18428552069121],[3.914980391809238,48.184311634214936],[3.9148634741046147,48.17756356184465],[3.9182266401052077,48.17753745153645],[3.918304868394939,48.18203616779851],[3.9216683175365064,48.18200995953368],[3.921707579934444,48.18425931135055],[3.925071168985513,48.184233006193104],[3.9251105779949067,48.18648235343313],[3.9318380325444138,48.18642945349696],[3.931877731467377,48.18867879506486],[3.9217861147660162,48.18875800448967]]]}},{"type":"Feature","properties":{"category":"arrival_step","arrival_snapshot_index":5,"first_detected_utc":"2026-10-06T01:45:00+00:00","first_detected_local":"2026-10-06T03:45:00+02:00","area_km2":2.5,"label":"Première détection FIRMS","model_version":"fire_progression_arrival_v1"},"geometry":{"type":"Polygon","coordinates":[[[3.9148634741046147,48.17756356184465],[3.914746586274712,48.17081545809805],[3.9113838465746573,48.170841469397665],[3.911267418118245,48.16409333116789],[3.9146297283080806,48.16406732307111],[3.9145518395820496,48.159568549055884],[3.931361909151177,48.15943708264228],[3.9314015675171285,48.1616864659843],[3.9347637144798,48.16165988429057],[3.9348433276427124,48.16615863840391],[3.9382057575134026,48.16613195874314],[3.9382856705843663,48.17063069679101],[3.9248347854172585,48.17073684943885],[3.9248741742893376,48.17298621760799],[3.9215113013871044,48.17301251736714],[3.9215505504089574,48.175261883136535],[3.9181875309579706,48.17528808817418],[3.9182266401052077,48.17753745153645],[3.9148634741046147,48.17756356184465]]]}},{"type":"Feature","properties":{"category":"observed_front","snapshot_index":2,"pass_time_utc":"2026-10-05T12:27:00+00:00","dt_local":"2026-10-05T14:27:00+02:00","area_km2":2.312,"label":"Activité observée","coherence_level":"indisponible","coherence_fraction":0.0,"projection_displayed":false,"model_version":"fire_progression_arrival_v1"},"geometry":{"type":"Polygon","coordinates":[[[3.9251105779949067,48.18648235343313],[3.925071168985513,48.184233006193104],[3.921707579934444,48.18425931135055],[3.9216683175365064,48.18200995953368],[3.918304868394939,48.18203616779851],[3.9181875309579706,48.17528808817418],[3.9215505504089574,48.175261883136535],[3.9215113013871044,48.17301251736714],[3.9248741742893376,48.17298621760799],[3.9248347854172585,48.17073684943885],[3.934922954367339,48.170657378642076],[3.9349627728163794,48.1729067435491],[3.938325632224861,48.17288006060279],[3.9383655972692786,48.175129420935065],[3.9417285964770525,48.17510264109309],[3.941848941721003,48.18185069787943],[3.938485512830409,48.181877481019356],[3.9385254914948633,48.184126827398096],[3.9351619159461677,48.18415351582136],[3.9352017547520792,48.18640285979835],[3.9251105779949067,48.18648235343313]]]}},{"type":"Feature","properties":{"category":"historical_support","snapshot_index":3,"pass_time_utc":"2026-10-05T12:46:00+00:00","dt_local":"2026-10-05T14:46:00+02:00","area_km2":2.75,"label":"Isoline temporelle","coherence_level":"indisponible","coherence_fraction":0.0,"projection_displayed":false,"model_version":"fire_progression_arrival_v1"},"geometry":{"type":"Polygon","coordinates":[[[3.9251105779949067,48.18648235343313],[3.925071168985513,48.184233006193104],[3.921707579934444,48.18425931135055],[3.9216683175365064,48.18200995953368],[3.918304868394939,48.18203616779851],[3.9181875309579706,48.17528808817418],[3.9215505504089574,48.175261883136535],[3.9215113013871044,48.17301251736714],[3.9248741742893376,48.17298621760799],[3.9248347854172585,48.17073684943885],[3.9382856705843663,48.17063069679101],[3.938325632224861,48.17288006060279],[3.941688488229422,48.17285328186004],[3.9417285964770525,48.17510264109309],[3.945091592268276,48.17507576545092],[3.945212367193736,48.1818238189275],[3.941848941721003,48.18185069787943],[3.9418890636374613,48.18410004315874],[3.9385254914948633,48.184126827398096],[3.938565473565415,48.186376170279566],[3.9251105779949067,48.18648235343313]]]}},{"type":"Feature","properties":{"category":"observed_front","snapshot_index":3,"pass_time_utc":"2026-10-05T12:46:00+00:00","dt_local":"2026-10-05T14:46:00+02:00","area_km2":2.75,"label":"Activité observée","coherence_level":"indisponible","coherence_fraction":0.0,"projection_displayed":false,"model_version":"fire_progression_arrival_v1"},"geometry":{"type":"Polygon","coordinates":[[[3.9251105779949067,48.18648235343313],[3.925071168985513,48.184233006193104],[3.921707579934444,48.18425931135055],[3.9216683175365064,48.18200995953368],[3.918304868394939,48.18203616779851],[3.9181875309579706,48.17528808817418],[3.9215505504089574,48.175261883136535],[3.9215113013871044,48.17301251736714],[3.9248741742893376,48.17298621760799],[3.9248347854172585,48.17073684943885],[3.9382856705843663,48.17063069679101],[3.938325632224861,48.17288006060279],[3.941688488229422,48.17285328186004],[3.9417285964770525,48.17510264109309],[3.945091592268276,48.17507576545092],[3.945212367193736,48.1818238189275],[3.941848941721003,48.18185069787943],[3.9418890636374613,48.18410004315874],[3.9385254914948633,48.184126827398096],[3.938565473565415,48.186376170279566],[3.9251105779949067,48.18648235343313]]]}},{"type":"Feature","properties":{"category":"historical_support","snapshot_index":4,"pass_time_utc":"2026-10-05T13:31:00+00:00","dt_local":"2026-10-05T15:31:00+02:00","area_km2":3.312,"label":"Isoline temporelle","coherence_level":"indisponible","coherence_fraction":0.0,"projection_displayed":false,"model_version":"fire_progression_arrival_v1"},"geometry":{"type":"Polygon","coordinates":[[[3.9217861147660162,48.18875800448967],[3.921746845677471,48.186508659670395],[3.9183831100145183,48.18653487008692],[3.918343987538285,48.18428552069121],[3.914980391809238,48.184311634214936],[3.9148634741046147,48.17756356184465],[3.9182266401052077,48.17753745153645],[3.9181875309579706,48.17528808817418],[3.9215505504089574,48.175261883136535],[3.9215113013871044,48.17301251736714],[3.9248741742893376,48.17298621760799],[3.9248347854172585,48.17073684943885],[3.9382856705843663,48.17063069679101],[3.938325632224861,48.17288006060279],[3.941688488229422,48.17285328186004],[3.9417285964770525,48.17510264109309],[3.945091592268276,48.17507576545092],[3.945212367193736,48.1818238189275],[3.941848941721003,48.18185069787943],[3.9418890636374613,48.18410004315874],[3.9385254914948633,48.184126827398096],[3.938565473565415,48.186376170279566],[3.9318380325444138,48.18642945349696],[3.931877731467377,48.18867879506486],[3.9217861147660162,48.18875800448967]]]}},{"type":"Feature","properties":{"category":"observed_front","snapshot_index":4,"pass_time_utc":"2026-10-05T13:31:00+00:00","dt_local":"2026-10-05T15:31:00+02:00","area_km2":2.312,"label":"Activité observée","coherence_level":"indisponible","coherence_fraction":0.0,"projection_displayed":false,"model_version":"fire_progression_arrival_v1"},"geometry":{"type":"Polygon","coordinates":[[[3.9217861147660162,48.18875800448967],[3.921746845677471,48.186508659670395],[3.9183831100145183,48.18653487008692],[3.918343987538285,48.18428552069121],[3.914980391809238,48.184311634214936],[3.9148634741046147,48.17756356184465],[3.9182266401052077,48.17753745153645],[3.9181875309579706,48.17528808817418],[3.9215505504089574,48.175261883136535],[3.9215113013871044,48.17301251736714],[3.931599910016169,48.17293333069883],[3.931639588652854,48.175182693217735],[3.9350025946571465,48.175156104976665],[3.9350424198900757,48.17740546292122],[3.938405565718052,48.177378777784284],[3.9385254914948633,48.184126827398096],[3.9351619159461677,48.18415351582136],[3.9352017547520792,48.18640285979835],[3.9318380325444138,48.18642945349696],[3.931877731467377,48.18867879506486],[3.9217861147660162,48.18875800448967]]]}},{"type":"Feature","properties":{"category":"firms_extent_snapshot","snapshot_index":5,"pass_time_utc":"2026-10-06T01:45:00+00:00","dt_local":"2026-10-06T03:45:00+02:00","label":"Emprise FIRMS cumulée à ce passage","interpretation":"Enveloppe des détections FIRMS, pas une surface brûlée","cumulative":true,"point_count":4,"extent_method":"cumulative_detection_extent_smoothed_landmasked_web_v1","local_cluster_link_m":10000.0,"model_version":"fire_progression_arrival_v1"},"geometry":{"type":"MultiPolygon","coordinates":[[[[3.916036861729272,48.16927136835054],[3.9166976543836287,48.170718697586935],[3.9182842507852977,48.17165836148652],[3.9201169985923787,48.17193789062829],[3.9236345865525877,48.171588591282436],[3.9258176185411084,48.17230297798352],[3.928759215273508,48.16972384375325],[3.9291890000275536,48.16818403254508],[3.9277019252561445,48.16637441809615],[3.9247376830385936,48.16579819381816],[3.9180561561005174,48.16690322065336],[3.91653083570479,48.167947579095475],[3.916036861729272,48.16927136835054]]],[[[3.9269611347244386,48.17488875456295],[3.924440110774977,48.177972236405246],[3.9256116842686213,48.18214109341548],[3.9273381844416986,48.18379081701927],[3.9304538997838327,48.18415710571726],[3.9324262016303817,48.18341518517473],[3.9335058575435973,48.18202511070361],[3.9323779941936126,48.177648810527735],[3.9309722618939285,48.17615436233304],[3.9269611347244386,48.17488875456295]]]]}},{"type":"Feature","properties":{"category":"historical_support","snapshot_index":5,"pass_time_utc":"2026-10-06T01:45:00+00:00","dt_local":"2026-10-06T03:45:00+02:00","area_km2":5.812,"label":"Isoline temporelle","coherence_level":"indisponible","coherence_fraction":0.0,"projection_displayed":false,"model_version":"fire_progression_arrival_v1"},"geometry":{"type":"Polygon","coordinates":[[[3.9217861147660162,48.18875800448967],[3.921746845677471,48.186508659670395],[3.9183831100145183,48.18653487008692],[3.918343987538285,48.18428552069121],[3.914980391809238,48.184311634214936],[3.914746586274712,48.17081545809805],[3.9113838465746573,48.170841469397665],[3.911267418118245,48.16409333116789],[3.9146297283080806,48.16406732307111],[3.9145518395820496,48.159568549055884],[3.931361909151177,48.15943708264228],[3.9314015675171285,48.1616864659843],[3.9347637144798,48.16165988429057],[3.9348433276427124,48.16615863840391],[3.9382057575134026,48.16613195874314],[3.938325632224861,48.17288006060279],[3.941688488229422,48.17285328186004],[3.9417285964770525,48.17510264109309],[3.945091592268276,48.17507576545092],[3.945212367193736,48.1818238189275],[3.941848941721003,48.18185069787943],[3.9418890636374613,48.18410004315874],[3.9385254914948633,48.184126827398096],[3.938565473565415,48.186376170279566],[3.9318380325444138,48.18642945349696],[3.931877731467377,48.18867879506486],[3.9217861147660162,48.18875800448967]]]}},{"type":"Feature","properties":{"category":"observed_front","snapshot_index":5,"pass_time_utc":"2026-10-06T01:45:00+00:00","dt_local":"2026-10-06T03:45:00+02:00","area_km2":4.75,"label":"Activité observée","coherence_level":"indisponible","coherence_fraction":0.0,"projection_displayed":false,"model_version":"fire_progression_arrival_v1"},"geometry":{"type":"Polygon","coordinates":[[[3.921707579934444,48.18425931135055],[3.9216683175365064,48.18200995953368],[3.918304868394939,48.18203616779851],[3.9182266401052077,48.17753745153645],[3.9148634741046147,48.17756356184465],[3.914746586274712,48.17081545809805],[3.9113838465746573,48.170841469397665],[3.911267418118245,48.16409333116789],[3.9146297283080806,48.16406732307111],[3.9145518395820496,48.159568549055884],[3.931361909151177,48.15943708264228],[3.9314015675171285,48.1616864659843],[3.9347637144798,48.16165988429057],[3.9348433276427124,48.16615863840391],[3.9382057575134026,48.16613195874314],[3.938325632224861,48.17288006060279],[3.941688488229422,48.17285328186004],[3.941848941721003,48.18185069787943],[3.938485512830409,48.181877481019356],[3.9385254914948633,48.184126827398096],[3.921707579934444,48.18425931135055]]]}},{"type":"Feature","properties":{"category":"historical_support","snapshot_index":6,"pass_time_utc":"2026-10-06T02:21:00+00:00","dt_local":"2026-10-06T04:21:00+02:00","area_km2":5.812,"label":"Isoline temporelle","coherence_level":"indisponible","coherence_fraction":0.0,"projection_displayed":false,"model_version":"fire_progression_arrival_v1"},"geometry":{"type":"Polygon","coordinates":[[[3.9217861147660162,48.18875800448967],[3.921746845677471,48.186508659670395],[3.9183831100145183,48.18653487008692],[3.918343987538285,48.18428552069121],[3.914980391809238,48.184311634214936],[3.914746586274712,48.17081545809805],[3.9113838465746573,48.170841469397665],[3.911267418118245,48.16409333116789],[3.9146297283080806,48.16406732307111],[3.9145518395820496,48.159568549055884],[3.931361909151177,48.15943708264228],[3.9314015675171285,48.1616864659843],[3.9347637144798,48.16165988429057],[3.9348433276427124,48.16615863840391],[3.9382057575134026,48.16613195874314],[3.938325632224861,48.17288006060279],[3.941688488229422,48.17285328186004],[3.9417285964770525,48.17510264109309],[3.945091592268276,48.17507576545092],[3.945212367193736,48.1818238189275],[3.941848941721003,48.18185069787943],[3.9418890636374613,48.18410004315874],[3.9385254914948633,48.184126827398096],[3.938565473565415,48.186376170279566],[3.9318380325444138,48.18642945349696],[3.931877731467377,48.18867879506486],[3.9217861147660162,48.18875800448967]]]}},{"type":"Feature","properties":{"category":"observed_front","snapshot_index":6,"pass_time_utc":"2026-10-06T02:21:00+00:00","dt_local":"2026-10-06T04:21:00+02:00","area_km2":4.438,"label":"Activité observée","coherence_level":"indisponible","coherence_fraction":0.0,"projection_displayed":false,"model_version":"fire_progression_arrival_v1"},"geometry":{"type":"Polygon","coordinates":[[[3.921746845677471,48.186508659670395],[3.921707579934444,48.18425931135055],[3.918343987538285,48.18428552069121],[3.918304868394939,48.18203616779851],[3.91494141592091,48.18206228025034],[3.914746586274712,48.17081545809805],[3.9113838465746573,48.170841469397665],[3.911267418118245,48.16409333116789],[3.9146297283080806,48.16406732307111],[3.9145907822868415,48.16181793779418],[3.9179529460145366,48.16179183498717],[3.9179138601766588,48.15954244732026],[3.9279999019425045,48.15946356747182],[3.928039417177081,48.16171295190096],[3.9314015675171285,48.1616864659843],[3.931441229260458,48.16393584586468],[3.9348035193662585,48.16390926307985],[3.9349627728163794,48.1729067435491],[3.938325632224861,48.17288006060279],[3.938485512830409,48.181877481019356],[3.935122080534153,48.18190416834712],[3.9351619159461677,48.18415351582136],[3.931798337003577,48.18418010842835],[3.9318380325444138,48.18642945349696],[3.921746845677471,48.186508659670395]]]}},{"type":"Feature","properties":{"category":"firms_extent_snapshot","snapshot_index":7,"pass_time_utc":"2026-10-06T02:43:00+00:00","dt_local":"2026-10-06T04:43:00+02:00","label":"Emprise FIRMS cumulée à ce passage","interpretation":"Enveloppe des détections FIRMS, pas une surface brûlée","cumulative":true,"point_count":7,"extent_method":"cumulative_detection_extent_smoothed_landmasked_web_v1","local_cluster_link_m":10000.0,"model_version":"fire_progression_arrival_v1"},"geometry":{"type":"Polygon","coordinates":[[[3.9158367967074654,48.17012136149785],[3.9163350967936585,48.171389442948325],[3.917668247444647,48.17235065442757],[3.9230580960292225,48.17282431803256],[3.9253199539001487,48.1742313325327],[3.925515951830128,48.17612855098877],[3.9226611801665636,48.17991911990392],[3.923551622114986,48.18209594379917],[3.9284941221759944,48.18413499694979],[3.930373627873436,48.18416982633399],[3.932135998699296,48.18359530040301],[3.9335740664087746,48.18149817054279],[3.932158537345536,48.17719820145487],[3.9306515373806326,48.17599915365739],[3.92699007191205,48.17490800847263],[3.9257602791316977,48.17337705492796],[3.9261805443297373,48.17166199774608],[3.9290742445088647,48.16917950351964],[3.9291263194627217,48.167922596766154],[3.92826752828836,48.16674399741518],[3.925132745900212,48.16578210501412],[3.9184832414163564,48.16675948950514],[3.9164910221556055,48.16799589237645],[3.9158367967074654,48.17012136149785]]]}},{"type":"Feature","properties":{"category":"historical_support","snapshot_index":7,"pass_time_utc":"2026-10-06T02:43:00+00:00","dt_local":"2026-10-06T04:43:00+02:00","area_km2":5.812,"label":"Isoline temporelle","coherence_level":"indisponible","coherence_fraction":0.0,"projection_displayed":false,"model_version":"fire_progression_arrival_v1"},"geometry":{"type":"Polygon","coordinates":[[[3.9217861147660162,48.18875800448967],[3.921746845677471,48.186508659670395],[3.9183831100145183,48.18653487008692],[3.918343987538285,48.18428552069121],[3.914980391809238,48.184311634214936],[3.914746586274712,48.17081545809805],[3.9113838465746573,48.170841469397665],[3.911267418118245,48.16409333116789],[3.9146297283080806,48.16406732307111],[3.9145518395820496,48.159568549055884],[3.931361909151177,48.15943708264228],[3.9314015675171285,48.1616864659843],[3.9347637144798,48.16165988429057],[3.9348433276427124,48.16615863840391],[3.9382057575134026,48.16613195874314],[3.938325632224861,48.17288006060279],[3.941688488229422,48.17285328186004],[3.9417285964770525,48.17510264109309],[3.945091592268276,48.17507576545092],[3.945212367193736,48.1818238189275],[3.941848941721003,48.18185069787943],[3.9418890636374613,48.18410004315874],[3.9385254914948633,48.184126827398096],[3.938565473565415,48.186376170279566],[3.9318380325444138,48.18642945349696],[3.931877731467377,48.18867879506486],[3.9217861147660162,48.18875800448967]]]}},{"type":"Feature","properties":{"category":"observed_front","snapshot_index":7,"pass_time_utc":"2026-10-06T02:43:00+00:00","dt_local":"2026-10-06T04:43:00+02:00","area_km2":2.0,"label":"Activité observée","coherence_level":"indisponible","coherence_fraction":0.0,"projection_displayed":false,"model_version":"fire_progression_arrival_v1"},"geometry":{"type":"Polygon","coordinates":[[[3.9148245081757995,48.17531419741063],[3.914746586274712,48.17081545809805],[3.9113838465746573,48.170841469397665],[3.911267418118245,48.16409333116789],[3.9146297283080806,48.16406732307111],[3.9145518395820496,48.159568549055884],[3.9246378913690707,48.159489956528084],[3.924677263471842,48.16173934204043],[3.928039417177081,48.16171295190096],[3.928078935776848,48.16396233286851],[3.931441229260458,48.16393584586468],[3.931560234759018,48.17068396470049],[3.928197511771593,48.17071045496614],[3.928237043836424,48.17295982205183],[3.9248741742893376,48.17298621760799],[3.9249135665165635,48.17523558229782],[3.9148245081757995,48.17531419741063]]]}},{"type":"Feature","properties":{"category":"firms_extent_snapshot","snapshot_index":8,"pass_time_utc":"2026-10-07T00:41:00+00:00","dt_local":"2026-10-07T02:41:00+02:00","label":"Emprise FIRMS cumulée à ce passage","interpretation":"Enveloppe des détections FIRMS, pas une surface brûlée","cumulative":true,"point_count":8,"extent_method":"cumulative_detection_extent_smoothed_landmasked_web_v1","local_cluster_link_m":10000.0,"model_version":"fire_progression_arrival_v1"},"geometry":{"type":"Polygon","coordinates":[[[3.9158367967074654,48.17012136149785],[3.9163350967936585,48.171389442948325],[3.9176002686268796,48.17231941466942],[3.92330243626759,48.17289134404275],[3.9247604479485045,48.17363422624173],[3.9255769143323023,48.17473182323394],[3.925431943260187,48.17629602139221],[3.9208647713343225,48.18260036091326],[3.9208124852615573,48.18385725136015],[3.9216713883595644,48.18503589110859],[3.9235554590051174,48.18587416947151],[3.92559341684663,48.18593985686094],[3.932135998699296,48.18359530040301],[3.9335740664087746,48.18149817054279],[3.932158537345536,48.17719820145487],[3.9306515373806326,48.17599915365739],[3.92699007191205,48.17490800847263],[3.9257602791316977,48.17337705492796],[3.9261805443297373,48.17166199774608],[3.9290742445088647,48.16917950351964],[3.9291263194627217,48.167922596766154],[3.92826752828836,48.16674399741518],[3.925132745900212,48.16578210501412],[3.9184832414163564,48.16675948950514],[3.9164910221556055,48.16799589237645],[3.9158367967074654,48.17012136149785]]]}},{"type":"Feature","properties":{"category":"historical_support","snapshot_index":8,"pass_time_utc":"2026-10-07T00:41:00+00:00","dt_local":"2026-10-07T02:41:00+02:00","area_km2":5.812,"label":"Isoline temporelle","coherence_level":"indisponible","coherence_fraction":0.0,"projection_displayed":false,"model_version":"fire_progression_arrival_v1"},"geometry":{"type":"Polygon","coordinates":[[[3.9217861147660162,48.18875800448967],[3.921746845677471,48.186508659670395],[3.9183831100145183,48.18653487008692],[3.918343987538285,48.18428552069121],[3.914980391809238,48.184311634214936],[3.914746586274712,48.17081545809805],[3.9113838465746573,48.170841469397665],[3.911267418118245,48.16409333116789],[3.9146297283080806,48.16406732307111],[3.9145518395820496,48.159568549055884],[3.931361909151177,48.15943708264228],[3.9314015675171285,48.1616864659843],[3.9347637144798,48.16165988429057],[3.9348433276427124,48.16615863840391],[3.9382057575134026,48.16613195874314],[3.938325632224861,48.17288006060279],[3.941688488229422,48.17285328186004],[3.9417285964770525,48.17510264109309],[3.945091592268276,48.17507576545092],[3.945212367193736,48.1818238189275],[3.941848941721003,48.18185069787943],[3.9418890636374613,48.18410004315874],[3.9385254914948633,48.184126827398096],[3.938565473565415,48.186376170279566],[3.9318380325444138,48.18642945349696],[3.931877731467377,48.18867879506486],[3.9217861147660162,48.18875800448967]]]}},{"type":"Feature","properties":{"category":"observed_front","snapshot_index":8,"pass_time_utc":"2026-10-07T00:41:00+00:00","dt_local":"2026-10-07T02:41:00+02:00","area_km2":2.0,"label":"Activité observée","coherence_level":"indisponible","coherence_fraction":0.0,"projection_displayed":false,"model_version":"fire_progression_arrival_v1"},"geometry":{"type":"Polygon","coordinates":[[[3.9217861147660162,48.18875800448967],[3.921746845677471,48.186508659670395],[3.9183831100145183,48.18653487008692],[3.918343987538285,48.18428552069121],[3.914980391809238,48.184311634214936],[3.9148245081757995,48.17531419741063],[3.9181875309579706,48.17528808817418],[3.918148425141918,48.17303872132916],[3.928237043836424,48.17295982205183],[3.928276579268594,48.17520918565818],[3.931639588652854,48.175182693217735],[3.931679270669505,48.17743205225373],[3.9350424198900757,48.17740546292122],[3.9351619159461677,48.18415351582136],[3.931798337003577,48.18418010842835],[3.9318380325444138,48.18642945349696],[3.9284743069546217,48.18645595137527],[3.9285138625998757,48.18870529403089],[3.9217861147660162,48.18875800448967]]]}},{"type":"Feature","properties":{"category":"historical_support","snapshot_index":9,"pass_time_utc":"2026-10-07T02:04:00+00:00","dt_local":"2026-10-07T04:04:00+02:00","area_km2":5.812,"label":"Isoline temporelle","coherence_level":"indisponible","coherence_fraction":0.0,"projection_displayed":false,"model_version":"fire_progression_arrival_v1"},"geometry":{"type":"Polygon","coordinates":[[[3.9217861147660162,48.18875800448967],[3.921746845677471,48.186508659670395],[3.9183831100145183,48.18653487008692],[3.918343987538285,48.18428552069121],[3.914980391809238,48.184311634214936],[3.914746586274712,48.17081545809805],[3.9113838465746573,48.170841469397665],[3.911267418118245,48.16409333116789],[3.9146297283080806,48.16406732307111],[3.9145518395820496,48.159568549055884],[3.931361909151177,48.15943708264228],[3.9314015675171285,48.1616864659843],[3.9347637144798,48.16165988429057],[3.9348433276427124,48.16615863840391],[3.9382057575134026,48.16613195874314],[3.938325632224861,48.17288006060279],[3.941688488229422,48.17285328186004],[3.9417285964770525,48.17510264109309],[3.945091592268276,48.17507576545092],[3.945212367193736,48.1818238189275],[3.941848941721003,48.18185069787943],[3.9418890636374613,48.18410004315874],[3.9385254914948633,48.184126827398096],[3.938565473565415,48.186376170279566],[3.9318380325444138,48.18642945349696],[3.931877731467377,48.18867879506486],[3.9217861147660162,48.18875800448967]]]}},{"type":"Feature","properties":{"category":"observed_front","snapshot_index":9,"pass_time_utc":"2026-10-07T02:04:00+00:00","dt_local":"2026-10-07T04:04:00+02:00","area_km2":2.5,"label":"Activité observée","coherence_level":"indisponible","coherence_fraction":0.0,"projection_displayed":false,"model_version":"fire_progression_arrival_v1"},"geometry":{"type":"Polygon","coordinates":[[[3.9251499903620197,48.18873169717254],[3.9251105779949067,48.18648235343313],[3.9183831100145183,48.18653487008692],[3.918343987538285,48.18428552069121],[3.914980391809238,48.184311634214936],[3.9148245081757995,48.17531419741063],[3.9181875309579706,48.17528808817418],[3.918148425141918,48.17303872132916],[3.9248741742893376,48.17298621760799],[3.9248347854172585,48.17073684943885],[3.928197511771593,48.17071045496614],[3.928237043836424,48.17295982205183],[3.9349627728163794,48.1729067435491],[3.9350025946571465,48.175156104976665],[3.9383655972692786,48.175129420935065],[3.9385254914948633,48.184126827398096],[3.9351619159461677,48.18415351582136],[3.9352017547520792,48.18640285979835],[3.9284743069546217,48.18645595137527],[3.9285138625998757,48.18870529403089],[3.9251499903620197,48.18873169717254]]]}},{"type":"Feature","properties":{"category":"firms_extent_snapshot","snapshot_index":10,"pass_time_utc":"2026-10-07T02:21:00+00:00","dt_local":"2026-10-07T04:21:00+02:00","label":"Emprise FIRMS cumulée à ce passage","interpretation":"Enveloppe des détections FIRMS, pas une surface brûlée","cumulative":true,"point_count":12,"extent_method":"cumulative_detection_extent_smoothed_landmasked_web_v1","local_cluster_link_m":10000.0,"model_version":"fire_progression_arrival_v1"},"geometry":{"type":"Polygon","coordinates":[[[3.9158367967074654,48.17012136149785],[3.9163350967936585,48.171389442948325],[3.917668247444647,48.17235065442757],[3.9230580960292225,48.17282431803256],[3.925202310258422,48.17407318149458],[3.925515951830128,48.17612855098877],[3.921735048724796,48.17956672488334],[3.9208124852615573,48.18385725136015],[3.9216713883595644,48.18503589110859],[3.9250181579603787,48.18708973369387],[3.9271148808229617,48.187497152740846],[3.9290936305238118,48.187164350202956],[3.9307303679065133,48.18604377006933],[3.9335740664087746,48.18149817054279],[3.9317775504232286,48.17673471730117],[3.930381854082125,48.17589234204272],[3.9271894069729267,48.17502429380364],[3.925812321610397,48.17355050978929],[3.9261805443297373,48.17166199774608],[3.929053184994504,48.16923284245068],[3.9287144908882343,48.16718028961816],[3.9273812697324653,48.16621919949726],[3.925528263775141,48.16579199711371],[3.918854329111775,48.16666739447455],[3.9166472455162236,48.16781416920651],[3.9158367967074654,48.17012136149785]]]}},{"type":"Feature","properties":{"category":"historical_support","snapshot_index":10,"pass_time_utc":"2026-10-07T02:21:00+00:00","dt_local":"2026-10-07T04:21:00+02:00","area_km2":5.812,"label":"Isoline temporelle","coherence_level":"indisponible","coherence_fraction":0.0,"projection_displayed":false,"model_version":"fire_progression_arrival_v1"},"geometry":{"type":"Polygon","coordinates":[[[3.9217861147660162,48.18875800448967],[3.921746845677471,48.186508659670395],[3.9183831100145183,48.18653487008692],[3.918343987538285,48.18428552069121],[3.914980391809238,48.184311634214936],[3.914746586274712,48.17081545809805],[3.9113838465746573,48.170841469397665],[3.911267418118245,48.16409333116789],[3.9146297283080806,48.16406732307111],[3.9145518395820496,48.159568549055884],[3.931361909151177,48.15943708264228],[3.9314015675171285,48.1616864659843],[3.9347637144798,48.16165988429057],[3.9348433276427124,48.16615863840391],[3.9382057575134026,48.16613195874314],[3.938325632224861,48.17288006060279],[3.941688488229422,48.17285328186004],[3.9417285964770525,48.17510264109309],[3.945091592268276,48.17507576545092],[3.945212367193736,48.1818238189275],[3.941848941721003,48.18185069787943],[3.9418890636374613,48.18410004315874],[3.9385254914948633,48.184126827398096],[3.938565473565415,48.186376170279566],[3.9318380325444138,48.18642945349696],[3.931877731467377,48.18867879506486],[3.9217861147660162,48.18875800448967]]]}},{"type":"Feature","properties":{"category":"observed_front","snapshot_index":10,"pass_time_utc":"2026-10-07T02:21:00+00:00","dt_local":"2026-10-07T04:21:00+02:00","area_km2":2.438,"label":"Activité observée","coherence_level":"indisponible","coherence_fraction":0.0,"projection_displayed":false,"model_version":"fire_progression_arrival_v1"},"geometry":{"type":"Polygon","coordinates":[[[3.9217861147660162,48.18875800448967],[3.921746845677471,48.186508659670395],[3.9183831100145183,48.18653487008692],[3.918343987538285,48.18428552069121],[3.914980391809238,48.184311634214936],[3.9148634741046147,48.17756356184465],[3.9182266401052077,48.17753745153645],[3.918148425141918,48.17303872132916],[3.9349627728163794,48.1729067435491],[3.9350424198900757,48.17740546292122],[3.938405565718052,48.177378777784284],[3.9385254914948633,48.184126827398096],[3.9351619159461677,48.18415351582136],[3.9352017547520792,48.18640285979835],[3.9318380325444138,48.18642945349696],[3.931877731467377,48.18867879506486],[3.9217861147660162,48.18875800448967]]]}}]}