{"type":"FeatureCollection","name":"detection_envelopes","crs":{"type":"name","properties":{"name":"urn:ogc:def:crs:OGC:1.3:CRS84"}},"features":[{"type":"Feature","properties":{"cluster_id":1,"snapshot_index":1,"estimated_time_utc":"2026-10-08T02:04:00Z","observed_until_utc":"2026-10-08T02:04:00Z","target_time_utc":"2026-10-08T02:04:00Z","arrival_h":0.0,"hours_ago":0.0,"supported_detections_cumulative":2,"sources_cumulative":"VIIRS_NOAA20_NRT","last_source":"VIIRS_NOAA20_NRT","last_satellite":"N20","last_instrument":"VIIRS","detected_area_km2":1.7389947501408896,"product_type":"cumulative_active_fire_detection_extent"},"geometry":{"type":"MultiLineString","coordinates":[[[0.558840535052744,49.46388441848697],[0.556505922608782,49.463519365046444],[0.554129503368308,49.464127186578565],[0.551715446493888,49.46406206356993],[0.549004201699986,49.465541763732666],[0.548631597573556,49.466828878471134],[0.549233954841396,49.46807848565236],[0.553888967956102,49.47097787853517],[0.556334275421307,49.471184818513926],[0.561142228175081,49.470128542382746],[0.563466183185648,49.468727901828224],[0.563838430029437,49.46744074416858],[0.563235725618113,49.46619120874316],[0.558840535052744,49.46388441848697]],[[0.542494953223405,49.46956850434496],[0.541447168318023,49.4681605350308],[0.539375770017161,49.46736919637936],[0.536978892670657,49.46746118863134],[0.53506432235058,49.46840550870503],[0.534285811335645,49.470192364161214],[0.53568139746179,49.472015423597256],[0.533738921183697,49.47216116340234],[0.530079441440721,49.473321632042065],[0.528310624925577,49.47477822555777],[0.528642369156353,49.47694559457608],[0.528094265903221,49.478761143821735],[0.529747975457527,49.48052025905406],[0.531612562892838,49.48100981124685],[0.535759294758295,49.48111657051586],[0.540686300096364,49.47848441367289],[0.54132482142106,49.47617708484095],[0.539616882635649,49.47364190764961],[0.538030347091318,49.472671856319494],[0.539904508670369,49.47250319771604],[0.541501471946169,49.47178049261903],[0.542494953223405,49.46956850434496]]]}}],"metadata":{"generated_at_utc":"2026-10-09T07:59:56.455217Z","product_type":"cumulative_active_fire_detection_extent","product_label":"Emprises cumulées des détections actives FIRMS","not_a_burn_perimeter":true,"not_a_continuous_fire_front":true,"not_an_arrival_time_interpolation":true,"snapshot_step_hours":6,"confidence_filter":{"VIIRS":["nominal","high"],"MODIS_minimum":30},"footprint_radius_m":{"VIIRS":300.0,"MODIS":750.0},"same_pass_neighbour_m":2000.0,"continuity_distance_m":3000.0,"clusters":[{"cluster_id":1,"first_supported_detection_utc":"2026-10-08T02:04:00Z","last_supported_detection_utc":"2026-10-08T02:04:00Z","pass_states":1,"published_snapshots":1,"final_detected_area_km2":0.5645409244294187}]},"bbox":[0.5280942659032208,49.463519365046444,0.563838430029437,49.48111657051586]}