{"type":"FeatureCollection","name":"fire_progression_arrival_v1","features":[{"type":"Feature","properties":{"category":"arrival_step","arrival_snapshot_index":1,"first_detected_utc":"2026-10-03T01:37:00+00:00","first_detected_local":"2026-10-03T03:37:00+02:00","area_km2":1.75,"label":"Première détection FIRMS","model_version":"fire_progression_arrival_v1"},"geometry":{"type":"MultiPolygon","coordinates":[[[[0.5273505119392865,49.47337681875236],[0.527458462358887,49.47113100002361],[0.5309046674072544,49.47120129712567],[0.5310124581537609,49.46895546987304],[0.5344585223592385,49.469025666063],[0.534566153458829,49.46677983029442],[0.5276743349325337,49.46663934568237],[0.5275664033562247,49.46888517566572],[0.5241203579797175,49.46881478344146],[0.523904166050493,49.47330642073038],[0.5273505119392865,49.47337681875236]]],[[[0.5372595137432141,49.482570677912506],[0.53736705091161,49.48032487306224],[0.5442607290576578,49.48046480416127],[0.5443679562231345,49.478218987905386],[0.5478146590359289,49.478288803521416],[0.5482428729987868,49.46930547064185],[0.544796771292431,49.46923566652504],[0.5449039516677276,49.46698982210891],[0.5414580095596163,49.46691992285173],[0.541350678941662,49.46916576438937],[0.5379045959595682,49.46909576423523],[0.5377971057184175,49.47134159726529],[0.534350881864795,49.471271496206356],[0.5341355726864313,49.47576313960293],[0.5306890576854927,49.47569293474038],[0.5305812387077745,49.4779387450952],[0.5271345828283661,49.47786843930802],[0.5270266041345784,49.480114241127666],[0.5339202259138974,49.48025476045513],[0.5338125384267405,49.48250056241802],[0.5372595137432141,49.482570677912506]]]]}},{"type":"Feature","properties":{"category":"arrival_step","arrival_snapshot_index":2,"first_detected_utc":"2026-10-03T01:58:00+00:00","first_detected_local":"2026-10-03T03:58:00+02:00","area_km2":0.438,"label":"Première détection FIRMS","model_version":"fire_progression_arrival_v1"},"geometry":{"type":"Polygon","coordinates":[[[0.5302577252924806,49.48467614230595],[0.5303655725125002,49.48243034888162],[0.5269186160135938,49.482360037303685],[0.5270266041345784,49.480114241127666],[0.5339202259138974,49.48025476045513],[0.5338125384267405,49.48250056241802],[0.5372595137432141,49.482570677912506],[0.53736705091161,49.48032487306224],[0.5442607290576578,49.48046480416127],[0.5441534925304693,49.48271061477422],[0.5407064984488236,49.4826406953647],[0.5405991022243819,49.484886497451605],[0.5302577252924806,49.48467614230595]]]}},{"type":"Feature","properties":{"category":"arrival_step","arrival_snapshot_index":8,"first_detected_utc":"2026-10-05T12:49:00+00:00","first_detected_local":"2026-10-05T14:49:00+02:00","area_km2":2.312,"label":"Première détection FIRMS","model_version":"fire_progression_arrival_v1"},"geometry":{"type":"Polygon","coordinates":[[[0.5514751962855775,49.47386686018431],[0.5515820948319228,49.47162102127593],[0.5481358335248757,49.47155131230779],[0.5482428729987868,49.46930547064185],[0.544796771292431,49.46923566652504],[0.5451182843564585,49.462498116416775],[0.5485639353704272,49.46256791191062],[0.5486709374816852,49.46032204776785],[0.5521164476286361,49.46039174238455],[0.552223290209521,49.45814586976176],[0.5625594259595867,49.45835435700404],[0.56245303396431,49.460600238212265],[0.5658985813308645,49.460669540812795],[0.5657923302610294,49.46291541926532],[0.5692380371117085,49.46298462671074],[0.5689196789712248,49.46972223692575],[0.5654735214062314,49.469653020929954],[0.5653672332354879,49.47189887690841],[0.5619209346844732,49.47182956003706],[0.5618144869593066,49.47407540753335],[0.5514751962855775,49.47386686018431]]]}},{"type":"Feature","properties":{"category":"arrival_step","arrival_snapshot_index":12,"first_detected_utc":"2026-10-06T02:43:00+00:00","first_detected_local":"2026-10-06T04:43:00+02:00","area_km2":0.125,"label":"Première détection FIRMS","model_version":"fire_progression_arrival_v1"},"geometry":{"type":"Polygon","coordinates":[[[0.5202412993605329,49.47772753363479],[0.5204578295982862,49.47323592468375],[0.523904166050493,49.47330642073038],[0.5236879363749213,49.47779803548777],[0.5202412993605329,49.47772753363479]]]}},{"type":"Feature","properties":{"category":"firms_extent_snapshot","snapshot_index":1,"pass_time_utc":"2026-10-03T01:37:00+00:00","dt_local":"2026-10-03T03:37:00+02:00","label":"Emprise FIRMS cumulée à ce passage","interpretation":"Enveloppe des détections FIRMS, pas une surface brûlée","cumulative":true,"point_count":2,"extent_method":"cumulative_detection_extent_smoothed_landmasked_web_v1","local_cluster_link_m":10000.0,"model_version":"fire_progression_arrival_v1"},"geometry":{"type":"Polygon","coordinates":[[[0.5326126513954594,49.47889405257921],[0.535546747426255,49.47951889304304],[0.5384378024424936,49.47856142711635],[0.5393713049948522,49.47717765280973],[0.5392963947055462,49.474509612332255],[0.5378270289113558,49.47262588181502],[0.5358490869159902,49.47205926011281],[0.5353094256536205,49.47286461517427],[0.5311572960544968,49.476182658735254],[0.5312566477467938,49.47747782630095],[0.5326126513954594,49.47889405257921]]]}},{"type":"Feature","properties":{"category":"historical_support","snapshot_index":1,"pass_time_utc":"2026-10-03T01:37:00+00:00","dt_local":"2026-10-03T03:37:00+02:00","area_km2":1.75,"label":"Isoline temporelle","coherence_level":"indisponible","coherence_fraction":0.0,"projection_displayed":false,"model_version":"fire_progression_arrival_v1"},"geometry":{"type":"MultiPolygon","coordinates":[[[[0.5273505119392865,49.47337681875236],[0.527458462358887,49.47113100002361],[0.5309046674072544,49.47120129712567],[0.5310124581537609,49.46895546987304],[0.5344585223592385,49.469025666063],[0.534566153458829,49.46677983029442],[0.5276743349325337,49.46663934568237],[0.5275664033562247,49.46888517566572],[0.5241203579797175,49.46881478344146],[0.523904166050493,49.47330642073038],[0.5273505119392865,49.47337681875236]]],[[[0.5372595137432141,49.482570677912506],[0.53736705091161,49.48032487306224],[0.5442607290576578,49.48046480416127],[0.5443679562231345,49.478218987905386],[0.5478146590359289,49.478288803521416],[0.5482428729987868,49.46930547064185],[0.544796771292431,49.46923566652504],[0.5449039516677276,49.46698982210891],[0.5414580095596163,49.46691992285173],[0.541350678941662,49.46916576438937],[0.5379045959595682,49.46909576423523],[0.5377971057184175,49.47134159726529],[0.534350881864795,49.471271496206356],[0.5341355726864313,49.47576313960293],[0.5306890576854927,49.47569293474038],[0.5305812387077745,49.4779387450952],[0.5271345828283661,49.47786843930802],[0.5270266041345784,49.480114241127666],[0.5339202259138974,49.48025476045513],[0.5338125384267405,49.48250056241802],[0.5372595137432141,49.482570677912506]]]]}},{"type":"Feature","properties":{"category":"observed_front","snapshot_index":1,"pass_time_utc":"2026-10-03T01:37:00+00:00","dt_local":"2026-10-03T03:37:00+02:00","area_km2":1.75,"label":"Activité observée","coherence_level":"indisponible","coherence_fraction":0.0,"projection_displayed":false,"model_version":"fire_progression_arrival_v1"},"geometry":{"type":"MultiPolygon","coordinates":[[[[0.5273505119392865,49.47337681875236],[0.527458462358887,49.47113100002361],[0.5309046674072544,49.47120129712567],[0.5310124581537609,49.46895546987304],[0.5344585223592385,49.469025666063],[0.534566153458829,49.46677983029442],[0.5276743349325337,49.46663934568237],[0.5275664033562247,49.46888517566572],[0.5241203579797175,49.46881478344146],[0.523904166050493,49.47330642073038],[0.5273505119392865,49.47337681875236]]],[[[0.5372595137432141,49.482570677912506],[0.53736705091161,49.48032487306224],[0.5442607290576578,49.48046480416127],[0.5443679562231345,49.478218987905386],[0.5478146590359289,49.478288803521416],[0.5482428729987868,49.46930547064185],[0.544796771292431,49.46923566652504],[0.5449039516677276,49.46698982210891],[0.5414580095596163,49.46691992285173],[0.541350678941662,49.46916576438937],[0.5379045959595682,49.46909576423523],[0.5377971057184175,49.47134159726529],[0.534350881864795,49.471271496206356],[0.5341355726864313,49.47576313960293],[0.5306890576854927,49.47569293474038],[0.5305812387077745,49.4779387450952],[0.5271345828283661,49.47786843930802],[0.5270266041345784,49.480114241127666],[0.5339202259138974,49.48025476045513],[0.5338125384267405,49.48250056241802],[0.5372595137432141,49.482570677912506]]]]}},{"type":"Feature","properties":{"category":"firms_extent_snapshot","snapshot_index":2,"pass_time_utc":"2026-10-03T01:58:00+00:00","dt_local":"2026-10-03T03:58:00+02:00","label":"Emprise FIRMS cumulée à ce passage","interpretation":"Enveloppe des détections FIRMS, pas une surface brûlée","cumulative":true,"point_count":3,"extent_method":"cumulative_detection_extent_smoothed_landmasked_web_v1","local_cluster_link_m":10000.0,"model_version":"fire_progression_arrival_v1"},"geometry":{"type":"Polygon","coordinates":[[[0.5332469172162595,49.4810542897612],[0.5357265299722448,49.4811220443346],[0.5378178856343481,49.48025144010534],[0.5394044008058434,49.47685893294827],[0.5391830855310408,49.47404204211649],[0.5378270289113558,49.47262588181502],[0.5357638286934326,49.47218649577442],[0.5353094256536205,49.47286461517427],[0.53079172258067,49.47641495200984],[0.5305160375870128,49.478435802546585],[0.5311874138075451,49.479992514922486],[0.5332469172162595,49.4810542897612]]]}},{"type":"Feature","properties":{"category":"historical_support","snapshot_index":2,"pass_time_utc":"2026-10-03T01:58:00+00:00","dt_local":"2026-10-03T03:58:00+02:00","area_km2":2.188,"label":"Isoline temporelle","coherence_level":"indisponible","coherence_fraction":0.0,"projection_displayed":false,"model_version":"fire_progression_arrival_v1"},"geometry":{"type":"MultiPolygon","coordinates":[[[[0.5273505119392865,49.47337681875236],[0.527458462358887,49.47113100002361],[0.5309046674072544,49.47120129712567],[0.5310124581537609,49.46895546987304],[0.5344585223592385,49.469025666063],[0.534566153458829,49.46677983029442],[0.5276743349325337,49.46663934568237],[0.5275664033562247,49.46888517566572],[0.5241203579797175,49.46881478344146],[0.523904166050493,49.47330642073038],[0.5273505119392865,49.47337681875236]]],[[[0.5405991022243819,49.484886497451605],[0.5407064984488236,49.4826406953647],[0.5441534925304693,49.48271061477422],[0.5443679562231345,49.478218987905386],[0.5478146590359289,49.478288803521416],[0.5482428729987868,49.46930547064185],[0.544796771292431,49.46923566652504],[0.5449039516677276,49.46698982210891],[0.5414580095596163,49.46691992285173],[0.541350678941662,49.46916576438937],[0.5379045959595682,49.46909576423523],[0.5377971057184175,49.47134159726529],[0.534350881864795,49.471271496206356],[0.5341355726864313,49.47576313960293],[0.5306890576854927,49.47569293474038],[0.5305812387077745,49.4779387450952],[0.5271345828283661,49.47786843930802],[0.5269186160135938,49.482360037303685],[0.5303655725125002,49.48243034888162],[0.5302577252924806,49.48467614230595],[0.5405991022243819,49.484886497451605]]]]}},{"type":"Feature","properties":{"category":"observed_front","snapshot_index":2,"pass_time_utc":"2026-10-03T01:58:00+00:00","dt_local":"2026-10-03T03:58:00+02:00","area_km2":1.625,"label":"Activité observée","coherence_level":"indisponible","coherence_fraction":0.0,"projection_displayed":false,"model_version":"fire_progression_arrival_v1"},"geometry":{"type":"Polygon","coordinates":[[[0.5302577252924806,49.48467614230595],[0.5303655725125002,49.48243034888162],[0.5269186160135938,49.482360037303685],[0.5271345828283661,49.47786843930802],[0.5305812387077745,49.4779387450952],[0.5306890576854927,49.47569293474038],[0.5341355726864313,49.47576313960293],[0.534350881864795,49.471271496206356],[0.5377971057184175,49.47134159726529],[0.5379045959595682,49.46909576423523],[0.541350678941662,49.46916576438937],[0.541243338955032,49.47141160030209],[0.5446895815615481,49.47148150531639],[0.5445823824738544,49.473727338479314],[0.5480287847072444,49.47379714834545],[0.5478146590359289,49.478288803521416],[0.5443679562231345,49.478218987905386],[0.5441534925304693,49.48271061477422],[0.5407064984488236,49.4826406953647],[0.5405991022243819,49.484886497451605],[0.5302577252924806,49.48467614230595]]]}},{"type":"Feature","properties":{"category":"firms_extent_snapshot","snapshot_index":3,"pass_time_utc":"2026-10-04T02:21:00+00:00","dt_local":"2026-10-04T04:21:00+02:00","label":"Emprise FIRMS cumulée à ce passage","interpretation":"Enveloppe des détections FIRMS, pas une surface brûlée","cumulative":true,"point_count":4,"extent_method":"cumulative_detection_extent_smoothed_landmasked_web_v1","local_cluster_link_m":10000.0,"model_version":"fire_progression_arrival_v1"},"geometry":{"type":"Polygon","coordinates":[[[0.5322458346944412,49.480712896916515],[0.5345208813449772,49.48121361432222],[0.5368394548973329,49.480806377602065],[0.5384199617495814,49.47962846697066],[0.5393583431029113,49.4772321053627],[0.5386786275871724,49.473263381827834],[0.5361029848283264,49.47206452866495],[0.5358253514288707,49.47209468199202],[0.5353094256536205,49.47286461517427],[0.52929453138387,49.47776381347029],[0.5297009441544912,49.47874645346076],[0.5322458346944412,49.480712896916515]]]}},{"type":"Feature","properties":{"category":"historical_support","snapshot_index":3,"pass_time_utc":"2026-10-04T02:21:00+00:00","dt_local":"2026-10-04T04:21:00+02:00","area_km2":2.188,"label":"Isoline temporelle","coherence_level":"indisponible","coherence_fraction":0.0,"projection_displayed":false,"model_version":"fire_progression_arrival_v1"},"geometry":{"type":"MultiPolygon","coordinates":[[[[0.5273505119392865,49.47337681875236],[0.527458462358887,49.47113100002361],[0.5309046674072544,49.47120129712567],[0.5310124581537609,49.46895546987304],[0.5344585223592385,49.469025666063],[0.534566153458829,49.46677983029442],[0.5276743349325337,49.46663934568237],[0.5275664033562247,49.46888517566572],[0.5241203579797175,49.46881478344146],[0.523904166050493,49.47330642073038],[0.5273505119392865,49.47337681875236]]],[[[0.5405991022243819,49.484886497451605],[0.5407064984488236,49.4826406953647],[0.5441534925304693,49.48271061477422],[0.5443679562231345,49.478218987905386],[0.5478146590359289,49.478288803521416],[0.5482428729987868,49.46930547064185],[0.544796771292431,49.46923566652504],[0.5449039516677276,49.46698982210891],[0.5414580095596163,49.46691992285173],[0.541350678941662,49.46916576438937],[0.5379045959595682,49.46909576423523],[0.5377971057184175,49.47134159726529],[0.534350881864795,49.471271496206356],[0.5341355726864313,49.47576313960293],[0.5306890576854927,49.47569293474038],[0.5305812387077745,49.4779387450952],[0.5271345828283661,49.47786843930802],[0.5269186160135938,49.482360037303685],[0.5303655725125002,49.48243034888162],[0.5302577252924806,49.48467614230595],[0.5405991022243819,49.484886497451605]]]]}},{"type":"Feature","properties":{"category":"observed_front","snapshot_index":3,"pass_time_utc":"2026-10-04T02:21:00+00:00","dt_local":"2026-10-04T04:21:00+02:00","area_km2":1.438,"label":"Activité observée","coherence_level":"indisponible","coherence_fraction":0.0,"projection_displayed":false,"model_version":"fire_progression_arrival_v1"},"geometry":{"type":"MultiPolygon","coordinates":[[[[0.5273505119392865,49.47337681875236],[0.527458462358887,49.47113100002361],[0.5309046674072544,49.47120129712567],[0.5310124581537609,49.46895546987304],[0.5344585223592385,49.469025666063],[0.534566153458829,49.46677983029442],[0.5276743349325337,49.46663934568237],[0.5275664033562247,49.46888517566572],[0.5241203579797175,49.46881478344146],[0.523904166050493,49.47330642073038],[0.5273505119392865,49.47337681875236]]],[[[0.5372595137432141,49.482570677912506],[0.53736705091161,49.48032487306224],[0.5408138852972294,49.48039488763108],[0.5409212627708259,49.47814907425436],[0.5443679562231345,49.478218987905386],[0.5446895815615481,49.47148150531639],[0.541243338955032,49.47141160030209],[0.541350678941662,49.46916576438937],[0.5379045959595682,49.46909576423523],[0.5377971057184175,49.47134159726529],[0.534350881864795,49.471271496206356],[0.5341355726864313,49.47576313960293],[0.5306890576854927,49.47569293474038],[0.5305812387077745,49.4779387450952],[0.5271345828283661,49.47786843930802],[0.5269186160135938,49.482360037303685],[0.5372595137432141,49.482570677912506]]]]}},{"type":"Feature","properties":{"category":"firms_extent_snapshot","snapshot_index":4,"pass_time_utc":"2026-10-05T01:20:00+00:00","dt_local":"2026-10-05T03:20:00+02:00","label":"Emprise FIRMS cumulée à ce passage","interpretation":"Enveloppe des détections FIRMS, pas une surface brûlée","cumulative":true,"point_count":5,"extent_method":"cumulative_detection_extent_smoothed_landmasked_web_v1","local_cluster_link_m":10000.0,"model_version":"fire_progression_arrival_v1"},"geometry":{"type":"Polygon","coordinates":[[[0.5322458346944412,49.480712896916515],[0.5353299014595417,49.48117826781767],[0.538015641489657,49.480086395101054],[0.5393713049948522,49.47717765280973],[0.5392999848360792,49.47456466648283],[0.5388369574319977,49.47344558370057],[0.5375737592815274,49.47249703056628],[0.5355288548075513,49.472188458900725],[0.5299458324732224,49.47680178759713],[0.5291264312051798,49.4777117224492],[0.5295032686152342,49.478515469635006],[0.5322458346944412,49.480712896916515]]]}},{"type":"Feature","properties":{"category":"historical_support","snapshot_index":4,"pass_time_utc":"2026-10-05T01:20:00+00:00","dt_local":"2026-10-05T03:20:00+02:00","area_km2":2.188,"label":"Isoline temporelle","coherence_level":"indisponible","coherence_fraction":0.0,"projection_displayed":false,"model_version":"fire_progression_arrival_v1"},"geometry":{"type":"MultiPolygon","coordinates":[[[[0.5273505119392865,49.47337681875236],[0.527458462358887,49.47113100002361],[0.5309046674072544,49.47120129712567],[0.5310124581537609,49.46895546987304],[0.5344585223592385,49.469025666063],[0.534566153458829,49.46677983029442],[0.5276743349325337,49.46663934568237],[0.5275664033562247,49.46888517566572],[0.5241203579797175,49.46881478344146],[0.523904166050493,49.47330642073038],[0.5273505119392865,49.47337681875236]]],[[[0.5405991022243819,49.484886497451605],[0.5407064984488236,49.4826406953647],[0.5441534925304693,49.48271061477422],[0.5443679562231345,49.478218987905386],[0.5478146590359289,49.478288803521416],[0.5482428729987868,49.46930547064185],[0.544796771292431,49.46923566652504],[0.5449039516677276,49.46698982210891],[0.5414580095596163,49.46691992285173],[0.541350678941662,49.46916576438937],[0.5379045959595682,49.46909576423523],[0.5377971057184175,49.47134159726529],[0.534350881864795,49.471271496206356],[0.5341355726864313,49.47576313960293],[0.5306890576854927,49.47569293474038],[0.5305812387077745,49.4779387450952],[0.5271345828283661,49.47786843930802],[0.5269186160135938,49.482360037303685],[0.5303655725125002,49.48243034888162],[0.5302577252924806,49.48467614230595],[0.5405991022243819,49.484886497451605]]]]}},{"type":"Feature","properties":{"category":"observed_front","snapshot_index":4,"pass_time_utc":"2026-10-05T01:20:00+00:00","dt_local":"2026-10-05T03:20:00+02:00","area_km2":1.188,"label":"Activité observée","coherence_level":"indisponible","coherence_fraction":0.0,"projection_displayed":false,"model_version":"fire_progression_arrival_v1"},"geometry":{"type":"MultiPolygon","coordinates":[[[[0.5273505119392865,49.47337681875236],[0.527458462358887,49.47113100002361],[0.5309046674072544,49.47120129712567],[0.5310124581537609,49.46895546987304],[0.5344585223592385,49.469025666063],[0.534566153458829,49.46677983029442],[0.5276743349325337,49.46663934568237],[0.5275664033562247,49.46888517566572],[0.5241203579797175,49.46881478344146],[0.523904166050493,49.47330642073038],[0.5273505119392865,49.47337681875236]]],[[[0.53736705091161,49.48032487306224],[0.5374745786920997,49.478079062568746],[0.5409212627708259,49.47814907425436],[0.5410286308708406,49.47590325523822],[0.5444751740281246,49.47597316601019],[0.544796771292431,49.46923566652504],[0.5379045959595682,49.46909576423523],[0.5377971057184175,49.47134159726529],[0.534350881864795,49.471271496206356],[0.5341355726864313,49.47576313960293],[0.5306890576854927,49.47569293474038],[0.5305812387077745,49.4779387450952],[0.5271345828283661,49.47786843930802],[0.5270266041345784,49.480114241127666],[0.53736705091161,49.48032487306224]]]]}},{"type":"Feature","properties":{"category":"historical_support","snapshot_index":5,"pass_time_utc":"2026-10-05T02:04:00+00:00","dt_local":"2026-10-05T04:04:00+02:00","area_km2":2.188,"label":"Isoline temporelle","coherence_level":"indisponible","coherence_fraction":0.0,"projection_displayed":false,"model_version":"fire_progression_arrival_v1"},"geometry":{"type":"MultiPolygon","coordinates":[[[[0.5273505119392865,49.47337681875236],[0.527458462358887,49.47113100002361],[0.5309046674072544,49.47120129712567],[0.5310124581537609,49.46895546987304],[0.5344585223592385,49.469025666063],[0.534566153458829,49.46677983029442],[0.5276743349325337,49.46663934568237],[0.5275664033562247,49.46888517566572],[0.5241203579797175,49.46881478344146],[0.523904166050493,49.47330642073038],[0.5273505119392865,49.47337681875236]]],[[[0.5405991022243819,49.484886497451605],[0.5407064984488236,49.4826406953647],[0.5441534925304693,49.48271061477422],[0.5443679562231345,49.478218987905386],[0.5478146590359289,49.478288803521416],[0.5482428729987868,49.46930547064185],[0.544796771292431,49.46923566652504],[0.5449039516677276,49.46698982210891],[0.5414580095596163,49.46691992285173],[0.541350678941662,49.46916576438937],[0.5379045959595682,49.46909576423523],[0.5377971057184175,49.47134159726529],[0.534350881864795,49.471271496206356],[0.5341355726864313,49.47576313960293],[0.5306890576854927,49.47569293474038],[0.5305812387077745,49.4779387450952],[0.5271345828283661,49.47786843930802],[0.5269186160135938,49.482360037303685],[0.5303655725125002,49.48243034888162],[0.5302577252924806,49.48467614230595],[0.5405991022243819,49.484886497451605]]]]}},{"type":"Feature","properties":{"category":"observed_front","snapshot_index":5,"pass_time_utc":"2026-10-05T02:04:00+00:00","dt_local":"2026-10-05T04:04:00+02:00","area_km2":1.5,"label":"Activité observée","coherence_level":"indisponible","coherence_fraction":0.0,"projection_displayed":false,"model_version":"fire_progression_arrival_v1"},"geometry":{"type":"MultiPolygon","coordinates":[[[[0.5273505119392865,49.47337681875236],[0.527458462358887,49.47113100002361],[0.5309046674072544,49.47120129712567],[0.5310124581537609,49.46895546987304],[0.5344585223592385,49.469025666063],[0.534566153458829,49.46677983029442],[0.5276743349325337,49.46663934568237],[0.5275664033562247,49.46888517566572],[0.5241203579797175,49.46881478344146],[0.523904166050493,49.47330642073038],[0.5273505119392865,49.47337681875236]]],[[[0.5408138852972294,49.48039488763108],[0.5409212627708259,49.47814907425436],[0.5443679562231345,49.478218987905386],[0.5444751740281246,49.47597316601019],[0.5479217265446699,49.4760429787512],[0.5482428729987868,49.46930547064185],[0.544796771292431,49.46923566652504],[0.5449039516677276,49.46698982210891],[0.5414580095596163,49.46691992285173],[0.541350678941662,49.46916576438937],[0.5379045959595682,49.46909576423523],[0.5377971057184175,49.47134159726529],[0.534350881864795,49.471271496206356],[0.5341355726864313,49.47576313960293],[0.5306890576854927,49.47569293474038],[0.5304734103171873,49.48018454981016],[0.5408138852972294,49.48039488763108]]]]}},{"type":"Feature","properties":{"category":"firms_extent_snapshot","snapshot_index":6,"pass_time_utc":"2026-10-05T02:41:00+00:00","dt_local":"2026-10-05T04:41:00+02:00","label":"Emprise FIRMS cumulée à ce passage","interpretation":"Enveloppe des détections FIRMS, pas une surface brûlée","cumulative":true,"point_count":7,"extent_method":"cumulative_detection_extent_smoothed_landmasked_web_v1","local_cluster_link_m":10000.0,"model_version":"fire_progression_arrival_v1"},"geometry":{"type":"Polygon","coordinates":[[[0.5319275255198973,49.4805487927577],[0.5337168239573242,49.48114544152414],[0.5371045995215432,49.480688066160624],[0.5404537957135492,49.47867373672333],[0.5413693001593171,49.47750785379291],[0.5413092103517705,49.476145597052856],[0.5395986266263352,49.4736233557531],[0.5361029848283264,49.47206452866495],[0.5356587405402662,49.47208111933333],[0.5299458324732224,49.47680178759713],[0.529165470554357,49.47766837061709],[0.5297009441544912,49.47874645346076],[0.5319275255198973,49.4805487927577]]]}},{"type":"Feature","properties":{"category":"historical_support","snapshot_index":6,"pass_time_utc":"2026-10-05T02:41:00+00:00","dt_local":"2026-10-05T04:41:00+02:00","area_km2":2.188,"label":"Isoline temporelle","coherence_level":"indisponible","coherence_fraction":0.0,"projection_displayed":false,"model_version":"fire_progression_arrival_v1"},"geometry":{"type":"MultiPolygon","coordinates":[[[[0.5273505119392865,49.47337681875236],[0.527458462358887,49.47113100002361],[0.5309046674072544,49.47120129712567],[0.5310124581537609,49.46895546987304],[0.5344585223592385,49.469025666063],[0.534566153458829,49.46677983029442],[0.5276743349325337,49.46663934568237],[0.5275664033562247,49.46888517566572],[0.5241203579797175,49.46881478344146],[0.523904166050493,49.47330642073038],[0.5273505119392865,49.47337681875236]]],[[[0.5405991022243819,49.484886497451605],[0.5407064984488236,49.4826406953647],[0.5441534925304693,49.48271061477422],[0.5443679562231345,49.478218987905386],[0.5478146590359289,49.478288803521416],[0.5482428729987868,49.46930547064185],[0.544796771292431,49.46923566652504],[0.5449039516677276,49.46698982210891],[0.5414580095596163,49.46691992285173],[0.541350678941662,49.46916576438937],[0.5379045959595682,49.46909576423523],[0.5377971057184175,49.47134159726529],[0.534350881864795,49.471271496206356],[0.5341355726864313,49.47576313960293],[0.5306890576854927,49.47569293474038],[0.5305812387077745,49.4779387450952],[0.5271345828283661,49.47786843930802],[0.5269186160135938,49.482360037303685],[0.5303655725125002,49.48243034888162],[0.5302577252924806,49.48467614230595],[0.5405991022243819,49.484886497451605]]]]}},{"type":"Feature","properties":{"category":"observed_front","snapshot_index":6,"pass_time_utc":"2026-10-05T02:41:00+00:00","dt_local":"2026-10-05T04:41:00+02:00","area_km2":1.625,"label":"Activité observée","coherence_level":"indisponible","coherence_fraction":0.0,"projection_displayed":false,"model_version":"fire_progression_arrival_v1"},"geometry":{"type":"MultiPolygon","coordinates":[[[[0.534566153458829,49.46677983029442],[0.5311202394923261,49.46670963699505],[0.5310124581537609,49.46895546987304],[0.5344585223592385,49.469025666063],[0.534566153458829,49.46677983029442]]],[[[0.527458462358887,49.47113100002361],[0.5309046674072544,49.47120129712567],[0.5310124581537609,49.46895546987304],[0.5275664033562247,49.46888517566572],[0.527458462358887,49.47113100002361]]],[[[0.527458462358887,49.47113100002361],[0.5240122667327813,49.47106060490055],[0.523904166050493,49.47330642073038],[0.5273505119392865,49.47337681875236],[0.527458462358887,49.47113100002361]]],[[[0.5408138852972294,49.48039488763108],[0.5442607290576578,49.48046480416127],[0.5443679562231345,49.478218987905386],[0.5478146590359289,49.478288803521416],[0.5481358335248757,49.47155131230779],[0.5446895815615481,49.47148150531639],[0.544796771292431,49.46923566652504],[0.5379045959595682,49.46909576423523],[0.5377971057184175,49.47134159726529],[0.534350881864795,49.471271496206356],[0.5341355726864313,49.47576313960293],[0.5306890576854927,49.47569293474038],[0.5305812387077745,49.4779387450952],[0.5271345828283661,49.47786843930802],[0.5270266041345784,49.480114241127666],[0.5304734103171873,49.48018454981016],[0.5303655725125002,49.48243034888162],[0.5407064984488236,49.4826406953647],[0.5408138852972294,49.48039488763108]]]]}},{"type":"Feature","properties":{"category":"historical_support","snapshot_index":7,"pass_time_utc":"2026-10-05T11:51:00+00:00","dt_local":"2026-10-05T13:51:00+02:00","area_km2":2.188,"label":"Isoline temporelle","coherence_level":"indisponible","coherence_fraction":0.0,"projection_displayed":false,"model_version":"fire_progression_arrival_v1"},"geometry":{"type":"MultiPolygon","coordinates":[[[[0.5273505119392865,49.47337681875236],[0.527458462358887,49.47113100002361],[0.5309046674072544,49.47120129712567],[0.5310124581537609,49.46895546987304],[0.5344585223592385,49.469025666063],[0.534566153458829,49.46677983029442],[0.5276743349325337,49.46663934568237],[0.5275664033562247,49.46888517566572],[0.5241203579797175,49.46881478344146],[0.523904166050493,49.47330642073038],[0.5273505119392865,49.47337681875236]]],[[[0.5405991022243819,49.484886497451605],[0.5407064984488236,49.4826406953647],[0.5441534925304693,49.48271061477422],[0.5443679562231345,49.478218987905386],[0.5478146590359289,49.478288803521416],[0.5482428729987868,49.46930547064185],[0.544796771292431,49.46923566652504],[0.5449039516677276,49.46698982210891],[0.5414580095596163,49.46691992285173],[0.541350678941662,49.46916576438937],[0.5379045959595682,49.46909576423523],[0.5377971057184175,49.47134159726529],[0.534350881864795,49.471271496206356],[0.5341355726864313,49.47576313960293],[0.5306890576854927,49.47569293474038],[0.5305812387077745,49.4779387450952],[0.5271345828283661,49.47786843930802],[0.5269186160135938,49.482360037303685],[0.5303655725125002,49.48243034888162],[0.5302577252924806,49.48467614230595],[0.5405991022243819,49.484886497451605]]]]}},{"type":"Feature","properties":{"category":"historical_support","snapshot_index":8,"pass_time_utc":"2026-10-05T12:49:00+00:00","dt_local":"2026-10-05T14:49:00+02:00","area_km2":4.5,"label":"Isoline temporelle","coherence_level":"indisponible","coherence_fraction":0.0,"projection_displayed":false,"model_version":"fire_progression_arrival_v1"},"geometry":{"type":"MultiPolygon","coordinates":[[[[0.5273505119392865,49.47337681875236],[0.527458462358887,49.47113100002361],[0.5309046674072544,49.47120129712567],[0.5310124581537609,49.46895546987304],[0.5344585223592385,49.469025666063],[0.534566153458829,49.46677983029442],[0.5276743349325337,49.46663934568237],[0.5275664033562247,49.46888517566572],[0.5241203579797175,49.46881478344146],[0.523904166050493,49.47330642073038],[0.5273505119392865,49.47337681875236]]],[[[0.5405991022243819,49.484886497451605],[0.5407064984488236,49.4826406953647],[0.5441534925304693,49.48271061477422],[0.5443679562231345,49.478218987905386],[0.5478146590359289,49.478288803521416],[0.5481358335248757,49.47155131230779],[0.5515820948319228,49.47162102127593],[0.5514751962855775,49.47386686018431],[0.5618144869593066,49.47407540753335],[0.5619209346844732,49.47182956003706],[0.5653672332354879,49.47189887690841],[0.5654735214062314,49.469653020929954],[0.5689196789712248,49.46972223692575],[0.5692380371117085,49.46298462671074],[0.5657923302610294,49.46291541926532],[0.5658985813308645,49.460669540812795],[0.56245303396431,49.460600238212265],[0.5625594259595867,49.45835435700404],[0.552223290209521,49.45814586976176],[0.5521164476286361,49.46039174238455],[0.5486709374816852,49.46032204776785],[0.5485639353704272,49.46256791191062],[0.5451182843564585,49.462498116416775],[0.5449039516677276,49.46698982210891],[0.5414580095596163,49.46691992285173],[0.541350678941662,49.46916576438937],[0.5379045959595682,49.46909576423523],[0.5377971057184175,49.47134159726529],[0.534350881864795,49.471271496206356],[0.5341355726864313,49.47576313960293],[0.5306890576854927,49.47569293474038],[0.5305812387077745,49.4779387450952],[0.5271345828283661,49.47786843930802],[0.5269186160135938,49.482360037303685],[0.5303655725125002,49.48243034888162],[0.5302577252924806,49.48467614230595],[0.5405991022243819,49.484886497451605]]]]}},{"type":"Feature","properties":{"category":"observed_front","snapshot_index":8,"pass_time_utc":"2026-10-05T12:49:00+00:00","dt_local":"2026-10-05T14:49:00+02:00","area_km2":2.312,"label":"Activité observée","coherence_level":"indisponible","coherence_fraction":0.0,"projection_displayed":false,"model_version":"fire_progression_arrival_v1"},"geometry":{"type":"Polygon","coordinates":[[[0.5514751962855775,49.47386686018431],[0.5515820948319228,49.47162102127593],[0.5481358335248757,49.47155131230779],[0.5482428729987868,49.46930547064185],[0.544796771292431,49.46923566652504],[0.5451182843564585,49.462498116416775],[0.5485639353704272,49.46256791191062],[0.5486709374816852,49.46032204776785],[0.5521164476286361,49.46039174238455],[0.552223290209521,49.45814586976176],[0.5625594259595867,49.45835435700404],[0.56245303396431,49.460600238212265],[0.5658985813308645,49.460669540812795],[0.5657923302610294,49.46291541926532],[0.5692380371117085,49.46298462671074],[0.5689196789712248,49.46972223692575],[0.5654735214062314,49.469653020929954],[0.5653672332354879,49.47189887690841],[0.5619209346844732,49.47182956003706],[0.5618144869593066,49.47407540753335],[0.5514751962855775,49.47386686018431]]]}},{"type":"Feature","properties":{"category":"firms_extent_snapshot","snapshot_index":9,"pass_time_utc":"2026-10-05T13:31:00+00:00","dt_local":"2026-10-05T15:31:00+02:00","label":"Emprise FIRMS cumulée à ce passage","interpretation":"Enveloppe des détections FIRMS, pas une surface brûlée","cumulative":true,"point_count":10,"extent_method":"cumulative_detection_extent_smoothed_landmasked_web_v1","local_cluster_link_m":10000.0,"model_version":"fire_progression_arrival_v1"},"geometry":{"type":"MultiPolygon","coordinates":[[[[0.5504271576450832,49.46889419510914],[0.5545680310666276,49.4695171645201],[0.5578476251113027,49.470542532531],[0.5619707043872126,49.46985562868987],[0.5638107342727773,49.467946829164696],[0.5634152431714018,49.46640359219329],[0.5617709372510096,49.4652636229057],[0.5569045499228285,49.465006154681134],[0.5532925990222534,49.46399747848811],[0.5501714754759859,49.464569436874584],[0.548626959942215,49.46658641925709],[0.5490544899746966,49.467866081582905],[0.5504271576450832,49.46889419510914]]],[[[0.5319275255198973,49.4805487927577],[0.5337168239573242,49.48114544152414],[0.5371045995215432,49.480688066160624],[0.5404537957135492,49.47867373672333],[0.5413693001593171,49.47750785379291],[0.5413092103517705,49.476145597052856],[0.5395986266263352,49.4736233557531],[0.5361029848283264,49.47206452866495],[0.5359677978925825,49.47206957750585],[0.5353094256536205,49.47286461517427],[0.5292167612338675,49.47777163758256],[0.5297009441544912,49.47874645346076],[0.5319275255198973,49.4805487927577]]]]}},{"type":"Feature","properties":{"category":"historical_support","snapshot_index":9,"pass_time_utc":"2026-10-05T13:31:00+00:00","dt_local":"2026-10-05T15:31:00+02:00","area_km2":4.5,"label":"Isoline temporelle","coherence_level":"indisponible","coherence_fraction":0.0,"projection_displayed":false,"model_version":"fire_progression_arrival_v1"},"geometry":{"type":"MultiPolygon","coordinates":[[[[0.5273505119392865,49.47337681875236],[0.527458462358887,49.47113100002361],[0.5309046674072544,49.47120129712567],[0.5310124581537609,49.46895546987304],[0.5344585223592385,49.469025666063],[0.534566153458829,49.46677983029442],[0.5276743349325337,49.46663934568237],[0.5275664033562247,49.46888517566572],[0.5241203579797175,49.46881478344146],[0.523904166050493,49.47330642073038],[0.5273505119392865,49.47337681875236]]],[[[0.5405991022243819,49.484886497451605],[0.5407064984488236,49.4826406953647],[0.5441534925304693,49.48271061477422],[0.5443679562231345,49.478218987905386],[0.5478146590359289,49.478288803521416],[0.5481358335248757,49.47155131230779],[0.5515820948319228,49.47162102127593],[0.5514751962855775,49.47386686018431],[0.5618144869593066,49.47407540753335],[0.5619209346844732,49.47182956003706],[0.5653672332354879,49.47189887690841],[0.5654735214062314,49.469653020929954],[0.5689196789712248,49.46972223692575],[0.5692380371117085,49.46298462671074],[0.5657923302610294,49.46291541926532],[0.5658985813308645,49.460669540812795],[0.56245303396431,49.460600238212265],[0.5625594259595867,49.45835435700404],[0.552223290209521,49.45814586976176],[0.5521164476286361,49.46039174238455],[0.5486709374816852,49.46032204776785],[0.5485639353704272,49.46256791191062],[0.5451182843564585,49.462498116416775],[0.5449039516677276,49.46698982210891],[0.5414580095596163,49.46691992285173],[0.541350678941662,49.46916576438937],[0.5379045959595682,49.46909576423523],[0.5377971057184175,49.47134159726529],[0.534350881864795,49.471271496206356],[0.5341355726864313,49.47576313960293],[0.5306890576854927,49.47569293474038],[0.5305812387077745,49.4779387450952],[0.5271345828283661,49.47786843930802],[0.5269186160135938,49.482360037303685],[0.5303655725125002,49.48243034888162],[0.5302577252924806,49.48467614230595],[0.5405991022243819,49.484886497451605]]]]}},{"type":"Feature","properties":{"category":"observed_front","snapshot_index":9,"pass_time_utc":"2026-10-05T13:31:00+00:00","dt_local":"2026-10-05T15:31:00+02:00","area_km2":1.875,"label":"Activité observée","coherence_level":"indisponible","coherence_fraction":0.0,"projection_displayed":false,"model_version":"fire_progression_arrival_v1"},"geometry":{"type":"Polygon","coordinates":[[[0.5549216171957607,49.473936473995494],[0.5550283654695992,49.47169063222045],[0.5515820948319228,49.47162102127593],[0.5516889840476397,49.469375176739426],[0.5482428729987868,49.46930547064185],[0.5485639353704272,49.46256791191062],[0.5520095957232262,49.46263760939734],[0.5521164476286361,49.46039174238455],[0.5555619671001124,49.46046133899777],[0.5556686594870124,49.458215463509134],[0.5625594259595867,49.45835435700404],[0.56245303396431,49.460600238212265],[0.5658985813308645,49.460669540812795],[0.5657923302610294,49.46291541926532],[0.5692380371117085,49.46298462671074],[0.5689196789712248,49.46972223692575],[0.5654735214062314,49.469653020929954],[0.5653672332354879,49.47189887690841],[0.5619209346844732,49.47182956003706],[0.5618144869593066,49.47407540753335],[0.5549216171957607,49.473936473995494]]]}},{"type":"Feature","properties":{"category":"historical_support","snapshot_index":10,"pass_time_utc":"2026-10-06T01:45:00+00:00","dt_local":"2026-10-06T03:45:00+02:00","area_km2":4.5,"label":"Isoline temporelle","coherence_level":"indisponible","coherence_fraction":0.0,"projection_displayed":false,"model_version":"fire_progression_arrival_v1"},"geometry":{"type":"MultiPolygon","coordinates":[[[[0.5273505119392865,49.47337681875236],[0.527458462358887,49.47113100002361],[0.5309046674072544,49.47120129712567],[0.5310124581537609,49.46895546987304],[0.5344585223592385,49.469025666063],[0.534566153458829,49.46677983029442],[0.5276743349325337,49.46663934568237],[0.5275664033562247,49.46888517566572],[0.5241203579797175,49.46881478344146],[0.523904166050493,49.47330642073038],[0.5273505119392865,49.47337681875236]]],[[[0.5405991022243819,49.484886497451605],[0.5407064984488236,49.4826406953647],[0.5441534925304693,49.48271061477422],[0.5443679562231345,49.478218987905386],[0.5478146590359289,49.478288803521416],[0.5481358335248757,49.47155131230779],[0.5515820948319228,49.47162102127593],[0.5514751962855775,49.47386686018431],[0.5618144869593066,49.47407540753335],[0.5619209346844732,49.47182956003706],[0.5653672332354879,49.47189887690841],[0.5654735214062314,49.469653020929954],[0.5689196789712248,49.46972223692575],[0.5692380371117085,49.46298462671074],[0.5657923302610294,49.46291541926532],[0.5658985813308645,49.460669540812795],[0.56245303396431,49.460600238212265],[0.5625594259595867,49.45835435700404],[0.552223290209521,49.45814586976176],[0.5521164476286361,49.46039174238455],[0.5486709374816852,49.46032204776785],[0.5485639353704272,49.46256791191062],[0.5451182843564585,49.462498116416775],[0.5449039516677276,49.46698982210891],[0.5414580095596163,49.46691992285173],[0.541350678941662,49.46916576438937],[0.5379045959595682,49.46909576423523],[0.5377971057184175,49.47134159726529],[0.534350881864795,49.471271496206356],[0.5341355726864313,49.47576313960293],[0.5306890576854927,49.47569293474038],[0.5305812387077745,49.4779387450952],[0.5271345828283661,49.47786843930802],[0.5269186160135938,49.482360037303685],[0.5303655725125002,49.48243034888162],[0.5302577252924806,49.48467614230595],[0.5405991022243819,49.484886497451605]]]]}},{"type":"Feature","properties":{"category":"observed_front","snapshot_index":10,"pass_time_utc":"2026-10-06T01:45:00+00:00","dt_local":"2026-10-06T03:45:00+02:00","area_km2":1.625,"label":"Activité observée","coherence_level":"indisponible","coherence_fraction":0.0,"projection_displayed":false,"model_version":"fire_progression_arrival_v1"},"geometry":{"type":"MultiPolygon","coordinates":[[[[0.534566153458829,49.46677983029442],[0.5311202394923261,49.46670963699505],[0.5310124581537609,49.46895546987304],[0.5344585223592385,49.469025666063],[0.534566153458829,49.46677983029442]]],[[[0.527458462358887,49.47113100002361],[0.5309046674072544,49.47120129712567],[0.5310124581537609,49.46895546987304],[0.5275664033562247,49.46888517566572],[0.527458462358887,49.47113100002361]]],[[[0.527458462358887,49.47113100002361],[0.5240122667327813,49.47106060490055],[0.523904166050493,49.47330642073038],[0.5273505119392865,49.47337681875236],[0.527458462358887,49.47113100002361]]],[[[0.5408138852972294,49.48039488763108],[0.5442607290576578,49.48046480416127],[0.5443679562231345,49.478218987905386],[0.5478146590359289,49.478288803521416],[0.5481358335248757,49.47155131230779],[0.5446895815615481,49.47148150531639],[0.544796771292431,49.46923566652504],[0.5379045959595682,49.46909576423523],[0.5377971057184175,49.47134159726529],[0.534350881864795,49.471271496206356],[0.5341355726864313,49.47576313960293],[0.5306890576854927,49.47569293474038],[0.5305812387077745,49.4779387450952],[0.5271345828283661,49.47786843930802],[0.5270266041345784,49.480114241127666],[0.5304734103171873,49.48018454981016],[0.5303655725125002,49.48243034888162],[0.5407064984488236,49.4826406953647],[0.5408138852972294,49.48039488763108]]]]}},{"type":"Feature","properties":{"category":"historical_support","snapshot_index":11,"pass_time_utc":"2026-10-06T02:21:00+00:00","dt_local":"2026-10-06T04:21:00+02:00","area_km2":4.5,"label":"Isoline temporelle","coherence_level":"indisponible","coherence_fraction":0.0,"projection_displayed":false,"model_version":"fire_progression_arrival_v1"},"geometry":{"type":"MultiPolygon","coordinates":[[[[0.5273505119392865,49.47337681875236],[0.527458462358887,49.47113100002361],[0.5309046674072544,49.47120129712567],[0.5310124581537609,49.46895546987304],[0.5344585223592385,49.469025666063],[0.534566153458829,49.46677983029442],[0.5276743349325337,49.46663934568237],[0.5275664033562247,49.46888517566572],[0.5241203579797175,49.46881478344146],[0.523904166050493,49.47330642073038],[0.5273505119392865,49.47337681875236]]],[[[0.5405991022243819,49.484886497451605],[0.5407064984488236,49.4826406953647],[0.5441534925304693,49.48271061477422],[0.5443679562231345,49.478218987905386],[0.5478146590359289,49.478288803521416],[0.5481358335248757,49.47155131230779],[0.5515820948319228,49.47162102127593],[0.5514751962855775,49.47386686018431],[0.5618144869593066,49.47407540753335],[0.5619209346844732,49.47182956003706],[0.5653672332354879,49.47189887690841],[0.5654735214062314,49.469653020929954],[0.5689196789712248,49.46972223692575],[0.5692380371117085,49.46298462671074],[0.5657923302610294,49.46291541926532],[0.5658985813308645,49.460669540812795],[0.56245303396431,49.460600238212265],[0.5625594259595867,49.45835435700404],[0.552223290209521,49.45814586976176],[0.5521164476286361,49.46039174238455],[0.5486709374816852,49.46032204776785],[0.5485639353704272,49.46256791191062],[0.5451182843564585,49.462498116416775],[0.5449039516677276,49.46698982210891],[0.5414580095596163,49.46691992285173],[0.541350678941662,49.46916576438937],[0.5379045959595682,49.46909576423523],[0.5377971057184175,49.47134159726529],[0.534350881864795,49.471271496206356],[0.5341355726864313,49.47576313960293],[0.5306890576854927,49.47569293474038],[0.5305812387077745,49.4779387450952],[0.5271345828283661,49.47786843930802],[0.5269186160135938,49.482360037303685],[0.5303655725125002,49.48243034888162],[0.5302577252924806,49.48467614230595],[0.5405991022243819,49.484886497451605]]]]}},{"type":"Feature","properties":{"category":"observed_front","snapshot_index":11,"pass_time_utc":"2026-10-06T02:21:00+00:00","dt_local":"2026-10-06T04:21:00+02:00","area_km2":1.625,"label":"Activité observée","coherence_level":"indisponible","coherence_fraction":0.0,"projection_displayed":false,"model_version":"fire_progression_arrival_v1"},"geometry":{"type":"Polygon","coordinates":[[[0.5302577252924806,49.48467614230595],[0.5303655725125002,49.48243034888162],[0.5269186160135938,49.482360037303685],[0.5271345828283661,49.47786843930802],[0.5305812387077745,49.4779387450952],[0.5306890576854927,49.47569293474038],[0.5341355726864313,49.47576313960293],[0.534350881864795,49.471271496206356],[0.5377971057184175,49.47134159726529],[0.5379045959595682,49.46909576423523],[0.541350678941662,49.46916576438937],[0.541243338955032,49.47141160030209],[0.5446895815615481,49.47148150531639],[0.5445823824738544,49.473727338479314],[0.5480287847072444,49.47379714834545],[0.5478146590359289,49.478288803521416],[0.5443679562231345,49.478218987905386],[0.5441534925304693,49.48271061477422],[0.5407064984488236,49.4826406953647],[0.5405991022243819,49.484886497451605],[0.5302577252924806,49.48467614230595]]]}},{"type":"Feature","properties":{"category":"firms_extent_snapshot","snapshot_index":12,"pass_time_utc":"2026-10-06T02:43:00+00:00","dt_local":"2026-10-06T04:43:00+02:00","label":"Emprise FIRMS cumulée à ce passage","interpretation":"Enveloppe des détections FIRMS, pas une surface brûlée","cumulative":true,"point_count":14,"extent_method":"cumulative_detection_extent_smoothed_landmasked_web_v1","local_cluster_link_m":10000.0,"model_version":"fire_progression_arrival_v1"},"geometry":{"type":"MultiPolygon","coordinates":[[[[0.5531496049791579,49.47069022696603],[0.5550874749405581,49.47120251846787],[0.5618273046630655,49.469913981406826],[0.5631231085753872,49.469120094717006],[0.5638107342727773,49.467946829164696],[0.5634152431714018,49.46640359219329],[0.5617709372510096,49.4652636229057],[0.5569045499228285,49.465006154681134],[0.5532925990222534,49.46399747848811],[0.5501714754759859,49.464569436874584],[0.548626959942215,49.46658641925709],[0.549746781937066,49.46851562419219],[0.5531496049791579,49.47069022696603]]],[[[0.5294574376471405,49.48036873766926],[0.5312467011762643,49.480965423022724],[0.5364849591913939,49.48093519939356],[0.5403965898300259,49.47871432047736],[0.5413693001593171,49.47750785379291],[0.5413092103517705,49.476145597052856],[0.5395986266263352,49.4736233557531],[0.5361029848283264,49.47206452866495],[0.5359677978925825,49.47206957750585],[0.5353094256536205,49.47286461517427],[0.5282698123557601,49.47853419481891],[0.5283111976314403,49.479292939053344],[0.5294574376471405,49.48036873766926]]]]}},{"type":"Feature","properties":{"category":"historical_support","snapshot_index":12,"pass_time_utc":"2026-10-06T02:43:00+00:00","dt_local":"2026-10-06T04:43:00+02:00","area_km2":4.625,"label":"Isoline temporelle","coherence_level":"indisponible","coherence_fraction":0.0,"projection_displayed":false,"model_version":"fire_progression_arrival_v1"},"geometry":{"type":"MultiPolygon","coordinates":[[[[0.5273505119392865,49.47337681875236],[0.527458462358887,49.47113100002361],[0.5309046674072544,49.47120129712567],[0.5310124581537609,49.46895546987304],[0.5344585223592385,49.469025666063],[0.534566153458829,49.46677983029442],[0.5276743349325337,49.46663934568237],[0.5275664033562247,49.46888517566572],[0.5241203579797175,49.46881478344146],[0.523904166050493,49.47330642073038],[0.5273505119392865,49.47337681875236]]],[[[0.5407064984488236,49.4826406953647],[0.5441534925304693,49.48271061477422],[0.5443679562231345,49.478218987905386],[0.5478146590359289,49.478288803521416],[0.5481358335248757,49.47155131230779],[0.5515820948319228,49.47162102127593],[0.5514751962855775,49.47386686018431],[0.5618144869593066,49.47407540753335],[0.5619209346844732,49.47182956003706],[0.5653672332354879,49.47189887690841],[0.5654735214062314,49.469653020929954],[0.5689196789712248,49.46972223692575],[0.5692380371117085,49.46298462671074],[0.5657923302610294,49.46291541926532],[0.5658985813308645,49.460669540812795],[0.56245303396431,49.460600238212265],[0.5625594259595867,49.45835435700404],[0.552223290209521,49.45814586976176],[0.5521164476286361,49.46039174238455],[0.5486709374816852,49.46032204776785],[0.5485639353704272,49.46256791191062],[0.5451182843564585,49.462498116416775],[0.5449039516677276,49.46698982210891],[0.5414580095596163,49.46691992285173],[0.541350678941662,49.46916576438937],[0.5379045959595682,49.46909576423523],[0.5377971057184175,49.47134159726529],[0.534350881864795,49.471271496206356],[0.5341355726864313,49.47576313960293],[0.5306890576854927,49.47569293474038],[0.5305812387077745,49.4779387450952],[0.5271345828283661,49.47786843930802],[0.5269186160135938,49.482360037303685],[0.5303655725125002,49.48243034888162],[0.5302577252924806,49.48467614230595],[0.5405991022243819,49.484886497451605],[0.5407064984488236,49.4826406953647]]],[[[0.523904166050493,49.47330642073038],[0.5204578295982862,49.47323592468375],[0.5202412993605329,49.47772753363479],[0.5236879363749213,49.47779803548777],[0.523904166050493,49.47330642073038]]]]}},{"type":"Feature","properties":{"category":"observed_front","snapshot_index":12,"pass_time_utc":"2026-10-06T02:43:00+00:00","dt_local":"2026-10-06T04:43:00+02:00","area_km2":4.125,"label":"Activité observée","coherence_level":"indisponible","coherence_fraction":0.0,"projection_displayed":false,"model_version":"fire_progression_arrival_v1"},"geometry":{"type":"MultiPolygon","coordinates":[[[[0.5310124581537609,49.46895546987304],[0.5275664033562247,49.46888517566572],[0.527458462358887,49.47113100002361],[0.5309046674072544,49.47120129712567],[0.5310124581537609,49.46895546987304]]],[[[0.5372595137432141,49.482570677912506],[0.5407064984488236,49.4826406953647],[0.5408138852972294,49.48039488763108],[0.5442607290576578,49.48046480416127],[0.5445823824738544,49.473727338479314],[0.5480287847072444,49.47379714834545],[0.5481358335248757,49.47155131230779],[0.5515820948319228,49.47162102127593],[0.5514751962855775,49.47386686018431],[0.5618144869593066,49.47407540753335],[0.5619209346844732,49.47182956003706],[0.5653672332354879,49.47189887690841],[0.5654735214062314,49.469653020929954],[0.5689196789712248,49.46972223692575],[0.5692380371117085,49.46298462671074],[0.5657923302610294,49.46291541926532],[0.5658985813308645,49.460669540812795],[0.56245303396431,49.460600238212265],[0.5625594259595867,49.45835435700404],[0.552223290209521,49.45814586976176],[0.5521164476286361,49.46039174238455],[0.5486709374816852,49.46032204776785],[0.5485639353704272,49.46256791191062],[0.5451182843564585,49.462498116416775],[0.544796771292431,49.46923566652504],[0.5379045959595682,49.46909576423523],[0.5377971057184175,49.47134159726529],[0.534350881864795,49.471271496206356],[0.5341355726864313,49.47576313960293],[0.5306890576854927,49.47569293474038],[0.5305812387077745,49.4779387450952],[0.5271345828283661,49.47786843930802],[0.5269186160135938,49.482360037303685],[0.5303655725125002,49.48243034888162],[0.5302577252924806,49.48467614230595],[0.5371519671856834,49.48481647711592],[0.5372595137432141,49.482570677912506]]],[[[0.527458462358887,49.47113100002361],[0.5240122667327813,49.47106060490055],[0.523904166050493,49.47330642073038],[0.5273505119392865,49.47337681875236],[0.527458462358887,49.47113100002361]]],[[[0.5202412993605329,49.47772753363479],[0.5236879363749213,49.47779803548777],[0.523904166050493,49.47330642073038],[0.5204578295982862,49.47323592468375],[0.5202412993605329,49.47772753363479]]]]}},{"type":"Feature","properties":{"category":"firms_extent_snapshot","snapshot_index":13,"pass_time_utc":"2026-10-06T11:32:00+00:00","dt_local":"2026-10-06T13:32:00+02:00","label":"Emprise FIRMS cumulée à ce passage","interpretation":"Enveloppe des détections FIRMS, pas une surface brûlée","cumulative":true,"point_count":15,"extent_method":"cumulative_detection_extent_smoothed_landmasked_web_v1","local_cluster_link_m":10000.0,"model_version":"fire_progression_arrival_v1"},"geometry":{"type":"MultiPolygon","coordinates":[[[[0.5531496049791579,49.47069022696603],[0.5550874749405581,49.47120251846787],[0.5618273046630655,49.469913981406826],[0.5631231085753872,49.469120094717006],[0.5638107342727773,49.467946829164696],[0.5627228071156422,49.465754126190035],[0.5572823870697095,49.46353745960535],[0.5508499667666396,49.46428067024425],[0.5492194097998586,49.46527942838329],[0.548626959942215,49.46658641925709],[0.549746781937066,49.46851562419219],[0.5531496049791579,49.47069022696603]]],[[[0.5294574376471405,49.48036873766926],[0.5312467011762643,49.480965423022724],[0.5364849591913939,49.48093519939356],[0.5403965898300259,49.47871432047736],[0.5413693001593171,49.47750785379291],[0.5413092103517705,49.476145597052856],[0.5395986266263352,49.4736233557531],[0.5361029848283264,49.47206452866495],[0.5359677978925825,49.47206957750585],[0.5353094256536205,49.47286461517427],[0.5282698123557601,49.47853419481891],[0.5283111976314403,49.479292939053344],[0.5294574376471405,49.48036873766926]]]]}},{"type":"Feature","properties":{"category":"historical_support","snapshot_index":13,"pass_time_utc":"2026-10-06T11:32:00+00:00","dt_local":"2026-10-06T13:32:00+02:00","area_km2":4.625,"label":"Isoline temporelle","coherence_level":"indisponible","coherence_fraction":0.0,"projection_displayed":false,"model_version":"fire_progression_arrival_v1"},"geometry":{"type":"MultiPolygon","coordinates":[[[[0.5273505119392865,49.47337681875236],[0.527458462358887,49.47113100002361],[0.5309046674072544,49.47120129712567],[0.5310124581537609,49.46895546987304],[0.5344585223592385,49.469025666063],[0.534566153458829,49.46677983029442],[0.5276743349325337,49.46663934568237],[0.5275664033562247,49.46888517566572],[0.5241203579797175,49.46881478344146],[0.523904166050493,49.47330642073038],[0.5273505119392865,49.47337681875236]]],[[[0.5407064984488236,49.4826406953647],[0.5441534925304693,49.48271061477422],[0.5443679562231345,49.478218987905386],[0.5478146590359289,49.478288803521416],[0.5481358335248757,49.47155131230779],[0.5515820948319228,49.47162102127593],[0.5514751962855775,49.47386686018431],[0.5618144869593066,49.47407540753335],[0.5619209346844732,49.47182956003706],[0.5653672332354879,49.47189887690841],[0.5654735214062314,49.469653020929954],[0.5689196789712248,49.46972223692575],[0.5692380371117085,49.46298462671074],[0.5657923302610294,49.46291541926532],[0.5658985813308645,49.460669540812795],[0.56245303396431,49.460600238212265],[0.5625594259595867,49.45835435700404],[0.552223290209521,49.45814586976176],[0.5521164476286361,49.46039174238455],[0.5486709374816852,49.46032204776785],[0.5485639353704272,49.46256791191062],[0.5451182843564585,49.462498116416775],[0.5449039516677276,49.46698982210891],[0.5414580095596163,49.46691992285173],[0.541350678941662,49.46916576438937],[0.5379045959595682,49.46909576423523],[0.5377971057184175,49.47134159726529],[0.534350881864795,49.471271496206356],[0.5341355726864313,49.47576313960293],[0.5306890576854927,49.47569293474038],[0.5305812387077745,49.4779387450952],[0.5271345828283661,49.47786843930802],[0.5269186160135938,49.482360037303685],[0.5303655725125002,49.48243034888162],[0.5302577252924806,49.48467614230595],[0.5405991022243819,49.484886497451605],[0.5407064984488236,49.4826406953647]]],[[[0.523904166050493,49.47330642073038],[0.5204578295982862,49.47323592468375],[0.5202412993605329,49.47772753363479],[0.5236879363749213,49.47779803548777],[0.523904166050493,49.47330642073038]]]]}},{"type":"Feature","properties":{"category":"observed_front","snapshot_index":13,"pass_time_utc":"2026-10-06T11:32:00+00:00","dt_local":"2026-10-06T13:32:00+02:00","area_km2":1.875,"label":"Activité observée","coherence_level":"indisponible","coherence_fraction":0.0,"projection_displayed":false,"model_version":"fire_progression_arrival_v1"},"geometry":{"type":"Polygon","coordinates":[[[0.5515820948319228,49.47162102127593],[0.5516889840476397,49.469375176739426],[0.5482428729987868,49.46930547064185],[0.5483499031302007,49.46705962335126],[0.5449039516677276,49.46698982210891],[0.5451182843564585,49.462498116416775],[0.5485639353704272,49.46256791191062],[0.5486709374816852,49.46032204776785],[0.5521164476286361,49.46039174238455],[0.552223290209521,49.45814586976176],[0.5625594259595867,49.45835435700404],[0.56245303396431,49.460600238212265],[0.5658985813308645,49.460669540812795],[0.5657923302610294,49.46291541926532],[0.5692380371117085,49.46298462671074],[0.5690258076137275,49.46747637247307],[0.5655798002999266,49.46740715932754],[0.5654735214062314,49.469653020929954],[0.5620273731182862,49.46958370691304],[0.5619209346844732,49.47182956003706],[0.5515820948319228,49.47162102127593]]]}}]}