{"type":"FeatureCollection","name":"detection_envelopes","crs":{"type":"name","properties":{"name":"urn:ogc:def:crs:OGC:1.3:CRS84"}},"features":[{"type":"Feature","properties":{"cluster_id":1,"snapshot_index":1,"estimated_time_utc":"2026-09-26T00:50:00Z","observed_until_utc":"2026-09-26T00:50:00Z","target_time_utc":"2026-09-26T00:50:00Z","arrival_h":0.0,"hours_ago":85.9,"supported_detections_cumulative":3,"sources_cumulative":"VIIRS_NOAA20_NRT","last_source":"VIIRS_NOAA20_NRT","last_satellite":"N20","last_instrument":"VIIRS","detected_area_km2":0.8701997046913742,"product_type":"cumulative_active_fire_detection_extent"},"geometry":{"type":"MultiLineString","coordinates":[[[1.50293655154103,42.897426537229286],[1.501571471220095,42.897859917242265],[1.499080341860684,42.89630981521258],[1.496329033193846,42.896271324716295],[1.494290624260787,42.89769054101527],[1.494214144503102,42.8997538191756],[1.495519837911464,42.900990710810916],[1.497540226939778,42.9014858093318],[1.499594249711757,42.90107221673644],[1.501720563050321,42.899654209210745],[1.505741253132574,42.901420825952925],[1.507834342993792,42.90113187679601],[1.509356273630035,42.900036692831414],[1.509661329534643,42.89798486929413],[1.507903703132001,42.89637541296264],[1.505113024944374,42.896151057209245],[1.50293655154103,42.897426537229286]],[[1.505596096613825,42.90504580572423],[1.504100081861876,42.90329915284375],[1.501362265582322,42.90284169351177],[1.498986269741212,42.903941372726536],[1.498363846804685,42.905954072720554],[1.499859757368979,42.907700809612365],[1.502597790999173,42.90815830921541],[1.504973891027938,42.90705854598931],[1.505596096613825,42.90504580572423]]]}},{"type":"Feature","properties":{"cluster_id":1,"snapshot_index":2,"estimated_time_utc":"2026-09-26T01:34:00Z","observed_until_utc":"2026-09-26T01:34:00Z","target_time_utc":"2026-09-26T06:50:00Z","arrival_h":0.7333333333333333,"hours_ago":85.16666666666667,"supported_detections_cumulative":6,"sources_cumulative":"VIIRS_NOAA20_NRT, VIIRS_NOAA21_NRT","last_source":"VIIRS_NOAA21_NRT","last_satellite":"N21","last_instrument":"VIIRS","detected_area_km2":1.3546362029195407,"product_type":"cumulative_active_fire_detection_extent"},"geometry":{"type":"LineString","coordinates":[[1.502871266499594,42.897503081646754],[1.501453926918065,42.89783356528897],[1.499404050842698,42.89642555245401],[1.497022535699726,42.896131684432646],[1.495074648795947,42.89686246494134],[1.493993707769531,42.898496501479265],[1.494568085874825,42.900263803896],[1.49682676777852,42.901419697027244],[1.499280565892507,42.901202055969726],[1.501483143235388,42.899700054725955],[1.502808074601446,42.89993240683279],[1.50121029069105,42.90120075338475],[1.500987932318102,42.902903759980326],[1.499169572900807,42.90376671584745],[1.498333264333366,42.9052066470644],[1.499119159967589,42.907188204014425],[1.501581014561378,42.908180826620246],[1.503291420444099,42.908018626974936],[1.504751666746674,42.90726676614498],[1.505557308175461,42.90609766631878],[1.505552217125667,42.90489620563035],[1.507756988821134,42.90400832231243],[1.51000077374792,42.904346659771896],[1.511681161948671,42.90406187266669],[1.513068168167495,42.903172117302795],[1.513686571345044,42.901942954558784],[1.513443797444997,42.900644622384135],[1.512186442603573,42.89922675595795],[1.5120655207004,42.8971757220858],[1.510403583080778,42.89577537317435],[1.507612924075151,42.89555108249973],[1.504445796618508,42.896348101572094],[1.502871266499594,42.897503081646754]]}},{"type":"Feature","properties":{"cluster_id":1,"snapshot_index":3,"estimated_time_utc":"2026-09-26T09:11:00Z","observed_until_utc":"2026-09-26T09:11:00Z","target_time_utc":"2026-09-26T12:50:00Z","arrival_h":8.35,"hours_ago":77.55,"supported_detections_cumulative":7,"sources_cumulative":"MODIS_NRT, VIIRS_NOAA20_NRT, VIIRS_NOAA21_NRT","last_source":"MODIS_NRT","last_satellite":"Terra","last_instrument":"MODIS","detected_area_km2":2.098304826013889,"product_type":"cumulative_active_fire_detection_extent"},"geometry":{"type":"LineString","coordinates":[[1.499456400218218,42.896447075469794],[1.496671119648112,42.89618898050578],[1.494453334660438,42.89745447000748],[1.492533713430002,42.902189526126534],[1.492804805729136,42.90481314050537],[1.494421095895884,42.90716076878418],[1.497136623113732,42.90887495076283],[1.500537946262158,42.90969465021229],[1.50410710221273,42.909495034856555],[1.506616231690971,42.90866503739847],[1.508638961351074,42.907359132956806],[1.510632273773331,42.90431070685005],[1.513227254179215,42.902985072474266],[1.513577783903915,42.90093717245618],[1.5122191165537,42.89931167339982],[1.511920466201425,42.896933510314085],[1.510079855799259,42.895659669155],[1.507963003439073,42.89548953364329],[1.504085244543971,42.89650782074996],[1.499456400218218,42.896447075469794]]}},{"type":"Feature","properties":{"cluster_id":1,"snapshot_index":4,"estimated_time_utc":"2026-09-26T20:17:00Z","observed_until_utc":"2026-09-26T20:17:00Z","target_time_utc":"2026-09-27T00:50:00Z","arrival_h":19.45,"hours_ago":66.45,"supported_detections_cumulative":9,"sources_cumulative":"MODIS_NRT, VIIRS_NOAA20_NRT, VIIRS_NOAA21_NRT","last_source":"MODIS_NRT","last_satellite":"Terra","last_instrument":"MODIS","detected_area_km2":3.75411561429688,"product_type":"cumulative_active_fire_detection_extent"},"geometry":{"type":"LineString","coordinates":[[1.499404050842698,42.89642555245401],[1.49737989745567,42.896099988210814],[1.495391054241497,42.89665955913457],[1.494001877690865,42.898447654594584],[1.491391101583404,42.89998666045752],[1.489955925555728,42.90166085856825],[1.489243542911142,42.903569246192724],[1.489315370309363,42.90554748958268],[1.490192561791751,42.90746450400268],[1.491761799794532,42.909072489195715],[1.494651238704924,42.91055105853519],[1.49730712248022,42.91107978145319],[1.500816792711403,42.91087511838134],[1.504607330904085,42.9097543867932],[1.50800749684439,42.91179542169221],[1.511468729357924,42.91261992798866],[1.515832625112431,42.91220566103747],[1.518895271719582,42.91076184079407],[1.520929738117148,42.90859697030991],[1.521682207370029,42.90602458823432],[1.521038284049955,42.90343634451711],[1.519096164997288,42.90122625161879],[1.51615159289798,42.899730713856826],[1.512176969749306,42.89918793416737],[1.511920466201425,42.896933510314085],[1.509799319769231,42.89558144623899],[1.507963003439073,42.89548953364329],[1.504085244543971,42.89650782074996],[1.499404050842698,42.89642555245401]]}},{"type":"Feature","properties":{"cluster_id":1,"snapshot_index":5,"estimated_time_utc":"2026-09-27T04:02:00Z","observed_until_utc":"2026-09-27T04:02:00Z","target_time_utc":"2026-09-27T06:50:00Z","arrival_h":27.2,"hours_ago":58.7,"supported_detections_cumulative":26,"sources_cumulative":"MODIS_NRT, VIIRS_NOAA20_NRT, VIIRS_NOAA21_NRT, VIIRS_SNPP_NRT","last_source":"MODIS_NRT","last_satellite":"Aqua","last_instrument":"MODIS","detected_area_km2":3.783564213611298,"product_type":"cumulative_active_fire_detection_extent"},"geometry":{"type":"LineString","coordinates":[[1.498453158549822,42.89616030297454],[1.496671119648112,42.89618898050578],[1.495117860748658,42.896831882711595],[1.494001877690865,42.898447654594584],[1.491391101583404,42.89998666045752],[1.489931915223842,42.90170127001696],[1.48923652226562,42.9036130415912],[1.489325945664202,42.90559089745776],[1.490192561791751,42.90746450400268],[1.491761799794532,42.909072489195715],[1.494651238704924,42.91055105853519],[1.497247540586486,42.91107462465588],[1.502715758199728,42.911010574703674],[1.505709302206686,42.91043680396348],[1.508059863272431,42.91181694080819],[1.511468729357924,42.91261992798866],[1.515832625112431,42.91220566103747],[1.518895271719582,42.91076184079407],[1.520929738117148,42.90859697030991],[1.521682207370029,42.90602458823432],[1.521038284049955,42.90343634451711],[1.519096164997288,42.90122625161879],[1.51615159289798,42.899730713856826],[1.512176969749306,42.89918793416737],[1.511920466201425,42.896933510314085],[1.509799319769231,42.89558144623899],[1.507963003439073,42.89548953364329],[1.504085244543971,42.89650782074996],[1.498453158549822,42.89616030297454]]}},{"type":"Feature","properties":{"cluster_id":1,"snapshot_index":6,"estimated_time_utc":"2026-09-27T12:40:00Z","observed_until_utc":"2026-09-27T12:40:00Z","target_time_utc":"2026-09-27T12:50:00Z","arrival_h":35.833333333333336,"hours_ago":50.06666666666667,"supported_detections_cumulative":30,"sources_cumulative":"MODIS_NRT, VIIRS_NOAA20_NRT, VIIRS_NOAA21_NRT, VIIRS_SNPP_NRT","last_source":"VIIRS_NOAA21_NRT","last_satellite":"N21","last_instrument":"VIIRS","detected_area_km2":3.7855744285500523,"product_type":"cumulative_active_fire_detection_extent"},"geometry":{"type":"LineString","coordinates":[[1.493173268084447,42.89879737645665],[1.491729998379725,42.89956652767021],[1.489955925555728,42.90166085856825],[1.489203261330152,42.90489086729761],[1.490610720297124,42.90800031991808],[1.493898542832512,42.91027634600561],[1.498205536052651,42.91112266266631],[1.502715758199728,42.911010574703674],[1.505709302206686,42.91043680396348],[1.508867630451675,42.9121091966968],[1.513207194666287,42.91264400553488],[1.517487542922363,42.91158454842363],[1.5205322837979,42.90919076212851],[1.521682207370029,42.90602458823432],[1.520666034880866,42.90283380554319],[1.519137776748433,42.901258013163954],[1.517011591763289,42.900044420288694],[1.512176969749306,42.89918793416737],[1.5120655207004,42.8971757220858],[1.510403583080778,42.89577537317435],[1.508022038949911,42.89548174923819],[1.504085244543971,42.89650782074996],[1.496671119648112,42.89618898050578],[1.495074648795947,42.89686246494134],[1.494001877690865,42.898447654594584],[1.493173268084447,42.89879737645665]]}},{"type":"Feature","properties":{"cluster_id":1,"snapshot_index":7,"estimated_time_utc":"2026-09-27T15:07:00Z","observed_until_utc":"2026-09-27T15:07:00Z","target_time_utc":"2026-09-27T18:50:00Z","arrival_h":38.28333333333333,"hours_ago":47.61666666666667,"supported_detections_cumulative":41,"sources_cumulative":"MODIS_NRT, VIIRS_NOAA20_NRT, VIIRS_NOAA21_NRT, VIIRS_SNPP_NRT","last_source":"MODIS_NRT","last_satellite":"Aqua","last_instrument":"MODIS","detected_area_km2":6.305182080640369,"product_type":"cumulative_active_fire_detection_extent"},"geometry":{"type":"LineString","coordinates":[[1.48941515282814,42.902166652448265],[1.489315370309363,42.90554748958268],[1.490610720297124,42.90800031991808],[1.493084514734006,42.9099019989078],[1.496360148757519,42.9109629448857],[1.502655952893751,42.91101406422129],[1.505709302206686,42.91043680396348],[1.509653414292791,42.912328246033674],[1.514159531958008,42.912553599628126],[1.516708230660539,42.91191592577948],[1.518895271719582,42.91076184079407],[1.520503017683775,42.90922925740373],[1.521465505773107,42.90738110160805],[1.521656695159664,42.905407147557064],[1.521060197590589,42.90347739510176],[1.519727453035658,42.90175802026335],[1.517727837040585,42.90037382860643],[1.519393884091447,42.899418133456095],[1.520046365359046,42.89815273764539],[1.519680289092553,42.896653273598396],[1.51821561399399,42.895516760205695],[1.514309119219735,42.89472003258144],[1.511849612966776,42.895603581570995],[1.508319601760043,42.89545350905679],[1.506166960191939,42.89604363115886],[1.503918062722106,42.89305898642683],[1.500147231508979,42.89131216609954],[1.496594827878473,42.89099598058659],[1.492847046218933,42.89162309267529],[1.490041209447182,42.89014407306726],[1.486633959381636,42.88934042207072],[1.483944201277134,42.889406059624264],[1.481449555303288,42.89002290743901],[1.478633066833225,42.89164586651191],[1.476875480106449,42.893937777770496],[1.476444463221469,42.89654977697109],[1.477405806204945,42.89908422724955],[1.479613304559043,42.90115524615417],[1.482730928943421,42.90244747346631],[1.486283957803743,42.90276412081298],[1.48941515282814,42.902166652448265]]}},{"type":"Feature","properties":{"cluster_id":1,"snapshot_index":8,"estimated_time_utc":"2026-09-28T01:52:00Z","observed_until_utc":"2026-09-28T01:52:00Z","target_time_utc":"2026-09-28T06:50:00Z","arrival_h":49.03333333333333,"hours_ago":36.86666666666667,"supported_detections_cumulative":63,"sources_cumulative":"MODIS_NRT, VIIRS_NOAA20_NRT, VIIRS_NOAA21_NRT, VIIRS_SNPP_NRT","last_source":"VIIRS_NOAA20_NRT","last_satellite":"N20","last_instrument":"VIIRS","detected_area_km2":7.088362444045551,"product_type":"cumulative_active_fire_detection_extent"},"geometry":{"type":"LineString","coordinates":[[1.490610720297124,42.90800031991808],[1.493084514734006,42.9099019989078],[1.496418755855618,42.91097237011484],[1.502655952893751,42.91101406422129],[1.505709302206686,42.91043680396348],[1.50800749684439,42.91179542169221],[1.510580312965547,42.91251263361871],[1.514100479906077,42.912561387525145],[1.516708230660539,42.91191592577948],[1.520057557481996,42.90975305607174],[1.521617150304906,42.90672878286528],[1.521038284049955,42.90343634451711],[1.519690275576556,42.90172341330666],[1.517727837040585,42.90037382860643],[1.519880153558107,42.89871207856197],[1.519653011966548,42.896613999603],[1.518163258504333,42.89549524635226],[1.514668975307845,42.894714184699446],[1.511849612966776,42.895603581570995],[1.508319601760043,42.89545350905679],[1.506166960191939,42.89604363115886],[1.503876465174011,42.89302721921784],[1.50179249615534,42.891845101161984],[1.499279291963803,42.891137115480085],[1.49653504282047,42.89099946663442],[1.492847046218933,42.89162309267529],[1.490041209447182,42.89014407306726],[1.486633959381636,42.88934042207072],[1.483944201277134,42.889406059624264],[1.481396131069636,42.89004294332941],[1.478633066833225,42.89164586651191],[1.477173713351537,42.89336028997543],[1.476449189428316,42.89659373804635],[1.478009546171041,42.899826733566115],[1.476020295536357,42.90009761107059],[1.474667077059251,42.900950699125296],[1.474020607223708,42.9021720278408],[1.474233593351957,42.90347318501571],[1.475894878626626,42.90487410310199],[1.478359892396651,42.90515658057613],[1.480184989493139,42.90697417801221],[1.483217883575568,42.90713941210918],[1.484008652050437,42.90857780362769],[1.485709443679897,42.90944833186936],[1.488236650691812,42.909392721753484],[1.490371473668328,42.90769375775756],[1.490610720297124,42.90800031991808]]}},{"type":"Feature","properties":{"cluster_id":1,"snapshot_index":9,"estimated_time_utc":"2026-09-28T12:19:00Z","observed_until_utc":"2026-09-28T12:19:00Z","target_time_utc":"2026-09-28T12:50:00Z","arrival_h":59.483333333333334,"hours_ago":26.416666666666668,"supported_detections_cumulative":67,"sources_cumulative":"MODIS_NRT, VIIRS_NOAA20_NRT, VIIRS_NOAA21_NRT, VIIRS_SNPP_NRT","last_source":"VIIRS_NOAA21_NRT","last_satellite":"N21","last_instrument":"VIIRS","detected_area_km2":7.108603594312924,"product_type":"cumulative_active_fire_detection_extent"},"geometry":{"type":"LineString","coordinates":[[1.490643089646621,42.90803744819097],[1.493133751400452,42.90992719407432],[1.496418755855618,42.91097237011484],[1.502655952893751,42.91101406422129],[1.505709302206686,42.91043680396348],[1.50800749684439,42.91179542169221],[1.510580312965547,42.91251263361871],[1.514100479906077,42.912561387525145],[1.516708230660539,42.91191592577948],[1.520057557481996,42.90975305607174],[1.521617150304906,42.90672878286528],[1.521038284049955,42.90343634451711],[1.519690275576556,42.90172341330666],[1.517727837040585,42.90037382860643],[1.519880153558107,42.89871207856197],[1.519653011966548,42.896613999603],[1.518163258504333,42.89549524635226],[1.514668975307845,42.894714184699446],[1.511849612966776,42.895603581570995],[1.508319601760043,42.89545350905679],[1.506166960191939,42.89604363115886],[1.503876465174011,42.89302721921784],[1.50179249615534,42.891845101161984],[1.499279291963803,42.891137115480085],[1.49653504282047,42.89099946663442],[1.492847046218933,42.89162309267529],[1.490041209447182,42.89014407306726],[1.486633959381636,42.88934042207072],[1.483944201277134,42.889406059624264],[1.481396131069636,42.89004294332941],[1.478633066833225,42.89164586651191],[1.477173713351537,42.89336028997543],[1.476449189428316,42.89659373804635],[1.478009546171041,42.899826733566115],[1.476020295536357,42.90009761107059],[1.474667077059251,42.900950699125296],[1.474020607223708,42.9021720278408],[1.474233593351957,42.90347318501571],[1.475894878626626,42.90487410310199],[1.478359892396651,42.90515658057613],[1.479327422246871,42.90649572231648],[1.481429820263582,42.90727808616015],[1.482699079392165,42.90845047230296],[1.485709443679897,42.90944833186936],[1.488180796173795,42.909408814517796],[1.490371473668328,42.90769375775756],[1.490643089646621,42.90803744819097]]}},{"type":"Feature","properties":{"cluster_id":1,"snapshot_index":10,"estimated_time_utc":"2026-09-28T13:16:00Z","observed_until_utc":"2026-09-28T13:16:00Z","target_time_utc":"2026-09-28T18:50:00Z","arrival_h":60.43333333333333,"hours_ago":25.466666666666665,"supported_detections_cumulative":75,"sources_cumulative":"MODIS_NRT, VIIRS_NOAA20_NRT, VIIRS_NOAA21_NRT, VIIRS_SNPP_NRT","last_source":"VIIRS_NOAA20_NRT","last_satellite":"N20","last_instrument":"VIIRS","detected_area_km2":7.157906495007027,"product_type":"cumulative_active_fire_detection_extent"},"geometry":{"type":"LineString","coordinates":[[1.518735313134087,42.895535510762265],[1.517380013919843,42.89427372373446],[1.515049089023091,42.89381003656143],[1.513060494596063,42.89436993353773],[1.511849612966776,42.895603581570995],[1.508319601760043,42.89545350905679],[1.506166960191939,42.89604363115886],[1.504470361516243,42.893524461451086],[1.500932700984894,42.891531275168866],[1.497434536920072,42.890977418991085],[1.492847046218933,42.89162309267529],[1.488391394801308,42.88961888066111],[1.485795851364555,42.889298290513786],[1.483125540912275,42.88954461787116],[1.479885552688869,42.890759723565736],[1.477197729113879,42.89331988167958],[1.476449189428316,42.89659373804635],[1.478009546171041,42.899826733566115],[1.476293967321235,42.90000715902227],[1.474850443934345,42.90077608422127],[1.474083200379429,42.90191140654693],[1.474121679584953,42.903221645382914],[1.475538944634258,42.90471032360643],[1.478359892396651,42.90515658057613],[1.47959148241246,42.906675614682854],[1.481319641451289,42.90726447528377],[1.483002702255175,42.90859269737226],[1.485766507771398,42.90946193990844],[1.488563786766363,42.90928219805721],[1.490371473668328,42.90769375775756],[1.493084514734006,42.9099019989078],[1.496360148757519,42.9109629448857],[1.502655952893751,42.91101406422129],[1.505709302206686,42.91043680396348],[1.509710486827072,42.9123418413873],[1.512307192734302,42.91266186004334],[1.514978442713234,42.91241480195886],[1.517437042743788,42.911608355690696],[1.519471207983144,42.91031199418462],[1.520905746482548,42.90863738892876],[1.521617150304906,42.90672878286528],[1.521038284049955,42.90343634451711],[1.519690275576556,42.90172341330666],[1.517727837040585,42.90037382860643],[1.519210655514679,42.899592824167684],[1.520039368606211,42.898196534842846],[1.519825375265153,42.896895474827865],[1.518735313134087,42.895535510762265]]}},{"type":"Feature","properties":{"cluster_id":1,"snapshot_index":11,"estimated_time_utc":"2026-09-29T12:38:00Z","observed_until_utc":"2026-09-29T12:38:00Z","target_time_utc":"2026-09-29T12:50:00Z","arrival_h":83.8,"hours_ago":2.1,"supported_detections_cumulative":76,"sources_cumulative":"MODIS_NRT, VIIRS_NOAA20_NRT, VIIRS_NOAA21_NRT, VIIRS_SNPP_NRT","last_source":"VIIRS_SNPP_NRT","last_satellite":"N","last_instrument":"VIIRS","detected_area_km2":7.266109399460457,"product_type":"cumulative_active_fire_detection_extent"},"geometry":{"type":"LineString","coordinates":[[1.518713404234988,42.895494459993635],[1.517125615456384,42.894156781473605],[1.515049089023091,42.89381003656143],[1.513060494596063,42.89436993353773],[1.511849612966776,42.895603581570995],[1.508319601760043,42.89545350905679],[1.506166960191939,42.89604363115886],[1.504470361516243,42.893524461451086],[1.500932700984894,42.891531275168866],[1.497434536920072,42.890977418991085],[1.492847046218933,42.89162309267529],[1.488391394801308,42.88961888066111],[1.485735891402061,42.88929744491627],[1.483067828184188,42.889556605846636],[1.479252341434735,42.891165667781536],[1.477197729113879,42.89331988167958],[1.476449189428316,42.89659373804635],[1.478009546171041,42.899826733566115],[1.476020295536357,42.90009761107059],[1.474632795103957,42.900986885495215],[1.473193096799247,42.903741375932945],[1.473247857404575,42.905094056490874],[1.475273536555225,42.90680224389757],[1.477386624089074,42.9069984513362],[1.479176988331167,42.906372176276605],[1.481475742762943,42.907353163474276],[1.483002702255175,42.90859269737226],[1.486056166353968,42.909519634390506],[1.488824098946045,42.909172429118755],[1.490371473668328,42.90769375775756],[1.493084514734006,42.9099019989078],[1.496360148757519,42.9109629448857],[1.502655952893751,42.91101406422129],[1.505709302206686,42.91043680396348],[1.509710486827072,42.9123418413873],[1.512367177217839,42.91266269082162],[1.515036171574735,42.91240279659025],[1.517487542922363,42.91158454842363],[1.519471207983144,42.91031199418462],[1.520905746482548,42.90863738892876],[1.521617150304906,42.90672878286528],[1.521038284049955,42.90343634451711],[1.519690275576556,42.90172341330666],[1.517727837040585,42.90037382860643],[1.519210655514679,42.899592824167684],[1.520039368606211,42.898196534842846],[1.519825375265153,42.896895474827865],[1.518713404234988,42.895494459993635]]}},{"type":"Feature","properties":{"cluster_id":1,"snapshot_index":12,"estimated_time_utc":"2026-09-29T14:44:00Z","observed_until_utc":"2026-09-29T14:44:00Z","target_time_utc":"2026-09-29T14:44:00Z","arrival_h":85.9,"hours_ago":0.0,"supported_detections_cumulative":79,"sources_cumulative":"MODIS_NRT, VIIRS_NOAA20_NRT, VIIRS_NOAA21_NRT, VIIRS_SNPP_NRT","last_source":"MODIS_NRT","last_satellite":"Aqua","last_instrument":"MODIS","detected_area_km2":13.550458157808338,"product_type":"cumulative_active_fire_detection_extent"},"geometry":{"type":"MultiLineString","coordinates":[[[1.768276484302443,42.704620747081],[1.771016686894196,42.70503832791347],[1.774606885801134,42.703690251900895],[1.778054550174372,42.70321007363157],[1.781001200119859,42.70180599718772],[1.782639188697954,42.70023910180278],[1.783602464941374,42.698345857033196],[1.783656497904567,42.69575874726331],[1.782800203343147,42.69388371456406],[1.78126339608496,42.69228989763709],[1.78025236549782,42.68944471890704],[1.777359361265326,42.68701546365991],[1.774091222193628,42.68596330967255],[1.770467335112078,42.68592173753289],[1.766277671320449,42.68711251159372],[1.763221377034516,42.6852110941196],[1.760002755598195,42.68418357776474],[1.757267653087881,42.684052617429884],[1.753842889133362,42.68478475128889],[1.751058432284165,42.686428005526956],[1.749338152315321,42.68873227622611],[1.748944040048478,42.69134681679374],[1.749936266714526,42.69387360213228],[1.751506911569495,42.69547746943537],[1.75381454206779,42.69673888951294],[1.755014981828185,42.69885864941877],[1.756823886105429,42.70037819356973],[1.759107407916239,42.7014164515854],[1.76330033027567,42.701944333626194],[1.764702730569212,42.70294839411107],[1.766871363101491,42.70325642311691],[1.768276484302443,42.704620747081]],[[1.476104044628849,42.89279815163691],[1.473496701517644,42.893442616675536],[1.470733257403228,42.895045341456886],[1.468975255898093,42.897337130358856],[1.468518913944519,42.89933165593003],[1.468870896077121,42.90129360443168],[1.469982444173891,42.90309594964456],[1.475938521787669,42.90721991226273],[1.477996656275954,42.90739844877915],[1.479775098160718,42.90677980836709],[1.481319641451289,42.90726447528377],[1.483055056521265,42.90861422861521],[1.486769712804271,42.90958581871554],[1.489119029376241,42.9090206386704],[1.490371473668328,42.90769375775756],[1.492419209651304,42.90952461574692],[1.49554899448542,42.910801463453694],[1.502655952893751,42.91101406422129],[1.505709302206686,42.91043680396348],[1.508812646137624,42.9120915544814],[1.512367177217839,42.91266269082162],[1.516708230660539,42.91191592577948],[1.520199938063644,42.909585637696],[1.522910266007629,42.90892993082313],[1.524034389820525,42.90785822617385],[1.524224771719992,42.90586679070863],[1.525076783941698,42.90441256849331],[1.524723695857169,42.90224426349015],[1.521452690954373,42.899533739736945],[1.521481173917939,42.89795448178602],[1.520073475695815,42.8965059087049],[1.5186241436472,42.893161133713996],[1.516847853096504,42.89167442117714],[1.514561191646272,42.8906308179416],[1.510223260212068,42.89009607430788],[1.501358155476858,42.89168415199008],[1.497434536920072,42.890977418991085],[1.492970842908168,42.891635898002384],[1.489233842630603,42.889851681341625],[1.484896202926441,42.88931591500767],[1.481396131069636,42.89004294332941],[1.479252341434735,42.891165667781536],[1.477622972341365,42.892702123668144],[1.476104044628849,42.89279815163691]]]}}],"metadata":{"generated_at_utc":"2026-09-30T00:23:11.127852Z","product_type":"cumulative_active_fire_detection_extent","product_label":"Emprises cumulées des détections actives FIRMS","not_a_burn_perimeter":true,"not_a_continuous_fire_front":true,"not_an_arrival_time_interpolation":true,"snapshot_step_hours":6,"confidence_filter":{"VIIRS":["nominal","high"],"MODIS_minimum":30},"footprint_radius_m":{"VIIRS":300.0,"MODIS":750.0},"same_pass_neighbour_m":2000.0,"continuity_distance_m":3000.0,"clusters":[{"cluster_id":1,"first_supported_detection_utc":"2026-09-26T00:50:00Z","last_supported_detection_utc":"2026-09-29T14:44:00Z","pass_states":23,"published_snapshots":12,"final_detected_area_km2":7.906642624351923}]},"bbox":[1.4685189139445194,42.684052617429884,1.783656497904567,42.91266269082162]}