{"type":"FeatureCollection","name":"fire_progression_arrival_v1","features":[{"type":"Feature","properties":{"category":"arrival_step","arrival_snapshot_index":3,"first_detected_utc":"2026-09-25T19:36:00+00:00","first_detected_local":"2026-09-25T21:36:00+02:00","area_km2":2.562,"label":"Première détection FIRMS","model_version":"fire_progression_arrival_v1"},"geometry":{"type":"Polygon","coordinates":[[[1.5045181471342144,42.9025025391647],[1.5045760585233192,42.900254773052914],[1.4984612765115357,42.90016945064296],[1.4987519493535393,42.88893070451575],[1.5048655482126807,42.88901600955566],[1.5049234327029652,42.886768270291235],[1.5140935097152504,42.886895570067786],[1.5140359800922774,42.889143314515984],[1.5201496236324872,42.889227749420854],[1.5198630918701925,42.900466556033265],[1.5137482651513885,42.90038210393547],[1.513690708794384,42.90262987523236],[1.5045181471342144,42.9025025391647]]]}},{"type":"Feature","properties":{"category":"arrival_step","arrival_snapshot_index":4,"first_detected_utc":"2026-09-26T00:50:00+00:00","first_detected_local":"2026-09-26T02:50:00+02:00","area_km2":1.812,"label":"Première détection FIRMS","model_version":"fire_progression_arrival_v1"},"geometry":{"type":"Polygon","coordinates":[[[1.501286519375442,42.90920323963457],[1.5013445625914599,42.90695546187851],[1.4952290794678156,42.906869954962325],[1.4952873549097265,42.904622185144746],[1.4922297384732905,42.90457930287136],[1.4922881277528246,42.9023315392597],[1.4892306341885635,42.902288571698826],[1.4894646194046794,42.89329756891193],[1.4925216396602832,42.89334052947476],[1.4925800063371033,42.89109278821013],[1.4986938237875083,42.89117844478913],[1.4984612765115357,42.90016945064296],[1.5045760585233192,42.900254773052914],[1.5045181471342144,42.9025025391647],[1.513690708794384,42.90262987523236],[1.513633147979896,42.9048776509927],[1.5105755046030995,42.9048352909467],[1.5105178209677392,42.90708306944228],[1.5044023109006053,42.90699808477473],[1.5043443860550594,42.90924586426645],[1.501286519375442,42.90920323963457]]]}},{"type":"Feature","properties":{"category":"arrival_step","arrival_snapshot_index":7,"first_detected_utc":"2026-09-26T20:17:00+00:00","first_detected_local":"2026-09-26T22:17:00+02:00","area_km2":1.312,"label":"Première détection FIRMS","model_version":"fire_progression_arrival_v1"},"geometry":{"type":"Polygon","coordinates":[[[1.5043443860550594,42.90924586426645],[1.5044023109006053,42.90699808477473],[1.5105178209677392,42.90708306944228],[1.5105755046030995,42.9048352909467],[1.513633147979896,42.9048776509927],[1.5137482651513885,42.90038210393547],[1.5198630918701925,42.900466556033265],[1.5201496236324872,42.889227749420854],[1.523206452061279,42.889269836352085],[1.5230920892779887,42.89376534899839],[1.5261491587445297,42.89380735233588],[1.5260350148968913,42.89830288630961],[1.522977708782902,42.89826087955117],[1.522806104821652,42.905004208898255],[1.5197484480983319,42.90496210996868],[1.5196337865677458,42.90945768174545],[1.5043443860550594,42.90924586426645]]]}},{"type":"Feature","properties":{"category":"arrival_step","arrival_snapshot_index":10,"first_detected_utc":"2026-09-27T02:13:00+00:00","first_detected_local":"2026-09-27T04:13:00+02:00","area_km2":0.562,"label":"Première détection FIRMS","model_version":"fire_progression_arrival_v1"},"geometry":{"type":"Polygon","coordinates":[[[1.4951125150430211,42.91136550796376],[1.4951707995124224,42.909117729236385],[1.4921129463473428,42.90907484347048],[1.492171344671638,42.906827070942704],[1.4891136143981036,42.906784099882366],[1.4892306341885635,42.902288571698826],[1.4922881277528246,42.9023315392597],[1.4922297384732905,42.90457930287136],[1.4952873549097265,42.904622185144746],[1.4952290794678156,42.906869954962325],[1.5013445625914599,42.90695546187851],[1.501286519375442,42.90920323963457],[1.5043443860550594,42.90924586426645],[1.5042864567229908,42.91149364821167],[1.4951125150430211,42.91136550796376]]]}},{"type":"Feature","properties":{"category":"observed_front","snapshot_index":2,"pass_time_utc":"2026-09-25T13:53:00+00:00","dt_local":"2026-09-25T15:53:00+02:00","area_km2":0.562,"label":"Activité observée","coherence_level":"indisponible","coherence_fraction":0.0,"projection_displayed":false,"model_version":"fire_progression_arrival_v1"},"geometry":{"type":"Polygon","coordinates":[[[1.5076334562604472,42.900297303711625],[1.5078068085476128,42.89355402699268],[1.5169779636379084,42.89368108125917],[1.516805676286887,42.90042437350023],[1.5076334562604472,42.900297303711625]]]}},{"type":"Feature","properties":{"category":"firms_extent_snapshot","snapshot_index":3,"pass_time_utc":"2026-09-25T19:36:00+00:00","dt_local":"2026-09-25T21:36:00+02:00","label":"Emprise FIRMS cumulée à ce passage","interpretation":"Enveloppe des détections FIRMS, pas une surface brûlée","cumulative":true,"point_count":2,"extent_method":"cumulative_detection_extent_smoothed_landmasked_web_v1","local_cluster_link_m":10000.0,"model_version":"fire_progression_arrival_v1"},"geometry":{"type":"MultiPolygon","coordinates":[[[[1.7489121398236203,42.69066357614656],[1.7492635929797007,42.6926249857184],[1.7503328202731288,42.69437964046038],[1.753587382502449,42.6968335416958],[1.756199562816631,42.69995038805125],[1.7590801236083813,42.70140744713868],[1.7632378771490669,42.702205380879676],[1.7692145530339507,42.70495736653273],[1.7713365044512963,42.704981741131334],[1.7789089773735762,42.70291792223836],[1.781634993760754,42.70130714376337],[1.7833644962248159,42.69900659043902],[1.7837988928285664,42.697054226337144],[1.7834650694185594,42.695146269632],[1.7814112709316534,42.692213483130224],[1.7802982772547418,42.68951405812527],[1.7780465314559228,42.68740545704912],[1.7749283570098155,42.686129638174876],[1.7713858137107448,42.68583116050268],[1.7665292876564875,42.68663564667334],[1.760768136911468,42.684334482112156],[1.758193719024445,42.68402900871019],[1.755607554937148,42.684274600282095],[1.7530932614219226,42.68510604394561],[1.7510311372298693,42.686454278203925],[1.7493721883222886,42.688659306298455],[1.7489121398236203,42.69066357614656]]],[[[1.4960300624247642,42.897671965220304],[1.4963963852657785,42.89968724050563],[1.4980008699005927,42.901978127848295],[1.4999605911961769,42.90333467549915],[1.5036081259381717,42.9048378346192],[1.505571001671539,42.908180903588594],[1.5088004369885526,42.90979167770064],[1.5120648418039653,42.91056929976329],[1.5148299638135172,42.910517203770816],[1.5220000479410312,42.90931009385196],[1.5238970594697225,42.90806660703887],[1.5250729202929745,42.90443443572452],[1.5247343099333026,42.9022648875778],[1.5219621276562159,42.89959380621624],[1.5186400223292293,42.893179839956794],[1.5153283620533684,42.89090830357824],[1.5128783425074244,42.89023242561159],[1.510193397808045,42.89009809176745],[1.5010984601991642,42.89177006918732],[1.4976310971755842,42.893994010028784],[1.4964756071430694,42.89572042345074],[1.4960300624247642,42.897671965220304]]]]}},{"type":"Feature","properties":{"category":"historical_support","snapshot_index":3,"pass_time_utc":"2026-09-25T19:36:00+00:00","dt_local":"2026-09-25T21:36:00+02:00","area_km2":2.562,"label":"Isoline temporelle","coherence_level":"indisponible","coherence_fraction":0.0,"projection_displayed":false,"model_version":"fire_progression_arrival_v1"},"geometry":{"type":"Polygon","coordinates":[[[1.5045181471342144,42.9025025391647],[1.5045760585233192,42.900254773052914],[1.4984612765115357,42.90016945064296],[1.4987519493535393,42.88893070451575],[1.5048655482126807,42.88901600955566],[1.5049234327029652,42.886768270291235],[1.5140935097152504,42.886895570067786],[1.5140359800922774,42.889143314515984],[1.5201496236324872,42.889227749420854],[1.5198630918701925,42.900466556033265],[1.5137482651513885,42.90038210393547],[1.513690708794384,42.90262987523236],[1.5045181471342144,42.9025025391647]]]}},{"type":"Feature","properties":{"category":"observed_front","snapshot_index":3,"pass_time_utc":"2026-09-25T19:36:00+00:00","dt_local":"2026-09-25T21:36:00+02:00","area_km2":2.562,"label":"Activité observée","coherence_level":"indisponible","coherence_fraction":0.0,"projection_displayed":false,"model_version":"fire_progression_arrival_v1"},"geometry":{"type":"Polygon","coordinates":[[[1.5045181471342144,42.9025025391647],[1.5045760585233192,42.900254773052914],[1.4984612765115357,42.90016945064296],[1.4987519493535393,42.88893070451575],[1.5048655482126807,42.88901600955566],[1.5049234327029652,42.886768270291235],[1.5140935097152504,42.886895570067786],[1.5140359800922774,42.889143314515984],[1.5201496236324872,42.889227749420854],[1.5198630918701925,42.900466556033265],[1.5137482651513885,42.90038210393547],[1.513690708794384,42.90262987523236],[1.5045181471342144,42.9025025391647]]]}},{"type":"Feature","properties":{"category":"historical_support","snapshot_index":4,"pass_time_utc":"2026-09-26T00:50:00+00:00","dt_local":"2026-09-26T02:50:00+02:00","area_km2":4.375,"label":"Isoline temporelle","coherence_level":"indisponible","coherence_fraction":0.0,"projection_displayed":false,"model_version":"fire_progression_arrival_v1"},"geometry":{"type":"Polygon","coordinates":[[[1.501286519375442,42.90920323963457],[1.5013445625914599,42.90695546187851],[1.4952290794678156,42.906869954962325],[1.4952873549097265,42.904622185144746],[1.4922297384732905,42.90457930287136],[1.4922881277528246,42.9023315392597],[1.4892306341885635,42.902288571698826],[1.4894646194046794,42.89329756891193],[1.4925216396602832,42.89334052947476],[1.4925800063371033,42.89109278821013],[1.4986938237875083,42.89117844478913],[1.4987519493535393,42.88893070451575],[1.5048655482126807,42.88901600955566],[1.5049234327029652,42.886768270291235],[1.5140935097152504,42.886895570067786],[1.5140359800922774,42.889143314515984],[1.5201496236324872,42.889227749420854],[1.5198630918701925,42.900466556033265],[1.5137482651513885,42.90038210393547],[1.513633147979896,42.9048776509927],[1.5105755046030995,42.9048352909467],[1.5105178209677392,42.90708306944228],[1.5044023109006053,42.90699808477473],[1.5043443860550594,42.90924586426645],[1.501286519375442,42.90920323963457]]]}},{"type":"Feature","properties":{"category":"observed_front","snapshot_index":4,"pass_time_utc":"2026-09-26T00:50:00+00:00","dt_local":"2026-09-26T02:50:00+02:00","area_km2":3.312,"label":"Activité observée","coherence_level":"indisponible","coherence_fraction":0.0,"projection_displayed":false,"model_version":"fire_progression_arrival_v1"},"geometry":{"type":"Polygon","coordinates":[[[1.501286519375442,42.90920323963457],[1.5013445625914599,42.90695546187851],[1.4952290794678156,42.906869954962325],[1.4952873549097265,42.904622185144746],[1.4922297384732905,42.90457930287136],[1.4922881277528246,42.9023315392597],[1.4892306341885635,42.902288571698826],[1.4894646194046794,42.89329756891193],[1.4925216396602832,42.89334052947476],[1.4925800063371033,42.89109278821013],[1.4986938237875083,42.89117844478913],[1.4987519493535393,42.88893070451575],[1.5048655482126807,42.88901600955566],[1.5048076592405613,42.891263753302745],[1.5109215126230373,42.8913487137494],[1.5108638557828618,42.8935964654356],[1.5139209074826787,42.89363881685782],[1.513633147979896,42.9048776509927],[1.5105755046030995,42.9048352909467],[1.5105178209677392,42.90708306944228],[1.5044023109006053,42.90699808477473],[1.5043443860550594,42.90924586426645],[1.501286519375442,42.90920323963457]]]}},{"type":"Feature","properties":{"category":"firms_extent_snapshot","snapshot_index":5,"pass_time_utc":"2026-09-26T01:34:00+00:00","dt_local":"2026-09-26T03:34:00+02:00","label":"Emprise FIRMS cumulée à ce passage","interpretation":"Enveloppe des détections FIRMS, pas une surface brûlée","cumulative":true,"point_count":8,"extent_method":"cumulative_detection_extent_smoothed_landmasked_web_v1","local_cluster_link_m":10000.0,"model_version":"fire_progression_arrival_v1"},"geometry":{"type":"MultiPolygon","coordinates":[[[[1.7489121398236203,42.69066357614656],[1.7492635929797007,42.6926249857184],[1.7503328202731288,42.69437964046038],[1.753587382502449,42.6968335416958],[1.756199562816631,42.69995038805125],[1.7590801236083813,42.70140744713868],[1.7632378771490669,42.702205380879676],[1.7692145530339507,42.70495736653273],[1.7713365044512963,42.704981741131334],[1.7789089773735762,42.70291792223836],[1.781634993760754,42.70130714376337],[1.7833644962248159,42.69900659043902],[1.7837988928285664,42.697054226337144],[1.7834650694185594,42.695146269632],[1.7814112709316534,42.692213483130224],[1.7802982772547418,42.68951405812527],[1.7780465314559228,42.68740545704912],[1.7749283570098155,42.686129638174876],[1.7713858137107448,42.68583116050268],[1.7665292876564875,42.68663564667334],[1.760768136911468,42.684334482112156],[1.758193719024445,42.68402900871019],[1.755607554937148,42.684274600282095],[1.7530932614219226,42.68510604394561],[1.7510311372298693,42.686454278203925],[1.7493721883222886,42.688659306298455],[1.7489121398236203,42.69066357614656]]],[[[1.49397306961288,42.89873863730186],[1.4947610734251207,42.90046060237347],[1.498259978485853,42.902575924752426],[1.4984503105396285,42.906233592294214],[1.5005122128431743,42.907971171935735],[1.5048261416363324,42.908112996869036],[1.5095404895670448,42.91006013948954],[1.5130372793174978,42.910621992900694],[1.5219295754430058,42.90932897036812],[1.5240220567217178,42.907878327249676],[1.5250729202929745,42.90443443572452],[1.5247343099333026,42.9022648875778],[1.5219621276562159,42.89959380621624],[1.5186400223292293,42.893179839956794],[1.5168704322103506,42.8916889331616],[1.5145885268229278,42.890639886241075],[1.5101188211952539,42.89010380719155],[1.5010308559166987,42.89179391885488],[1.4977167480809996,42.89390353447851],[1.494439018208773,42.8974738464147],[1.49397306961288,42.89873863730186]]]]}},{"type":"Feature","properties":{"category":"historical_support","snapshot_index":5,"pass_time_utc":"2026-09-26T01:34:00+00:00","dt_local":"2026-09-26T03:34:00+02:00","area_km2":4.375,"label":"Isoline temporelle","coherence_level":"indisponible","coherence_fraction":0.0,"projection_displayed":false,"model_version":"fire_progression_arrival_v1"},"geometry":{"type":"Polygon","coordinates":[[[1.501286519375442,42.90920323963457],[1.5013445625914599,42.90695546187851],[1.4952290794678156,42.906869954962325],[1.4952873549097265,42.904622185144746],[1.4922297384732905,42.90457930287136],[1.4922881277528246,42.9023315392597],[1.4892306341885635,42.902288571698826],[1.4894646194046794,42.89329756891193],[1.4925216396602832,42.89334052947476],[1.4925800063371033,42.89109278821013],[1.4986938237875083,42.89117844478913],[1.4987519493535393,42.88893070451575],[1.5048655482126807,42.88901600955566],[1.5049234327029652,42.886768270291235],[1.5140935097152504,42.886895570067786],[1.5140359800922774,42.889143314515984],[1.5201496236324872,42.889227749420854],[1.5198630918701925,42.900466556033265],[1.5137482651513885,42.90038210393547],[1.513633147979896,42.9048776509927],[1.5105755046030995,42.9048352909467],[1.5105178209677392,42.90708306944228],[1.5044023109006053,42.90699808477473],[1.5043443860550594,42.90924586426645],[1.501286519375442,42.90920323963457]]]}},{"type":"Feature","properties":{"category":"observed_front","snapshot_index":5,"pass_time_utc":"2026-09-26T01:34:00+00:00","dt_local":"2026-09-26T03:34:00+02:00","area_km2":2.312,"label":"Activité observée","coherence_level":"indisponible","coherence_fraction":0.0,"projection_displayed":false,"model_version":"fire_progression_arrival_v1"},"geometry":{"type":"Polygon","coordinates":[[[1.5044023109006053,42.90699808477473],[1.5044602312601498,42.90475030973972],[1.4983449758591212,42.90466498038073],[1.4986356937208152,42.893426189541785],[1.5016927275074354,42.89346888904556],[1.5017507392682805,42.891221142554215],[1.5170353838617099,42.89143332612745],[1.5169205389678482,42.895928840867356],[1.519977717887453,42.895971019965145],[1.5198630918701925,42.900466556033265],[1.5137482651513885,42.90038210393547],[1.513633147979896,42.9048776509927],[1.5105755046030995,42.9048352909467],[1.5105178209677392,42.90708306944228],[1.5044023109006053,42.90699808477473]]]}},{"type":"Feature","properties":{"category":"firms_extent_snapshot","snapshot_index":6,"pass_time_utc":"2026-09-26T09:11:00+00:00","dt_local":"2026-09-26T11:11:00+02:00","label":"Emprise FIRMS cumulée à ce passage","interpretation":"Enveloppe des détections FIRMS, pas une surface brûlée","cumulative":true,"point_count":9,"extent_method":"cumulative_detection_extent_smoothed_landmasked_web_v1","local_cluster_link_m":10000.0,"model_version":"fire_progression_arrival_v1"},"geometry":{"type":"MultiPolygon","coordinates":[[[[1.7489121398236203,42.69066357614656],[1.7492635929797007,42.6926249857184],[1.7503328202731288,42.69437964046038],[1.753587382502449,42.6968335416958],[1.756199562816631,42.69995038805125],[1.7590801236083813,42.70140744713868],[1.7632378771490669,42.702205380879676],[1.7692145530339507,42.70495736653273],[1.7713365044512963,42.704981741131334],[1.7789089773735762,42.70291792223836],[1.781634993760754,42.70130714376337],[1.7833644962248159,42.69900659043902],[1.7837988928285664,42.697054226337144],[1.7834650694185594,42.695146269632],[1.7814112709316534,42.692213483130224],[1.7802982772547418,42.68951405812527],[1.7780465314559228,42.68740545704912],[1.7749283570098155,42.686129638174876],[1.7713858137107448,42.68583116050268],[1.7665292876564875,42.68663564667334],[1.760768136911468,42.684334482112156],[1.758193719024445,42.68402900871019],[1.755607554937148,42.684274600282095],[1.7530932614219226,42.68510604394561],[1.7510311372298693,42.686454278203925],[1.7493721883222886,42.688659306298455],[1.7489121398236203,42.69066357614656]]],[[[1.4924692488821327,42.902871660634325],[1.4928133183809105,42.90483428481259],[1.4938786957507268,42.90659183465891],[1.4972293255238767,42.90891119802769],[1.501465938028139,42.909741968952794],[1.5068748617660397,42.90915084950902],[1.5103822411836227,42.91029479225099],[1.5129623427771215,42.91061960214394],[1.5228735932343977,42.90894915288912],[1.5241496427389458,42.9076308870641],[1.5250940537651205,42.90422550874023],[1.524705204550801,42.90221407432934],[1.5219621276562159,42.89959380621624],[1.5213740999426064,42.89772499837035],[1.5181625757199857,42.892685119225334],[1.5153283620533684,42.89090830357824],[1.5111678354260853,42.89008048535552],[1.502632886866091,42.89132761718207],[1.498839155654001,42.892942304894746],[1.494310650714472,42.897660886569156],[1.4924692488821327,42.902871660634325]]]]}},{"type":"Feature","properties":{"category":"historical_support","snapshot_index":6,"pass_time_utc":"2026-09-26T09:11:00+00:00","dt_local":"2026-09-26T11:11:00+02:00","area_km2":4.375,"label":"Isoline temporelle","coherence_level":"indisponible","coherence_fraction":0.0,"projection_displayed":false,"model_version":"fire_progression_arrival_v1"},"geometry":{"type":"Polygon","coordinates":[[[1.501286519375442,42.90920323963457],[1.5013445625914599,42.90695546187851],[1.4952290794678156,42.906869954962325],[1.4952873549097265,42.904622185144746],[1.4922297384732905,42.90457930287136],[1.4922881277528246,42.9023315392597],[1.4892306341885635,42.902288571698826],[1.4894646194046794,42.89329756891193],[1.4925216396602832,42.89334052947476],[1.4925800063371033,42.89109278821013],[1.4986938237875083,42.89117844478913],[1.4987519493535393,42.88893070451575],[1.5048655482126807,42.88901600955566],[1.5049234327029652,42.886768270291235],[1.5140935097152504,42.886895570067786],[1.5140359800922774,42.889143314515984],[1.5201496236324872,42.889227749420854],[1.5198630918701925,42.900466556033265],[1.5137482651513885,42.90038210393547],[1.513633147979896,42.9048776509927],[1.5105755046030995,42.9048352909467],[1.5105178209677392,42.90708306944228],[1.5044023109006053,42.90699808477473],[1.5043443860550594,42.90924586426645],[1.501286519375442,42.90920323963457]]]}},{"type":"Feature","properties":{"category":"observed_front","snapshot_index":6,"pass_time_utc":"2026-09-26T09:11:00+00:00","dt_local":"2026-09-26T11:11:00+02:00","area_km2":2.188,"label":"Activité observée","coherence_level":"indisponible","coherence_fraction":0.0,"projection_displayed":false,"model_version":"fire_progression_arrival_v1"},"geometry":{"type":"Polygon","coordinates":[[[1.501286519375442,42.90920323963457],[1.5013445625914599,42.90695546187851],[1.4952290794678156,42.906869954962325],[1.4952873549097265,42.904622185144746],[1.4922297384732905,42.90457930287136],[1.4924048927476392,42.897836025428425],[1.4954621541598023,42.89787890246357],[1.4955204115530225,42.895631150504485],[1.498577559152937,42.89567393877046],[1.4986356937208152,42.893426189541785],[1.5078068085476128,42.89355402699268],[1.507749028926306,42.89580178142706],[1.510806194478119,42.895844221598125],[1.5107485287082896,42.89809198223373],[1.5138058170514277,42.898134337105255],[1.513633147979896,42.9048776509927],[1.5105755046030995,42.9048352909467],[1.5105178209677392,42.90708306944228],[1.5044023109006053,42.90699808477473],[1.5043443860550594,42.90924586426645],[1.501286519375442,42.90920323963457]]]}},{"type":"Feature","properties":{"category":"historical_support","snapshot_index":7,"pass_time_utc":"2026-09-26T20:17:00+00:00","dt_local":"2026-09-26T22:17:00+02:00","area_km2":5.688,"label":"Isoline temporelle","coherence_level":"indisponible","coherence_fraction":0.0,"projection_displayed":false,"model_version":"fire_progression_arrival_v1"},"geometry":{"type":"Polygon","coordinates":[[[1.501286519375442,42.90920323963457],[1.5013445625914599,42.90695546187851],[1.4952290794678156,42.906869954962325],[1.4952873549097265,42.904622185144746],[1.4922297384732905,42.90457930287136],[1.4922881277528246,42.9023315392597],[1.4892306341885635,42.902288571698826],[1.4894646194046794,42.89329756891193],[1.4925216396602832,42.89334052947476],[1.4925800063371033,42.89109278821013],[1.4986938237875083,42.89117844478913],[1.4987519493535393,42.88893070451575],[1.5048655482126807,42.88901600955566],[1.5049234327029652,42.886768270291235],[1.5140935097152504,42.886895570067786],[1.5140359800922774,42.889143314515984],[1.523206452061279,42.889269836352085],[1.5230920892779887,42.89376534899839],[1.5261491587445297,42.89380735233588],[1.5260350148968913,42.89830288630961],[1.522977708782902,42.89826087955117],[1.522806104821652,42.905004208898255],[1.5197484480983319,42.90496210996868],[1.5196337865677458,42.90945768174545],[1.501286519375442,42.90920323963457]]]}},{"type":"Feature","properties":{"category":"observed_front","snapshot_index":7,"pass_time_utc":"2026-09-26T20:17:00+00:00","dt_local":"2026-09-26T22:17:00+02:00","area_km2":4.875,"label":"Activité observée","coherence_level":"indisponible","coherence_fraction":0.0,"projection_displayed":false,"model_version":"fire_progression_arrival_v1"},"geometry":{"type":"Polygon","coordinates":[[[1.501286519375442,42.90920323963457],[1.5013445625914599,42.90695546187851],[1.4952290794678156,42.906869954962325],[1.4952873549097265,42.904622185144746],[1.4922297384732905,42.90457930287136],[1.4922881277528246,42.9023315392597],[1.4892306341885635,42.902288571698826],[1.489347635856019,42.897793061366706],[1.4924048927476392,42.897836025428425],[1.4924632684639703,42.89558827521525],[1.4955204115530225,42.895631150504485],[1.4955786644353795,42.893383403018106],[1.504749765786086,42.89351150152927],[1.5048076592405613,42.891263753302745],[1.507864583695198,42.89130627703455],[1.5079223543695806,42.889058531555904],[1.523206452061279,42.889269836352085],[1.5230920892779887,42.89376534899839],[1.5261491587445297,42.89380735233588],[1.5260350148968913,42.89830288630961],[1.522977708782902,42.89826087955117],[1.522806104821652,42.905004208898255],[1.5197484480983319,42.90496210996868],[1.5196337865677458,42.90945768174545],[1.501286519375442,42.90920323963457]]]}},{"type":"Feature","properties":{"category":"firms_extent_snapshot","snapshot_index":8,"pass_time_utc":"2026-09-27T01:15:00+00:00","dt_local":"2026-09-27T03:15:00+02:00","label":"Emprise FIRMS cumulée à ce passage","interpretation":"Enveloppe des détections FIRMS, pas une surface brûlée","cumulative":true,"point_count":13,"extent_method":"cumulative_detection_extent_smoothed_landmasked_web_v1","local_cluster_link_m":10000.0,"model_version":"fire_progression_arrival_v1"},"geometry":{"type":"MultiPolygon","coordinates":[[[[1.7489121398236203,42.69066357614656],[1.7492635929797007,42.6926249857184],[1.7503328202731288,42.69437964046038],[1.753587382502449,42.6968335416958],[1.756199562816631,42.69995038805125],[1.7590801236083813,42.70140744713868],[1.7632378771490669,42.702205380879676],[1.7692145530339507,42.70495736653273],[1.7713365044512963,42.704981741131334],[1.7789089773735762,42.70291792223836],[1.781634993760754,42.70130714376337],[1.7833644962248159,42.69900659043902],[1.7837988928285664,42.697054226337144],[1.7834650694185594,42.695146269632],[1.7814112709316534,42.692213483130224],[1.7802982772547418,42.68951405812527],[1.7780465314559228,42.68740545704912],[1.7749283570098155,42.686129638174876],[1.7713858137107448,42.68583116050268],[1.7665292876564875,42.68663564667334],[1.760768136911468,42.684334482112156],[1.758193719024445,42.68402900871019],[1.755607554937148,42.684274600282095],[1.7530932614219226,42.68510604394561],[1.7510311372298693,42.686454278203925],[1.7493721883222886,42.688659306298455],[1.7489121398236203,42.69066357614656]]],[[[1.4891790381679217,42.904251379562226],[1.4895230045987147,42.90621401668573],[1.4906272159238756,42.90801873756235],[1.4923966297137168,42.90951009839171],[1.494610895571192,42.91053633463982],[1.4990005135138136,42.91110508386514],[1.5044785799671236,42.910238408826636],[1.5088402860576042,42.91210012676783],[1.5123371919343278,42.912662003986746],[1.5166813465948892,42.91192571089138],[1.520163274275806,42.90985002258954],[1.523149501026963,42.90877930660147],[1.5241496427389458,42.9076308870641],[1.5250972943717624,42.904170425490065],[1.524705204550801,42.90221407432934],[1.5219621276562159,42.89959380621624],[1.5213740999426064,42.89772499837035],[1.5181625757199857,42.892685119225334],[1.5153283620533684,42.89090830357824],[1.5110929254739436,42.8900780933384],[1.502632886866091,42.89132761718207],[1.4988944358322271,42.892905053572726],[1.4938158565792055,42.89832206946354],[1.4907806884261972,42.90057350496372],[1.4896248637018727,42.9022998547901],[1.4891790381679217,42.904251379562226]]]]}},{"type":"Feature","properties":{"category":"historical_support","snapshot_index":8,"pass_time_utc":"2026-09-27T01:15:00+00:00","dt_local":"2026-09-27T03:15:00+02:00","area_km2":5.688,"label":"Isoline temporelle","coherence_level":"indisponible","coherence_fraction":0.0,"projection_displayed":false,"model_version":"fire_progression_arrival_v1"},"geometry":{"type":"Polygon","coordinates":[[[1.501286519375442,42.90920323963457],[1.5013445625914599,42.90695546187851],[1.4952290794678156,42.906869954962325],[1.4952873549097265,42.904622185144746],[1.4922297384732905,42.90457930287136],[1.4922881277528246,42.9023315392597],[1.4892306341885635,42.902288571698826],[1.4894646194046794,42.89329756891193],[1.4925216396602832,42.89334052947476],[1.4925800063371033,42.89109278821013],[1.4986938237875083,42.89117844478913],[1.4987519493535393,42.88893070451575],[1.5048655482126807,42.88901600955566],[1.5049234327029652,42.886768270291235],[1.5140935097152504,42.886895570067786],[1.5140359800922774,42.889143314515984],[1.523206452061279,42.889269836352085],[1.5230920892779887,42.89376534899839],[1.5261491587445297,42.89380735233588],[1.5260350148968913,42.89830288630961],[1.522977708782902,42.89826087955117],[1.522806104821652,42.905004208898255],[1.5197484480983319,42.90496210996868],[1.5196337865677458,42.90945768174545],[1.501286519375442,42.90920323963457]]]}},{"type":"Feature","properties":{"category":"observed_front","snapshot_index":8,"pass_time_utc":"2026-09-27T01:15:00+00:00","dt_local":"2026-09-27T03:15:00+02:00","area_km2":2.438,"label":"Activité observée","coherence_level":"indisponible","coherence_fraction":0.0,"projection_displayed":false,"model_version":"fire_progression_arrival_v1"},"geometry":{"type":"Polygon","coordinates":[[[1.501286519375442,42.90920323963457],[1.5013445625914599,42.90695546187851],[1.4952290794678156,42.906869954962325],[1.4952873549097265,42.904622185144746],[1.4922297384732905,42.90457930287136],[1.4924632684639703,42.89558827521525],[1.498577559152937,42.89567393877046],[1.4986356937208152,42.893426189541785],[1.5078068085476128,42.89355402699268],[1.507749028926306,42.89580178142706],[1.5138633644950183,42.89588657474496],[1.5135755827074069,42.90712543121324],[1.5074600636957518,42.90704062062935],[1.507402257221199,42.9092884018532],[1.501286519375442,42.90920323963457]]]}},{"type":"Feature","properties":{"category":"historical_support","snapshot_index":9,"pass_time_utc":"2026-09-27T01:52:00+00:00","dt_local":"2026-09-27T03:52:00+02:00","area_km2":5.688,"label":"Isoline temporelle","coherence_level":"indisponible","coherence_fraction":0.0,"projection_displayed":false,"model_version":"fire_progression_arrival_v1"},"geometry":{"type":"Polygon","coordinates":[[[1.501286519375442,42.90920323963457],[1.5013445625914599,42.90695546187851],[1.4952290794678156,42.906869954962325],[1.4952873549097265,42.904622185144746],[1.4922297384732905,42.90457930287136],[1.4922881277528246,42.9023315392597],[1.4892306341885635,42.902288571698826],[1.4894646194046794,42.89329756891193],[1.4925216396602832,42.89334052947476],[1.4925800063371033,42.89109278821013],[1.4986938237875083,42.89117844478913],[1.4987519493535393,42.88893070451575],[1.5048655482126807,42.88901600955566],[1.5049234327029652,42.886768270291235],[1.5140935097152504,42.886895570067786],[1.5140359800922774,42.889143314515984],[1.523206452061279,42.889269836352085],[1.5230920892779887,42.89376534899839],[1.5261491587445297,42.89380735233588],[1.5260350148968913,42.89830288630961],[1.522977708782902,42.89826087955117],[1.522806104821652,42.905004208898255],[1.5197484480983319,42.90496210996868],[1.5196337865677458,42.90945768174545],[1.501286519375442,42.90920323963457]]]}},{"type":"Feature","properties":{"category":"observed_front","snapshot_index":9,"pass_time_utc":"2026-09-27T01:52:00+00:00","dt_local":"2026-09-27T03:52:00+02:00","area_km2":2.25,"label":"Activité observée","coherence_level":"indisponible","coherence_fraction":0.0,"projection_displayed":false,"model_version":"fire_progression_arrival_v1"},"geometry":{"type":"Polygon","coordinates":[[[1.501286519375442,42.90920323963457],[1.5013445625914599,42.90695546187851],[1.4952290794678156,42.906869954962325],[1.4952873549097265,42.904622185144746],[1.4922297384732905,42.90457930287136],[1.4924048927476392,42.897836025428425],[1.4954621541598023,42.89787890246357],[1.4955204115530225,42.895631150504485],[1.5016347112545598,42.89571664001301],[1.5016927275074354,42.89346888904556],[1.504749765786086,42.89351150152927],[1.5046918678487342,42.89575925423196],[1.510806194478119,42.895844221598125],[1.5107485287082896,42.89809198223373],[1.5138058170514277,42.898134337105255],[1.5135755827074069,42.90712543121324],[1.5105178209677392,42.90708306944228],[1.5104601328646992,42.9093308523947],[1.501286519375442,42.90920323963457]]]}},{"type":"Feature","properties":{"category":"historical_support","snapshot_index":10,"pass_time_utc":"2026-09-27T02:13:00+00:00","dt_local":"2026-09-27T04:13:00+02:00","area_km2":6.25,"label":"Isoline temporelle","coherence_level":"indisponible","coherence_fraction":0.0,"projection_displayed":false,"model_version":"fire_progression_arrival_v1"},"geometry":{"type":"Polygon","coordinates":[[[1.4951125150430211,42.91136550796376],[1.4951707995124224,42.909117729236385],[1.4921129463473428,42.90907484347048],[1.492171344671638,42.906827070942704],[1.4891136143981036,42.906784099882366],[1.4894646194046794,42.89329756891193],[1.4925216396602832,42.89334052947476],[1.4925800063371033,42.89109278821013],[1.4986938237875083,42.89117844478913],[1.4987519493535393,42.88893070451575],[1.5048655482126807,42.88901600955566],[1.5049234327029652,42.886768270291235],[1.5140935097152504,42.886895570067786],[1.5140359800922774,42.889143314515984],[1.523206452061279,42.889269836352085],[1.5230920892779887,42.89376534899839],[1.5261491587445297,42.89380735233588],[1.5260350148968913,42.89830288630961],[1.522977708782902,42.89826087955117],[1.522806104821652,42.905004208898255],[1.5197484480983319,42.90496210996868],[1.5196337865677458,42.90945768174545],[1.5043443860550594,42.90924586426645],[1.5042864567229908,42.91149364821167],[1.4951125150430211,42.91136550796376]]]}},{"type":"Feature","properties":{"category":"observed_front","snapshot_index":10,"pass_time_utc":"2026-09-27T02:13:00+00:00","dt_local":"2026-09-27T04:13:00+02:00","area_km2":3.125,"label":"Activité observée","coherence_level":"indisponible","coherence_fraction":0.0,"projection_displayed":false,"model_version":"fire_progression_arrival_v1"},"geometry":{"type":"Polygon","coordinates":[[[1.4951125150430211,42.91136550796376],[1.4951707995124224,42.909117729236385],[1.4921129463473428,42.90907484347048],[1.492171344671638,42.906827070942704],[1.4891136143981036,42.906784099882366],[1.489347635856019,42.897793061366706],[1.4924048927476392,42.897836025428425],[1.4924632684639703,42.89558827521525],[1.4955204115530225,42.895631150504485],[1.4955786644353795,42.893383403018106],[1.5078068085476128,42.89355402699268],[1.507749028926306,42.89580178142706],[1.510806194478119,42.895844221598125],[1.5107485287082896,42.89809198223373],[1.5138058170514277,42.898134337105255],[1.513633147979896,42.9048776509927],[1.5105755046030995,42.9048352909467],[1.5104601328646992,42.9093308523947],[1.5043443860550594,42.90924586426645],[1.5042864567229908,42.91149364821167],[1.4951125150430211,42.91136550796376]]]}},{"type":"Feature","properties":{"category":"historical_support","snapshot_index":11,"pass_time_utc":"2026-09-27T02:56:00+00:00","dt_local":"2026-09-27T04:56:00+02:00","area_km2":6.25,"label":"Isoline temporelle","coherence_level":"indisponible","coherence_fraction":0.0,"projection_displayed":false,"model_version":"fire_progression_arrival_v1"},"geometry":{"type":"Polygon","coordinates":[[[1.4951125150430211,42.91136550796376],[1.4951707995124224,42.909117729236385],[1.4921129463473428,42.90907484347048],[1.492171344671638,42.906827070942704],[1.4891136143981036,42.906784099882366],[1.4894646194046794,42.89329756891193],[1.4925216396602832,42.89334052947476],[1.4925800063371033,42.89109278821013],[1.4986938237875083,42.89117844478913],[1.4987519493535393,42.88893070451575],[1.5048655482126807,42.88901600955566],[1.5049234327029652,42.886768270291235],[1.5140935097152504,42.886895570067786],[1.5140359800922774,42.889143314515984],[1.523206452061279,42.889269836352085],[1.5230920892779887,42.89376534899839],[1.5261491587445297,42.89380735233588],[1.5260350148968913,42.89830288630961],[1.522977708782902,42.89826087955117],[1.522806104821652,42.905004208898255],[1.5197484480983319,42.90496210996868],[1.5196337865677458,42.90945768174545],[1.5043443860550594,42.90924586426645],[1.5042864567229908,42.91149364821167],[1.4951125150430211,42.91136550796376]]]}},{"type":"Feature","properties":{"category":"observed_front","snapshot_index":11,"pass_time_utc":"2026-09-27T02:56:00+00:00","dt_local":"2026-09-27T04:56:00+02:00","area_km2":2.875,"label":"Activité observée","coherence_level":"indisponible","coherence_fraction":0.0,"projection_displayed":false,"model_version":"fire_progression_arrival_v1"},"geometry":{"type":"Polygon","coordinates":[[[1.4921129463473428,42.90907484347048],[1.492171344671638,42.906827070942704],[1.4891136143981036,42.906784099882366],[1.489347635856019,42.897793061366706],[1.4924048927476392,42.897836025428425],[1.4924632684639703,42.89558827521525],[1.4955204115530225,42.895631150504485],[1.4955786644353795,42.893383403018106],[1.5078068085476128,42.89355402699268],[1.507749028926306,42.89580178142706],[1.510806194478119,42.895844221598125],[1.5107485287082896,42.89809198223373],[1.5138058170514277,42.898134337105255],[1.513633147979896,42.9048776509927],[1.5105755046030995,42.9048352909467],[1.5105178209677392,42.90708306944228],[1.5074600636957518,42.90704062062935],[1.507402257221199,42.9092884018532],[1.4921129463473428,42.90907484347048]]]}},{"type":"Feature","properties":{"category":"firms_extent_snapshot","snapshot_index":12,"pass_time_utc":"2026-09-27T04:02:00+00:00","dt_local":"2026-09-27T06:02:00+02:00","label":"Emprise FIRMS cumulée à ce passage","interpretation":"Enveloppe des détections FIRMS, pas une surface brûlée","cumulative":true,"point_count":28,"extent_method":"cumulative_detection_extent_smoothed_landmasked_web_v1","local_cluster_link_m":10000.0,"model_version":"fire_progression_arrival_v1"},"geometry":{"type":"MultiPolygon","coordinates":[[[[1.7489121398236203,42.69066357614656],[1.7492635929797007,42.6926249857184],[1.7503328202731288,42.69437964046038],[1.753587382502449,42.6968335416958],[1.756199562816631,42.69995038805125],[1.7590801236083813,42.70140744713868],[1.7632378771490669,42.702205380879676],[1.7692145530339507,42.70495736653273],[1.7713365044512963,42.704981741131334],[1.7789089773735762,42.70291792223836],[1.781634993760754,42.70130714376337],[1.7833644962248159,42.69900659043902],[1.7837988928285664,42.697054226337144],[1.7834650694185594,42.695146269632],[1.7814112709316534,42.692213483130224],[1.7802982772547418,42.68951405812527],[1.7780465314559228,42.68740545704912],[1.7749283570098155,42.686129638174876],[1.7713858137107448,42.68583116050268],[1.7665292876564875,42.68663564667334],[1.760768136911468,42.684334482112156],[1.758193719024445,42.68402900871019],[1.755607554937148,42.684274600282095],[1.7530932614219226,42.68510604394561],[1.7510311372298693,42.686454278203925],[1.7493721883222886,42.688659306298455],[1.7489121398236203,42.69066357614656]]],[[[1.4891790381679217,42.904251379562226],[1.4895230045987147,42.90621401668573],[1.4906272159238756,42.90801873756235],[1.4923966297137168,42.90951009839171],[1.494610895571192,42.91053633463982],[1.498175551732802,42.91112197187955],[1.5053933367366152,42.910817505175174],[1.5096112977420695,42.91231650558372],[1.5123371919343278,42.912662003986746],[1.5166813465948892,42.91192571089138],[1.520163274275806,42.90985002258954],[1.523149501026963,42.90877930660147],[1.5241496427389458,42.9076308870641],[1.5250972943717624,42.904170425490065],[1.524705204550801,42.90221407432934],[1.5219621276562159,42.89959380621624],[1.5213740999426064,42.89772499837035],[1.5181625757199857,42.892685119225334],[1.5153283620533684,42.89090830357824],[1.5110929254739436,42.8900780933384],[1.502632886866091,42.89132761718207],[1.4988944358322271,42.892905053572726],[1.4938158565792055,42.89832206946354],[1.4907806884261972,42.90057350496372],[1.4896248637018727,42.9022998547901],[1.4891790381679217,42.904251379562226]]]]}},{"type":"Feature","properties":{"category":"historical_support","snapshot_index":12,"pass_time_utc":"2026-09-27T04:02:00+00:00","dt_local":"2026-09-27T06:02:00+02:00","area_km2":6.25,"label":"Isoline temporelle","coherence_level":"indisponible","coherence_fraction":0.0,"projection_displayed":false,"model_version":"fire_progression_arrival_v1"},"geometry":{"type":"Polygon","coordinates":[[[1.4951125150430211,42.91136550796376],[1.4951707995124224,42.909117729236385],[1.4921129463473428,42.90907484347048],[1.492171344671638,42.906827070942704],[1.4891136143981036,42.906784099882366],[1.4894646194046794,42.89329756891193],[1.4925216396602832,42.89334052947476],[1.4925800063371033,42.89109278821013],[1.4986938237875083,42.89117844478913],[1.4987519493535393,42.88893070451575],[1.5048655482126807,42.88901600955566],[1.5049234327029652,42.886768270291235],[1.5140935097152504,42.886895570067786],[1.5140359800922774,42.889143314515984],[1.523206452061279,42.889269836352085],[1.5230920892779887,42.89376534899839],[1.5261491587445297,42.89380735233588],[1.5260350148968913,42.89830288630961],[1.522977708782902,42.89826087955117],[1.522806104821652,42.905004208898255],[1.5197484480983319,42.90496210996868],[1.5196337865677458,42.90945768174545],[1.5043443860550594,42.90924586426645],[1.5042864567229908,42.91149364821167],[1.4951125150430211,42.91136550796376]]]}},{"type":"Feature","properties":{"category":"observed_front","snapshot_index":12,"pass_time_utc":"2026-09-27T04:02:00+00:00","dt_local":"2026-09-27T06:02:00+02:00","area_km2":2.312,"label":"Activité observée","coherence_level":"indisponible","coherence_fraction":0.0,"projection_displayed":false,"model_version":"fire_progression_arrival_v1"},"geometry":{"type":"Polygon","coordinates":[[[1.4982286571915093,42.909160527957816],[1.4982868187774763,42.906912751940986],[1.4952290794678156,42.906869954962325],[1.4952873549097265,42.904622185144746],[1.4922297384732905,42.90457930287136],[1.4924048927476392,42.897836025428425],[1.4954621541598023,42.89787890246357],[1.4955204115530225,42.895631150504485],[1.498577559152937,42.89567393877046],[1.4986356937208152,42.893426189541785],[1.5078068085476128,42.89355402699268],[1.507749028926306,42.89580178142706],[1.510806194478119,42.895844221598125],[1.5107485287082896,42.89809198223373],[1.5138058170514277,42.898134337105255],[1.513633147979896,42.9048776509927],[1.5105755046030995,42.9048352909467],[1.5105178209677392,42.90708306944228],[1.5074600636957518,42.90704062062935],[1.507402257221199,42.9092884018532],[1.4982286571915093,42.909160527957816]]]}}]}