{"type":"FeatureCollection","name":"detection_envelopes","crs":{"type":"name","properties":{"name":"urn:ogc:def:crs:OGC:1.3:CRS84"}},"features":[{"type":"Feature","properties":{"cluster_id":1,"snapshot_index":1,"estimated_time_utc":"2026-09-04T01:02:00Z","observed_until_utc":"2026-09-04T01:02:00Z","target_time_utc":"2026-09-04T01:02:00Z","arrival_h":0.0,"hours_ago":74.1,"supported_detections_cumulative":2,"sources_cumulative":"VIIRS_NOAA20_NRT","last_source":"VIIRS_NOAA20_NRT","last_satellite":"N20","last_instrument":"VIIRS","detected_area_km2":0.5645409244294187,"product_type":"cumulative_active_fire_detection_extent"},"geometry":{"type":"MultiLineString","coordinates":[[[-0.539594188165552,42.921858280452994],[-0.540785010655817,42.91998892250846],[-0.543425528249506,42.91928588914289],[-0.545969092506721,42.920160965574006],[-0.546925827204405,42.922101594486286],[-0.545735159182221,42.92397102397934],[-0.543094456380536,42.924674117018135],[-0.54055073765524,42.92379896903853],[-0.539594188165552,42.921858280452994]],[[-0.547813757763172,42.92839856020214],[-0.549004449668619,42.926529100366224],[-0.551645165266849,42.92582586092806],[-0.554189140136365,42.926700747808944],[-0.555146257574879,42.928641314721034],[-0.553955720210902,42.93051084609377],[-0.551314819395098,42.93121414522066],[-0.548770689984112,42.93033918680299],[-0.547813757763172,42.92839856020214]]]}},{"type":"Feature","properties":{"cluster_id":1,"snapshot_index":2,"estimated_time_utc":"2026-09-04T02:41:00Z","observed_until_utc":"2026-09-04T02:41:00Z","target_time_utc":"2026-09-04T07:02:00Z","arrival_h":1.65,"hours_ago":72.45,"supported_detections_cumulative":15,"sources_cumulative":"VIIRS_NOAA20_NRT, VIIRS_NOAA21_NRT, VIIRS_SNPP_NRT","last_source":"VIIRS_NOAA20_NRT","last_satellite":"N20","last_instrument":"VIIRS","detected_area_km2":1.7400703048240855,"product_type":"cumulative_active_fire_detection_extent"},"geometry":{"type":"MultiLineString","coordinates":[[[-0.543425528249506,42.91928588914289],[-0.545969092506721,42.920160965574006],[-0.546925827204405,42.922101594486286],[-0.546180185273438,42.92361319488532],[-0.544044124544425,42.92461301599582],[-0.543469358743181,42.92536714382744],[-0.543137910935637,42.92966323633607],[-0.54198945667341,42.93066593853561],[-0.540392740887146,42.93114611601074],[-0.535309573894303,42.930723366957864],[-0.533363476075854,42.92896537670382],[-0.533836153857098,42.92684102260109],[-0.531975984758046,42.92618517584053],[-0.530959582398785,42.92505667357266],[-0.53079800282064,42.923794498897415],[-0.531409928133716,42.92260049628113],[-0.530169591755703,42.921142442800004],[-0.530442800284244,42.91933648480881],[-0.531841519737565,42.9182121574283],[-0.533605821774243,42.917824950995985],[-0.537029452083149,42.91884133557755],[-0.540953463911355,42.91816745786988],[-0.543425528249506,42.91928588914289]],[[-0.548019618321899,42.92762172565779],[-0.549897477642297,42.92608675286538],[-0.552702263251378,42.92597709656875],[-0.5547911393727,42.92735698494954],[-0.55494048881123,42.92941816361434],[-0.553062655085997,42.93095322904875],[-0.55025762961549,42.93106289523104],[-0.548168727899005,42.92968291420827],[-0.548019618321899,42.92762172565779]]]}},{"type":"Feature","properties":{"cluster_id":1,"snapshot_index":3,"estimated_time_utc":"2026-09-04T12:25:00Z","observed_until_utc":"2026-09-04T12:25:00Z","target_time_utc":"2026-09-04T13:02:00Z","arrival_h":11.383333333333333,"hours_ago":62.71666666666667,"supported_detections_cumulative":18,"sources_cumulative":"VIIRS_NOAA20_NRT, VIIRS_NOAA21_NRT, VIIRS_SNPP_NRT","last_source":"VIIRS_NOAA20_NRT","last_satellite":"N20","last_instrument":"VIIRS","detected_area_km2":1.7873714961215592,"product_type":"cumulative_active_fire_detection_extent"},"geometry":{"type":"MultiLineString","coordinates":[[[-0.546737762585362,42.92334366711371],[-0.546066218134524,42.92534789070821],[-0.543616270902366,42.92642101797368],[-0.543403488101825,42.92912497318173],[-0.542315319103554,42.93047111418605],[-0.54003444640497,42.93117309018709],[-0.535983905450726,42.930907676015195],[-0.534465896558651,42.93030523999847],[-0.533469345765811,42.929218342845324],[-0.533287728395905,42.92791458166064],[-0.533836153857098,42.92684102260109],[-0.531975984758046,42.92618517584053],[-0.530979551357796,42.925098259548214],[-0.53079800282064,42.923794498897415],[-0.531409928133716,42.92260049628113],[-0.530269790849294,42.92139664845428],[-0.530191981950609,42.919831981103755],[-0.531265399555655,42.91852870579755],[-0.532893034271819,42.91789597171866],[-0.534676027823422,42.917912367459365],[-0.53714935645355,42.91884604421409],[-0.53952272997954,42.91820602327345],[-0.541305734921727,42.9182223089922],[-0.546198649908324,42.920364875320935],[-0.546896207848864,42.92161731114965],[-0.546737762585362,42.92334366711371]],[[-0.548324593113462,42.927142899502876],[-0.550573845284504,42.92590663194261],[-0.553353852884489,42.92620118162799],[-0.555036288775163,42.927854023957444],[-0.554635556657563,42.929897009506234],[-0.552386236342376,42.93113336643956],[-0.549605997344484,42.930838790434805],[-0.547923629597955,42.929185858732296],[-0.548324593113462,42.927142899502876]]]}},{"type":"Feature","properties":{"cluster_id":1,"snapshot_index":4,"estimated_time_utc":"2026-09-04T15:16:00Z","observed_until_utc":"2026-09-04T15:16:00Z","target_time_utc":"2026-09-04T19:02:00Z","arrival_h":14.233333333333333,"hours_ago":59.86666666666667,"supported_detections_cumulative":25,"sources_cumulative":"MODIS_NRT, VIIRS_NOAA20_NRT, VIIRS_NOAA21_NRT, VIIRS_SNPP_NRT","last_source":"MODIS_NRT","last_satellite":"Aqua","last_instrument":"MODIS","detected_area_km2":3.798846304762679,"product_type":"cumulative_active_fire_detection_extent"},"geometry":{"type":"MultiLineString","coordinates":[[[-0.487061374461026,42.90483068406267],[-0.486125596548397,42.906237155640675],[-0.484342796181822,42.90701388349402],[-0.482501888590317,42.90700715436107],[-0.48072968447871,42.90621743179112],[-0.479809579833455,42.90401278217707],[-0.481817854177174,42.9007475986756],[-0.484458209982109,42.90004602672591],[-0.487000041700008,42.90092248399851],[-0.487955962591893,42.90264300847079],[-0.487061374461026,42.90483068406267]],[[-0.536100428266497,42.93113323749669],[-0.53341993999585,42.93132513973596],[-0.530722668298045,42.93092191070398],[-0.527709844715054,42.92958169123042],[-0.526003781042435,42.92805046476916],[-0.524976129924778,42.926221233863885],[-0.524718547979476,42.92420751572854],[-0.525264251028585,42.92226959719771],[-0.5270879341433,42.92005575716468],[-0.53171125974686,42.91740392025772],[-0.533367057056834,42.9169175963402],[-0.535416049707483,42.917147652061836],[-0.53830926020765,42.9186010893258],[-0.542746917327064,42.91668851603805],[-0.546348467974196,42.9163072042619],[-0.548985254621604,42.916707689631004],[-0.551997901058551,42.918047297312846],[-0.553734993409665,42.919616014740015],[-0.55491632619436,42.92209986129923],[-0.554896569546201,42.92407878850787],[-0.553768527325469,42.92641408618312],[-0.55481657617982,42.92739692671574],[-0.555143069363043,42.92868535189339],[-0.554209349708315,42.930322938346706],[-0.55125488999178,42.93121180021222],[-0.549305722996002,42.93069264381876],[-0.548103537498949,42.92957160259137],[-0.543233568665527,42.929501135050565],[-0.541033367122238,42.93103032315243],[-0.536100428266497,42.93113323749669]]]}},{"type":"Feature","properties":{"cluster_id":1,"snapshot_index":5,"estimated_time_utc":"2026-09-05T02:24:00Z","observed_until_utc":"2026-09-05T02:24:00Z","target_time_utc":"2026-09-05T07:02:00Z","arrival_h":25.366666666666667,"hours_ago":48.733333333333334,"supported_detections_cumulative":31,"sources_cumulative":"MODIS_NRT, VIIRS_NOAA20_NRT, VIIRS_NOAA21_NRT, VIIRS_SNPP_NRT","last_source":"VIIRS_NOAA20_NRT","last_satellite":"N20","last_instrument":"VIIRS","detected_area_km2":3.935143407137532,"product_type":"cumulative_active_fire_detection_extent"},"geometry":{"type":"MultiLineString","coordinates":[[[-0.486897996946339,42.905300335264556],[-0.485867709865863,42.90642182343847],[-0.483989920981988,42.90706634861837],[-0.482158776378648,42.906927002709125],[-0.480500413084088,42.90601338479128],[-0.47987869700404,42.90375305265016],[-0.480994818980721,42.90155498618847],[-0.482095394344147,42.90057905433119],[-0.48481656540836,42.900071119212015],[-0.487229315833259,42.901126516200826],[-0.487951249971786,42.90290763851859],[-0.486897996946339,42.905300335264556]],[[-0.555236731908679,42.92308248811762],[-0.555443148039224,42.925138386160626],[-0.5542357462476,42.926739401579326],[-0.555050633445605,42.92789684498132],[-0.555028801563773,42.92920732112799],[-0.553911089021156,42.93054032797667],[-0.551973875749831,42.931192347870116],[-0.549605997344484,42.930838790434805],[-0.548103537498949,42.92957160259137],[-0.543233568665527,42.929501135050565],[-0.542037810963282,42.930639818559854],[-0.540392740887146,42.93114611601074],[-0.538102130566398,42.93085279234537],[-0.534320558892743,42.93132584379215],[-0.531582480919346,42.93111884924627],[-0.529102282948448,42.93034756017189],[-0.527033657734013,42.92908039420648],[-0.525554767873715,42.92742650835137],[-0.52479294353224,42.92552836169087],[-0.524996215012335,42.92290138456886],[-0.526515893237235,42.920566837761626],[-0.53171125974686,42.91740392025772],[-0.533367057056834,42.9169175963402],[-0.535416049707483,42.917147652061836],[-0.53830926020765,42.9186010893258],[-0.541969079261872,42.91692249767951],[-0.545388168225945,42.91630425277193],[-0.548928846849788,42.91669266125637],[-0.551998896391434,42.91804796583572],[-0.554738418521091,42.917992117394995],[-0.556433839608567,42.91894012519919],[-0.557124266551289,42.92037659169328],[-0.556757736217073,42.921702809993484],[-0.555236731908679,42.92308248811762]]]}},{"type":"Feature","properties":{"cluster_id":1,"snapshot_index":6,"estimated_time_utc":"2026-09-05T13:48:00Z","observed_until_utc":"2026-09-05T13:48:00Z","target_time_utc":"2026-09-05T19:02:00Z","arrival_h":36.766666666666666,"hours_ago":37.333333333333336,"supported_detections_cumulative":33,"sources_cumulative":"MODIS_NRT, VIIRS_NOAA20_NRT, VIIRS_NOAA21_NRT, VIIRS_SNPP_NRT","last_source":"VIIRS_NOAA20_NRT","last_satellite":"N20","last_instrument":"VIIRS","detected_area_km2":3.935172440728216,"product_type":"cumulative_active_fire_detection_extent"},"geometry":{"type":"MultiLineString","coordinates":[[[-0.486877509627147,42.90534178225716],[-0.4856348001742,42.90656092553496],[-0.483930537948689,42.90707260254041],[-0.481882105444516,42.906841566998004],[-0.480464919960738,42.90597783333435],[-0.47987869700404,42.90375305265016],[-0.480994818980721,42.90155498618847],[-0.482143750507729,42.900552962009755],[-0.484875853981379,42.90007780581886],[-0.487264810132936,42.90116206526911],[-0.487951249971786,42.90290763851859],[-0.486877509627147,42.90534178225716]],[[-0.539559762088072,42.91810942093243],[-0.542746917327064,42.91668851603805],[-0.546288554164635,42.91630485651467],[-0.548985254621604,42.916707689631004],[-0.551998896391434,42.91804796583572],[-0.554682008011334,42.91797709202405],[-0.556208818662124,42.91873350570387],[-0.557091942609703,42.920904733930215],[-0.555200154031255,42.923163233176005],[-0.555443148039224,42.925138386160626],[-0.5542357462476,42.926739401579326],[-0.555112430224476,42.928904803573225],[-0.553911089021156,42.93054032797667],[-0.55095624299199,42.93118927392969],[-0.549257667853013,42.93066622739871],[-0.548103537498949,42.92957160259137],[-0.543233568665527,42.929501135050565],[-0.542270682030355,42.93050059123289],[-0.540745711441099,42.931093464487766],[-0.538102130566398,42.93085279234537],[-0.533360011202756,42.931322784747394],[-0.529893272430611,42.930663986082614],[-0.527033657734013,42.92908039420648],[-0.525236531735583,42.92685474943692],[-0.524711596753547,42.92486928146581],[-0.525243785123165,42.92231105212666],[-0.5270879341433,42.92005575716468],[-0.533013042418294,42.916965974824144],[-0.535416049707483,42.917147652061836],[-0.538102353052987,42.91857823063222],[-0.539559762088072,42.91810942093243]]]}},{"type":"Feature","properties":{"cluster_id":1,"snapshot_index":7,"estimated_time_utc":"2026-09-06T02:04:00Z","observed_until_utc":"2026-09-06T02:04:00Z","target_time_utc":"2026-09-06T07:02:00Z","arrival_h":49.03333333333333,"hours_ago":25.066666666666666,"supported_detections_cumulative":41,"sources_cumulative":"MODIS_NRT, VIIRS_NOAA20_NRT, VIIRS_NOAA21_NRT, VIIRS_SNPP_NRT","last_source":"VIIRS_NOAA20_NRT","last_satellite":"N20","last_instrument":"VIIRS","detected_area_km2":4.15838294775078,"product_type":"cumulative_active_fire_detection_extent"},"geometry":{"type":"MultiLineString","coordinates":[[[-0.486735392436967,42.905584941789286],[-0.485336103816523,42.906708669163876],[-0.483631749015112,42.90709313415587],[-0.481828004657293,42.90682251363641],[-0.480299453871273,42.90579379999732],[-0.479893564149477,42.90371033004825],[-0.481137589428182,42.901360958475024],[-0.482394067410535,42.90043132051933],[-0.485169850419181,42.90012191328357],[-0.48743028510111,42.90134608711768],[-0.487920370442702,42.90312706595017],[-0.486735392436967,42.905584941789286]],[[-0.556178479445399,42.92371727982233],[-0.5542357462476,42.926739401579326],[-0.555116566273284,42.92815703085647],[-0.554804029789269,42.92966309069374],[-0.553629896645837,42.930705705747336],[-0.55167498679882,42.93121306918921],[-0.54955464970078,42.93081596254331],[-0.548103537498949,42.92957160259137],[-0.543233568665527,42.929501135050565],[-0.542037810963282,42.930639818559854],[-0.540392740887146,42.93114611601074],[-0.538102130566398,42.93085279234537],[-0.53341993999585,42.93132513973596],[-0.530779085185965,42.93093694882639],[-0.52840536420135,42.93000210705284],[-0.526503243320705,42.928601147350285],[-0.525236531735583,42.92685474943692],[-0.524714274480728,42.92491333684166],[-0.524996215012335,42.92290138456886],[-0.526515893237235,42.920566837761626],[-0.531961545387761,42.91728216144813],[-0.534796007432466,42.916982368559935],[-0.53830926020765,42.9186010893258],[-0.540875591309721,42.91737162783527],[-0.542160913164062,42.91613413173177],[-0.544115398263859,42.91562694813743],[-0.546815809629964,42.91634248326799],[-0.550228582578158,42.91652217435176],[-0.552305178675127,42.917961298889615],[-0.555814947982794,42.91749587435385],[-0.55810294366178,42.91818429419817],[-0.55984604417791,42.91983677803824],[-0.560058398814366,42.92164715042452],[-0.558659806012329,42.923145590519496],[-0.556178479445399,42.92371727982233]]]}},{"type":"Feature","properties":{"cluster_id":1,"snapshot_index":8,"estimated_time_utc":"2026-09-07T03:08:00Z","observed_until_utc":"2026-09-07T03:08:00Z","target_time_utc":"2026-09-07T03:08:00Z","arrival_h":74.1,"hours_ago":0.0,"supported_detections_cumulative":45,"sources_cumulative":"MODIS_NRT, VIIRS_NOAA20_NRT, VIIRS_NOAA21_NRT, VIIRS_SNPP_NRT","last_source":"VIIRS_SNPP_NRT","last_satellite":"N","last_instrument":"VIIRS","detected_area_km2":5.30687739085059,"product_type":"cumulative_active_fire_detection_extent"},"geometry":{"type":"MultiLineString","coordinates":[[[-0.486166101338837,42.90620462738776],[-0.480520263227725,42.9093909455767],[-0.478803120908465,42.90950886994074],[-0.47535244237107,42.908904587535496],[-0.47410860753814,42.90796568303978],[-0.47363613023205,42.90631728240621],[-0.472449973347833,42.90489051557607],[-0.472792773925286,42.90299251582456],[-0.472035633957901,42.901225977720394],[-0.472578968394529,42.89993300002151],[-0.474094453015226,42.89873117751821],[-0.476158590211707,42.89834604381564],[-0.478489125109165,42.899065926749316],[-0.479642989018744,42.90081867396472],[-0.481747698791387,42.90079866319678],[-0.484098234826366,42.90004687744445],[-0.486216999660302,42.90044526467888],[-0.487601013878266,42.901579082333164],[-0.487954487737889,42.902863604361215],[-0.486166101338837,42.90620462738776]],[[-0.55555050179854,42.92466294171985],[-0.5542357462476,42.926739401579326],[-0.555050633445605,42.92789684498132],[-0.555028801563773,42.92920732112799],[-0.553379598581383,42.930827516476704],[-0.55089691503388,42.931182623619264],[-0.549257667853013,42.93066622739871],[-0.548103537498949,42.92957160259137],[-0.543233568665527,42.929501135050565],[-0.541367805562986,42.9309320862303],[-0.538710737903267,42.93104395192994],[-0.536725261226922,42.933611248462405],[-0.5340840104998,42.934314126030266],[-0.532026911820634,42.93376587686256],[-0.530461202091845,42.93208539157472],[-0.528364943241346,42.93093919465142],[-0.525236531735583,42.92685474943692],[-0.524715336920753,42.924251551822486],[-0.525589355790517,42.92169994041991],[-0.527770007141324,42.91955887186266],[-0.534912586561829,42.91567980629959],[-0.537407810936543,42.914936358376266],[-0.540029268361521,42.914754892489704],[-0.546815809629964,42.91634248326799],[-0.550172174664808,42.91650714663245],[-0.552305178675127,42.917961298889615],[-0.555814947982794,42.91749587435385],[-0.55810294366178,42.91818429419817],[-0.55984604417791,42.91983677803824],[-0.560058398814366,42.92164715042452],[-0.558985570239688,42.92295071691541],[-0.556201331056658,42.92364547357234],[-0.55555050179854,42.92466294171985]]]}}],"metadata":{"generated_at_utc":"2026-09-08T04:29:11.347245Z","product_type":"cumulative_active_fire_detection_extent","product_label":"Emprises cumulées des détections actives FIRMS","not_a_burn_perimeter":true,"not_a_continuous_fire_front":true,"not_an_arrival_time_interpolation":true,"snapshot_step_hours":6,"confidence_filter":{"VIIRS":["nominal","high"],"MODIS_minimum":30},"footprint_radius_m":{"VIIRS":300.0,"MODIS":750.0},"same_pass_neighbour_m":2000.0,"continuity_distance_m":3000.0,"clusters":[{"cluster_id":1,"first_supported_detection_utc":"2026-09-04T01:02:00Z","last_supported_detection_utc":"2026-09-07T03:08:00Z","pass_states":19,"published_snapshots":8,"final_detected_area_km2":4.158382947750783}]},"bbox":[-0.5600583988143658,42.89834604381564,-0.47203563395790055,42.934314126030266]}