{"type":"FeatureCollection","name":"fire_progression_arrival_v1","features":[{"type":"Feature","properties":{"category":"arrival_step","arrival_snapshot_index":3,"first_detected_utc":"2026-09-04T02:24:00+00:00","first_detected_local":"2026-09-04T04:24:00+02:00","area_km2":3.188,"label":"Première détection FIRMS","model_version":"fire_progression_arrival_v1"},"geometry":{"type":"Polygon","coordinates":[[[-0.5411036675412135,42.93101723656831],[-0.5409665114042465,42.928771270746616],[-0.5470792322011409,42.928569527273474],[-0.5469418505658262,42.926323573934255],[-0.5499980769596089,42.92622257592121],[-0.5494481846157779,42.91723882180386],[-0.5463924303548708,42.917339803380905],[-0.5462551018785405,42.91509387145972],[-0.5431994550000108,42.91519476202557],[-0.5430622551543862,42.912948830292876],[-0.5277844516901733,42.91345195909511],[-0.5280576818919195,42.91794386779775],[-0.5250018534167553,42.918044241021875],[-0.5254114239211739,42.92478214850391],[-0.5284676065081823,42.924681763027124],[-0.5287409424757687,42.92917371459238],[-0.531797350601967,42.92907323401969],[-0.5319341525289276,42.93131921212785],[-0.5411036675412135,42.93101723656831]]]}},{"type":"Feature","properties":{"category":"arrival_step","arrival_snapshot_index":9,"first_detected_utc":"2026-09-04T14:08:00+00:00","first_detected_local":"2026-09-04T16:08:00+02:00","area_km2":0.812,"label":"Première détection FIRMS","model_version":"fire_progression_arrival_v1"},"geometry":{"type":"Polygon","coordinates":[[[-0.5251383663509483,42.920290205895576],[-0.5250018534167553,42.918044241021875],[-0.5280576818919195,42.91794386779775],[-0.5277844516901733,42.91345195909511],[-0.5400067156606988,42.91304962985433],[-0.5398696444275893,42.91080369831724],[-0.5368142123212059,42.910904406881016],[-0.5366772696824219,42.90865847554667],[-0.5275112637775845,42.90896006758306],[-0.5276478524483471,42.91120601118865],[-0.5245923780031413,42.911306372161675],[-0.5247288592440777,42.91355232415169],[-0.5216732562347884,42.91365260230586],[-0.5220824092807315,42.920390496290764],[-0.5251383663509483,42.920290205895576]]]}},{"type":"Feature","properties":{"category":"arrival_step","arrival_snapshot_index":10,"first_detected_utc":"2026-09-04T15:16:00+00:00","first_detected_local":"2026-09-04T17:16:00+02:00","area_km2":0.375,"label":"Première détection FIRMS","model_version":"fire_progression_arrival_v1"},"geometry":{"type":"Polygon","coordinates":[[[-0.553054292710026,42.92612149098841],[-0.5523663637422146,42.914891829620665],[-0.5462551018785405,42.91509387145972],[-0.5463924303548708,42.917339803380905],[-0.5494481846157779,42.91723882180386],[-0.5499980769596089,42.92622257592121],[-0.553054292710026,42.92612149098841]]]}},{"type":"Feature","properties":{"category":"arrival_step","arrival_snapshot_index":11,"first_detected_utc":"2026-09-05T01:28:00+00:00","first_detected_local":"2026-09-05T03:28:00+02:00","area_km2":1.438,"label":"Première détection FIRMS","model_version":"fire_progression_arrival_v1"},"geometry":{"type":"Polygon","coordinates":[[[-0.5562482336074922,42.928266260136645],[-0.5561104978079763,42.92602031913631],[-0.5591666922443598,42.925919060365416],[-0.5590288490632509,42.92367312776151],[-0.5620849147870444,42.92357178619566],[-0.5615331766678245,42.91458811510094],[-0.5584775830207357,42.91468944017504],[-0.5583397931743987,42.91244352900196],[-0.5522288098924586,42.91264591021316],[-0.5520912666877563,42.910399995101905],[-0.5490358770657076,42.91050105124882],[-0.5491733022793616,42.912746970471815],[-0.5430622551543862,42.912948830292876],[-0.5431994550000108,42.91519476202557],[-0.5523663637422146,42.914891829620665],[-0.553054292710026,42.92612149098841],[-0.5469418505658262,42.926323573934255],[-0.5470792322011409,42.928569527273474],[-0.5562482336074922,42.928266260136645]]]}},{"type":"Feature","properties":{"category":"firms_extent_snapshot","snapshot_index":1,"pass_time_utc":"2026-09-04T01:02:00+00:00","dt_local":"2026-09-04T03:02:00+02:00","label":"Emprise FIRMS cumulée à ce passage","interpretation":"Enveloppe des détections FIRMS, pas une surface brûlée","cumulative":true,"point_count":2,"extent_method":"cumulative_detection_extent_smoothed_landmasked_web_v1","local_cluster_link_m":10000.0,"model_version":"fire_progression_arrival_v1"},"geometry":{"type":"Polygon","coordinates":[[[-0.5551457580461941,42.92839869779509],[-0.5546569580446074,42.92986787328599],[-0.5532881732050333,42.93086552164495],[-0.5512848743399826,42.93121270160217],[-0.5492819167440876,42.93067921820972],[-0.5479966804376655,42.92936550412647],[-0.5479478398588773,42.92688050487338],[-0.5470252459650194,42.92548968175398],[-0.5452145842784736,42.92470008632981],[-0.5419394433716975,42.92449495518538],[-0.5401448101584508,42.923403177784046],[-0.5395961568819031,42.9218362767077],[-0.5403223006770939,42.92036454513608],[-0.5427369619585619,42.91931104580916],[-0.5454579778136917,42.91982092156545],[-0.5467429452687355,42.921134654941405],[-0.546791729415149,42.92361964213353],[-0.5475592760582135,42.92487849424427],[-0.5492968040975711,42.92575234551165],[-0.5533793341774603,42.92621282692469],[-0.5546350681372174,42.92714318857374],[-0.5551457580461941,42.92839869779509]]]}},{"type":"Feature","properties":{"category":"observed_front","snapshot_index":2,"pass_time_utc":"2026-09-04T01:45:00+00:00","dt_local":"2026-09-04T03:45:00+02:00","area_km2":2.562,"label":"Activité observée","coherence_level":"indisponible","coherence_fraction":0.0,"projection_displayed":false,"model_version":"fire_progression_arrival_v1"},"geometry":{"type":"Polygon","coordinates":[[[-0.5470792322011409,42.928569527273474],[-0.5469418505658262,42.926323573934255],[-0.5499980769596089,42.92622257592121],[-0.5494481846157779,42.91723882180386],[-0.5463924303548708,42.917339803380905],[-0.5462551018785405,42.91509387145972],[-0.5431994550000108,42.91519476202557],[-0.5430622551543862,42.912948830292876],[-0.5338956048563993,42.91325096827668],[-0.5340324506868057,42.91549691230282],[-0.5309767613868538,42.91559745525353],[-0.5311134997923413,42.91784340766461],[-0.5280576818919195,42.91794386779775],[-0.5286042692021495,42.926927736670685],[-0.5316605592649895,42.92682726018624],[-0.531797350601967,42.92907323401969],[-0.5470792322011409,42.928569527273474]]]}},{"type":"Feature","properties":{"category":"historical_support","snapshot_index":3,"pass_time_utc":"2026-09-04T02:24:00+00:00","dt_local":"2026-09-04T04:24:00+02:00","area_km2":3.188,"label":"Isoline temporelle","coherence_level":"indisponible","coherence_fraction":0.0,"projection_displayed":false,"model_version":"fire_progression_arrival_v1"},"geometry":{"type":"Polygon","coordinates":[[[-0.5411036675412135,42.93101723656831],[-0.5409665114042465,42.928771270746616],[-0.5470792322011409,42.928569527273474],[-0.5469418505658262,42.926323573934255],[-0.5499980769596089,42.92622257592121],[-0.5494481846157779,42.91723882180386],[-0.5463924303548708,42.917339803380905],[-0.5462551018785405,42.91509387145972],[-0.5431994550000108,42.91519476202557],[-0.5430622551543862,42.912948830292876],[-0.5277844516901733,42.91345195909511],[-0.5280576818919195,42.91794386779775],[-0.5250018534167553,42.918044241021875],[-0.5254114239211739,42.92478214850391],[-0.5284676065081823,42.924681763027124],[-0.5287409424757687,42.92917371459238],[-0.531797350601967,42.92907323401969],[-0.5319341525289276,42.93131921212785],[-0.5411036675412135,42.93101723656831]]]}},{"type":"Feature","properties":{"category":"observed_front","snapshot_index":3,"pass_time_utc":"2026-09-04T02:24:00+00:00","dt_local":"2026-09-04T04:24:00+02:00","area_km2":3.188,"label":"Activité observée","coherence_level":"indisponible","coherence_fraction":0.0,"projection_displayed":false,"model_version":"fire_progression_arrival_v1"},"geometry":{"type":"Polygon","coordinates":[[[-0.5411036675412135,42.93101723656831],[-0.5409665114042465,42.928771270746616],[-0.5470792322011409,42.928569527273474],[-0.5469418505658262,42.926323573934255],[-0.5499980769596089,42.92622257592121],[-0.5494481846157779,42.91723882180386],[-0.5463924303548708,42.917339803380905],[-0.5462551018785405,42.91509387145972],[-0.5431994550000108,42.91519476202557],[-0.5430622551543862,42.912948830292876],[-0.5277844516901733,42.91345195909511],[-0.5280576818919195,42.91794386779775],[-0.5250018534167553,42.918044241021875],[-0.5254114239211739,42.92478214850391],[-0.5284676065081823,42.924681763027124],[-0.5287409424757687,42.92917371459238],[-0.531797350601967,42.92907323401969],[-0.5319341525289276,42.93131921212785],[-0.5411036675412135,42.93101723656831]]]}},{"type":"Feature","properties":{"category":"firms_extent_snapshot","snapshot_index":4,"pass_time_utc":"2026-09-04T02:41:00+00:00","dt_local":"2026-09-04T04:41:00+02:00","label":"Emprise FIRMS cumulée à ce passage","interpretation":"Enveloppe des détections FIRMS, pas une surface brûlée","cumulative":true,"point_count":15,"extent_method":"cumulative_detection_extent_smoothed_landmasked_web_v1","local_cluster_link_m":10000.0,"model_version":"fire_progression_arrival_v1"},"geometry":{"type":"Polygon","coordinates":[[[-0.5551457580461941,42.92839869779509],[-0.5543720199887682,42.93017848912253],[-0.5520035232188863,42.93118893331379],[-0.5498974080666126,42.93095285039549],[-0.5476754787657844,42.92954172278971],[-0.5458923547056379,42.92909510746472],[-0.5440425454207242,42.92935709949946],[-0.5406432050864216,42.93111031939905],[-0.5353368036137608,42.930732635440684],[-0.5337644487086819,42.929676292631974],[-0.532974800275936,42.92719866355289],[-0.5309466926293296,42.92502494816643],[-0.5308718735557262,42.922577234730674],[-0.5300746950391904,42.92064057111744],[-0.5304301878554936,42.919356493059105],[-0.5315672742260557,42.91834719233048],[-0.5332919043630554,42.91784449139547],[-0.5372307787548403,42.918567293314474],[-0.5402055594827867,42.91813621801471],[-0.5419527152678664,42.918397311688516],[-0.5463750370459176,42.92055673368899],[-0.5468377053296418,42.923790673354006],[-0.547714287980605,42.925010464961446],[-0.5492968040975711,42.92575234551165],[-0.5533793341774603,42.92621282692469],[-0.5546350681372174,42.92714318857374],[-0.5551457580461941,42.92839869779509]]]}},{"type":"Feature","properties":{"category":"historical_support","snapshot_index":4,"pass_time_utc":"2026-09-04T02:41:00+00:00","dt_local":"2026-09-04T04:41:00+02:00","area_km2":3.188,"label":"Isoline temporelle","coherence_level":"indisponible","coherence_fraction":0.0,"projection_displayed":false,"model_version":"fire_progression_arrival_v1"},"geometry":{"type":"Polygon","coordinates":[[[-0.5411036675412135,42.93101723656831],[-0.5409665114042465,42.928771270746616],[-0.5470792322011409,42.928569527273474],[-0.5469418505658262,42.926323573934255],[-0.5499980769596089,42.92622257592121],[-0.5494481846157779,42.91723882180386],[-0.5463924303548708,42.917339803380905],[-0.5462551018785405,42.91509387145972],[-0.5431994550000108,42.91519476202557],[-0.5430622551543862,42.912948830292876],[-0.5277844516901733,42.91345195909511],[-0.5280576818919195,42.91794386779775],[-0.5250018534167553,42.918044241021875],[-0.5254114239211739,42.92478214850391],[-0.5284676065081823,42.924681763027124],[-0.5287409424757687,42.92917371459238],[-0.531797350601967,42.92907323401969],[-0.5319341525289276,42.93131921212785],[-0.5411036675412135,42.93101723656831]]]}},{"type":"Feature","properties":{"category":"observed_front","snapshot_index":4,"pass_time_utc":"2026-09-04T02:41:00+00:00","dt_local":"2026-09-04T04:41:00+02:00","area_km2":2.938,"label":"Activité observée","coherence_level":"indisponible","coherence_fraction":0.0,"projection_displayed":false,"model_version":"fire_progression_arrival_v1"},"geometry":{"type":"Polygon","coordinates":[[[-0.5411036675412135,42.93101723656831],[-0.5409665114042465,42.928771270746616],[-0.5470792322011409,42.928569527273474],[-0.5468044795647761,42.92407762487213],[-0.5498605879116901,42.92397663096835],[-0.5495856417410093,42.919484753906424],[-0.5465297694605319,42.919585739592215],[-0.5462551018785405,42.91509387145972],[-0.5431994550000108,42.91519476202557],[-0.5430622551543862,42.912948830292876],[-0.530840033563979,42.91335150713662],[-0.5309767613868538,42.91559745525353],[-0.5279210615042884,42.91569791129925],[-0.5280576818919195,42.91794386779775],[-0.5250018534167553,42.918044241021875],[-0.5254114239211739,42.92478214850391],[-0.5284676065081823,42.924681763027124],[-0.5287409424757687,42.92917371459238],[-0.5348537481381811,42.92897266652084],[-0.5349906681363746,42.93121864053705],[-0.5411036675412135,42.93101723656831]]]}},{"type":"Feature","properties":{"category":"historical_support","snapshot_index":5,"pass_time_utc":"2026-09-04T12:08:00+00:00","dt_local":"2026-09-04T14:08:00+02:00","area_km2":3.188,"label":"Isoline temporelle","coherence_level":"indisponible","coherence_fraction":0.0,"projection_displayed":false,"model_version":"fire_progression_arrival_v1"},"geometry":{"type":"Polygon","coordinates":[[[-0.5411036675412135,42.93101723656831],[-0.5409665114042465,42.928771270746616],[-0.5470792322011409,42.928569527273474],[-0.5469418505658262,42.926323573934255],[-0.5499980769596089,42.92622257592121],[-0.5494481846157779,42.91723882180386],[-0.5463924303548708,42.917339803380905],[-0.5462551018785405,42.91509387145972],[-0.5431994550000108,42.91519476202557],[-0.5430622551543862,42.912948830292876],[-0.5277844516901733,42.91345195909511],[-0.5280576818919195,42.91794386779775],[-0.5250018534167553,42.918044241021875],[-0.5254114239211739,42.92478214850391],[-0.5284676065081823,42.924681763027124],[-0.5287409424757687,42.92917371459238],[-0.531797350601967,42.92907323401969],[-0.5319341525289276,42.93131921212785],[-0.5411036675412135,42.93101723656831]]]}},{"type":"Feature","properties":{"category":"observed_front","snapshot_index":5,"pass_time_utc":"2026-09-04T12:08:00+00:00","dt_local":"2026-09-04T14:08:00+02:00","area_km2":2.312,"label":"Activité observée","coherence_level":"indisponible","coherence_fraction":0.0,"projection_displayed":false,"model_version":"fire_progression_arrival_v1"},"geometry":{"type":"Polygon","coordinates":[[[-0.5470792322011409,42.928569527273474],[-0.5469418505658262,42.926323573934255],[-0.5499980769596089,42.92622257592121],[-0.5494481846157779,42.91723882180386],[-0.5463924303548708,42.917339803380905],[-0.5462551018785405,42.91509387145972],[-0.5431994550000108,42.91519476202557],[-0.5430622551543862,42.912948830292876],[-0.5338956048563993,42.91325096827668],[-0.5340324506868057,42.91549691230282],[-0.5309767613868538,42.91559745525353],[-0.5312502487816708,42.92008936436671],[-0.5281943128542946,42.92018982858739],[-0.5283309543926398,42.92243579366495],[-0.5313870083560699,42.92233532535651],[-0.5316605592649895,42.92682726018624],[-0.5347168387390744,42.92672669677919],[-0.5348537481381811,42.92897266652084],[-0.5470792322011409,42.928569527273474]]]}},{"type":"Feature","properties":{"category":"firms_extent_snapshot","snapshot_index":6,"pass_time_utc":"2026-09-04T12:25:00+00:00","dt_local":"2026-09-04T14:25:00+02:00","label":"Emprise FIRMS cumulée à ce passage","interpretation":"Enveloppe des détections FIRMS, pas une surface brûlée","cumulative":true,"point_count":18,"extent_method":"cumulative_detection_extent_smoothed_landmasked_web_v1","local_cluster_link_m":10000.0,"model_version":"fire_progression_arrival_v1"},"geometry":{"type":"Polygon","coordinates":[[[-0.5551457580461941,42.92839869779509],[-0.5543720199887682,42.93017848912253],[-0.5520035232188863,42.93118893331379],[-0.5498974080666126,42.93095285039549],[-0.5476754787657844,42.92954172278971],[-0.5458923547056379,42.92909510746472],[-0.5440425454207242,42.92935709949946],[-0.5406432050864216,42.93111031939905],[-0.5353368036137608,42.930732635440684],[-0.5337644487086819,42.929676292631974],[-0.532974800275936,42.92719866355289],[-0.5309466926293296,42.92502494816643],[-0.5308718735557262,42.922577234730674],[-0.5300746950391904,42.92064057111744],[-0.5304301878554936,42.919356493059105],[-0.5315672742260557,42.91834719233048],[-0.5332919043630554,42.91784449139547],[-0.5372307787548403,42.918567293314474],[-0.5402055594827867,42.91813621801471],[-0.5419527152678664,42.918397311688516],[-0.5463750370459176,42.92055673368899],[-0.5468377053296418,42.923790673354006],[-0.547714287980605,42.925010464961446],[-0.5492968040975711,42.92575234551165],[-0.5533793341774603,42.92621282692469],[-0.5546350681372174,42.92714318857374],[-0.5551457580461941,42.92839869779509]]]}},{"type":"Feature","properties":{"category":"historical_support","snapshot_index":6,"pass_time_utc":"2026-09-04T12:25:00+00:00","dt_local":"2026-09-04T14:25:00+02:00","area_km2":3.188,"label":"Isoline temporelle","coherence_level":"indisponible","coherence_fraction":0.0,"projection_displayed":false,"model_version":"fire_progression_arrival_v1"},"geometry":{"type":"Polygon","coordinates":[[[-0.5411036675412135,42.93101723656831],[-0.5409665114042465,42.928771270746616],[-0.5470792322011409,42.928569527273474],[-0.5469418505658262,42.926323573934255],[-0.5499980769596089,42.92622257592121],[-0.5494481846157779,42.91723882180386],[-0.5463924303548708,42.917339803380905],[-0.5462551018785405,42.91509387145972],[-0.5431994550000108,42.91519476202557],[-0.5430622551543862,42.912948830292876],[-0.5277844516901733,42.91345195909511],[-0.5280576818919195,42.91794386779775],[-0.5250018534167553,42.918044241021875],[-0.5254114239211739,42.92478214850391],[-0.5284676065081823,42.924681763027124],[-0.5287409424757687,42.92917371459238],[-0.531797350601967,42.92907323401969],[-0.5319341525289276,42.93131921212785],[-0.5411036675412135,42.93101723656831]]]}},{"type":"Feature","properties":{"category":"observed_front","snapshot_index":6,"pass_time_utc":"2026-09-04T12:25:00+00:00","dt_local":"2026-09-04T14:25:00+02:00","area_km2":2.312,"label":"Activité observée","coherence_level":"indisponible","coherence_fraction":0.0,"projection_displayed":false,"model_version":"fire_progression_arrival_v1"},"geometry":{"type":"Polygon","coordinates":[[[-0.5440228771158914,42.92867044247218],[-0.5438856135377805,42.92642448502703],[-0.5469418505658262,42.926323573934255],[-0.5468044795647761,42.92407762487213],[-0.5498605879116901,42.92397663096835],[-0.5494481846157779,42.91723882180386],[-0.5463924303548708,42.917339803380905],[-0.5462551018785405,42.91509387145972],[-0.5431994550000108,42.91519476202557],[-0.5430622551543862,42.912948830292876],[-0.5338956048563993,42.91325096827668],[-0.5340324506868057,42.91549691230282],[-0.5309767613868538,42.91559745525353],[-0.5311134997923413,42.91784340766461],[-0.5280576818919195,42.91794386779775],[-0.5284676065081823,42.924681763027124],[-0.5315237785167664,42.92458129063076],[-0.5316605592649895,42.92682726018624],[-0.5347168387390744,42.92672669677919],[-0.5348537481381811,42.92897266652084],[-0.5440228771158914,42.92867044247218]]]}},{"type":"Feature","properties":{"category":"historical_support","snapshot_index":7,"pass_time_utc":"2026-09-04T13:10:00+00:00","dt_local":"2026-09-04T15:10:00+02:00","area_km2":3.188,"label":"Isoline temporelle","coherence_level":"indisponible","coherence_fraction":0.0,"projection_displayed":false,"model_version":"fire_progression_arrival_v1"},"geometry":{"type":"Polygon","coordinates":[[[-0.5411036675412135,42.93101723656831],[-0.5409665114042465,42.928771270746616],[-0.5470792322011409,42.928569527273474],[-0.5469418505658262,42.926323573934255],[-0.5499980769596089,42.92622257592121],[-0.5494481846157779,42.91723882180386],[-0.5463924303548708,42.917339803380905],[-0.5462551018785405,42.91509387145972],[-0.5431994550000108,42.91519476202557],[-0.5430622551543862,42.912948830292876],[-0.5277844516901733,42.91345195909511],[-0.5280576818919195,42.91794386779775],[-0.5250018534167553,42.918044241021875],[-0.5254114239211739,42.92478214850391],[-0.5284676065081823,42.924681763027124],[-0.5287409424757687,42.92917371459238],[-0.531797350601967,42.92907323401969],[-0.5319341525289276,42.93131921212785],[-0.5411036675412135,42.93101723656831]]]}},{"type":"Feature","properties":{"category":"observed_front","snapshot_index":7,"pass_time_utc":"2026-09-04T13:10:00+00:00","dt_local":"2026-09-04T15:10:00+02:00","area_km2":3.062,"label":"Activité observée","coherence_level":"indisponible","coherence_fraction":0.0,"projection_displayed":false,"model_version":"fire_progression_arrival_v1"},"geometry":{"type":"MultiPolygon","coordinates":[[[[-0.48167981223662043,42.91045629670229],[-0.48154500400434325,42.90821029652356],[-0.47543420176406254,42.908408308384125],[-0.47516508854658257,42.903916304846824],[-0.47210990778036815,42.904015172382415],[-0.4718410721523313,42.89952317806703],[-0.4748960169754458,42.899424318576656],[-0.47462698704099215,42.894932349599635],[-0.48073637364440125,42.89473438607391],[-0.4806016384120748,42.89248841613309],[-0.4867107474447385,42.8922901131671],[-0.48684571854806685,42.89453607503921],[-0.49295502167927463,42.89433741649929],[-0.49322546700333836,42.89882933706088],[-0.4962803387713343,42.8987298693837],[-0.49655106187642706,42.903221799139764],[-0.49349595418228126,42.903321274911555],[-0.49376648322581457,42.907813230025305],[-0.4876557645158491,42.90801193706939],[-0.4877908087464243,42.910257929177],[-0.48167981223662043,42.91045629670229]]],[[[-0.534579939937825,42.92448073131533],[-0.5344430517332023,42.922234770132505],[-0.5313870083560699,42.92233532535651],[-0.5312502487816708,42.92008936436671],[-0.5343061741239781,42.91998881323397],[-0.534169307108922,42.91774286062297],[-0.5372251038325618,42.91764222667333],[-0.5373620888721155,42.91988817518968],[-0.5404179930169867,42.9197874502343],[-0.540555106692174,42.9220333989397],[-0.537499084514937,42.92213412799342],[-0.5376360907622555,42.92438008508125],[-0.534579939937825,42.92448073131533]]]]}},{"type":"Feature","properties":{"category":"historical_support","snapshot_index":8,"pass_time_utc":"2026-09-04T13:48:00+00:00","dt_local":"2026-09-04T15:48:00+02:00","area_km2":3.188,"label":"Isoline temporelle","coherence_level":"indisponible","coherence_fraction":0.0,"projection_displayed":false,"model_version":"fire_progression_arrival_v1"},"geometry":{"type":"Polygon","coordinates":[[[-0.5411036675412135,42.93101723656831],[-0.5409665114042465,42.928771270746616],[-0.5470792322011409,42.928569527273474],[-0.5469418505658262,42.926323573934255],[-0.5499980769596089,42.92622257592121],[-0.5494481846157779,42.91723882180386],[-0.5463924303548708,42.917339803380905],[-0.5462551018785405,42.91509387145972],[-0.5431994550000108,42.91519476202557],[-0.5430622551543862,42.912948830292876],[-0.5277844516901733,42.91345195909511],[-0.5280576818919195,42.91794386779775],[-0.5250018534167553,42.918044241021875],[-0.5254114239211739,42.92478214850391],[-0.5284676065081823,42.924681763027124],[-0.5287409424757687,42.92917371459238],[-0.531797350601967,42.92907323401969],[-0.5319341525289276,42.93131921212785],[-0.5411036675412135,42.93101723656831]]]}},{"type":"Feature","properties":{"category":"observed_front","snapshot_index":8,"pass_time_utc":"2026-09-04T13:48:00+00:00","dt_local":"2026-09-04T15:48:00+02:00","area_km2":2.5,"label":"Activité observée","coherence_level":"indisponible","coherence_fraction":0.0,"projection_displayed":false,"model_version":"fire_progression_arrival_v1"},"geometry":{"type":"Polygon","coordinates":[[[-0.5411036675412135,42.93101723656831],[-0.5409665114042465,42.928771270746616],[-0.5470792322011409,42.928569527273474],[-0.5469418505658262,42.926323573934255],[-0.5499980769596089,42.92622257592121],[-0.5494481846157779,42.91723882180386],[-0.5463924303548708,42.917339803380905],[-0.5462551018785405,42.91509387145972],[-0.5401437975024808,42.915295565688375],[-0.5400067156606988,42.91304962985433],[-0.5369511655583376,42.913150342515735],[-0.5370881293950461,42.9153962824476],[-0.5309767613868538,42.91559745525353],[-0.5311134997923413,42.91784340766461],[-0.5280576818919195,42.91794386779775],[-0.5286042692021495,42.926927736670685],[-0.5316605592649895,42.92682726018624],[-0.531797350601967,42.92907323401969],[-0.5379101350753086,42.92887201209633],[-0.5380471731435045,42.93111798201704],[-0.5411036675412135,42.93101723656831]]]}},{"type":"Feature","properties":{"category":"historical_support","snapshot_index":9,"pass_time_utc":"2026-09-04T14:08:00+00:00","dt_local":"2026-09-04T16:08:00+02:00","area_km2":4.0,"label":"Isoline temporelle","coherence_level":"indisponible","coherence_fraction":0.0,"projection_displayed":false,"model_version":"fire_progression_arrival_v1"},"geometry":{"type":"Polygon","coordinates":[[[-0.5411036675412135,42.93101723656831],[-0.5409665114042465,42.928771270746616],[-0.5470792322011409,42.928569527273474],[-0.5469418505658262,42.926323573934255],[-0.5499980769596089,42.92622257592121],[-0.5494481846157779,42.91723882180386],[-0.5463924303548708,42.917339803380905],[-0.5462551018785405,42.91509387145972],[-0.5431994550000108,42.91519476202557],[-0.5430622551543862,42.912948830292876],[-0.5400067156606988,42.91304962985433],[-0.5398696444275893,42.91080369831724],[-0.5368142123212059,42.910904406881016],[-0.5366772696824219,42.90865847554667],[-0.5275112637775845,42.90896006758306],[-0.5276478524483471,42.91120601118865],[-0.5245923780031413,42.911306372161675],[-0.5247288592440777,42.91355232415169],[-0.5216732562347884,42.91365260230586],[-0.5220824092807315,42.920390496290764],[-0.5251383663509483,42.920290205895576],[-0.5254114239211739,42.92478214850391],[-0.5284676065081823,42.924681763027124],[-0.5287409424757687,42.92917371459238],[-0.531797350601967,42.92907323401969],[-0.5319341525289276,42.93131921212785],[-0.5411036675412135,42.93101723656831]]]}},{"type":"Feature","properties":{"category":"observed_front","snapshot_index":9,"pass_time_utc":"2026-09-04T14:08:00+00:00","dt_local":"2026-09-04T16:08:00+02:00","area_km2":2.312,"label":"Activité observée","coherence_level":"indisponible","coherence_fraction":0.0,"projection_displayed":false,"model_version":"fire_progression_arrival_v1"},"geometry":{"type":"Polygon","coordinates":[[[-0.5376360907622555,42.92438008508125],[-0.537499084514937,42.92213412799342],[-0.540555106692174,42.9220333989397],[-0.5404179930169867,42.9197874502343],[-0.5434738865494917,42.919686638368326],[-0.5430622551543862,42.912948830292876],[-0.5400067156606988,42.91304962985433],[-0.5398696444275893,42.91080369831724],[-0.5368142123212059,42.910904406881016],[-0.5366772696824219,42.90865847554667],[-0.5275112637775845,42.90896006758306],[-0.5276478524483471,42.91120601118865],[-0.5245923780031413,42.911306372161675],[-0.5247288592440777,42.91355232415169],[-0.5216732562347884,42.91365260230586],[-0.5220824092807315,42.920390496290764],[-0.5251383663509483,42.920290205895576],[-0.5252748898520126,42.922536175057324],[-0.5283309543926398,42.92243579366495],[-0.5284676065081823,42.924681763027124],[-0.5376360907622555,42.92438008508125]]]}},{"type":"Feature","properties":{"category":"firms_extent_snapshot","snapshot_index":10,"pass_time_utc":"2026-09-04T15:16:00+00:00","dt_local":"2026-09-04T17:16:00+02:00","label":"Emprise FIRMS cumulée à ce passage","interpretation":"Enveloppe des détections FIRMS, pas une surface brûlée","cumulative":true,"point_count":25,"extent_method":"cumulative_detection_extent_smoothed_landmasked_web_v1","local_cluster_link_m":10000.0,"model_version":"fire_progression_arrival_v1"},"geometry":{"type":"MultiPolygon","coordinates":[[[[-0.487954269248704,42.902620992750506],[-0.4867480169324604,42.905564938915816],[-0.48524467191217097,42.90674661561667],[-0.4825310391718875,42.90701235540844],[-0.480247840535368,42.90572658501208],[-0.47990685372125896,42.90367869556188],[-0.48115345251789554,42.90134224392096],[-0.48248549123162277,42.900393376706084],[-0.48441317649691323,42.900045862519626],[-0.4861260924252205,42.90040665581214],[-0.4874452594505842,42.90136519332879],[-0.487954269248704,42.902620992750506]]],[[[-0.5549962927665345,42.92273690194804],[-0.5543324908001445,42.926125444635375],[-0.5550358527007411,42.929185887114386],[-0.5539331576138568,42.930525385125286],[-0.5520035232188863,42.93118893331379],[-0.550159650822315,42.93103507072039],[-0.5473926171538179,42.929855777852616],[-0.5449465228776863,42.9297512082901],[-0.5403629874373214,42.93114898990173],[-0.5315394204301079,42.931109099908895],[-0.5291281438740173,42.930358746742236],[-0.5270539849562923,42.929096615833366],[-0.5255678109100554,42.927446367704164],[-0.5247975796790892,42.92555014823507],[-0.5249891535442274,42.92292281649086],[-0.5265341674325908,42.92054934839565],[-0.5316873045501519,42.91741719654554],[-0.5333374157824945,42.91692100571169],[-0.5383593567381697,42.91804396898344],[-0.5444478182300007,42.91637483311244],[-0.5489569248484625,42.91670043069465],[-0.5513261553328537,42.91764046365906],[-0.5532221889250721,42.91904547047299],[-0.5544817398517274,42.92079448289204],[-0.5549962927665345,42.92273690194804]]]]}},{"type":"Feature","properties":{"category":"historical_support","snapshot_index":10,"pass_time_utc":"2026-09-04T15:16:00+00:00","dt_local":"2026-09-04T17:16:00+02:00","area_km2":4.375,"label":"Isoline temporelle","coherence_level":"indisponible","coherence_fraction":0.0,"projection_displayed":false,"model_version":"fire_progression_arrival_v1"},"geometry":{"type":"Polygon","coordinates":[[[-0.5411036675412135,42.93101723656831],[-0.5409665114042465,42.928771270746616],[-0.5470792322011409,42.928569527273474],[-0.5469418505658262,42.926323573934255],[-0.553054292710026,42.92612149098841],[-0.5523663637422146,42.914891829620665],[-0.5431994550000108,42.91519476202557],[-0.5430622551543862,42.912948830292876],[-0.5400067156606988,42.91304962985433],[-0.5398696444275893,42.91080369831724],[-0.5368142123212059,42.910904406881016],[-0.5366772696824219,42.90865847554667],[-0.5275112637775845,42.90896006758306],[-0.5276478524483471,42.91120601118865],[-0.5245923780031413,42.911306372161675],[-0.5247288592440777,42.91355232415169],[-0.5216732562347884,42.91365260230586],[-0.5220824092807315,42.920390496290764],[-0.5251383663509483,42.920290205895576],[-0.5254114239211739,42.92478214850391],[-0.5284676065081823,42.924681763027124],[-0.5287409424757687,42.92917371459238],[-0.531797350601967,42.92907323401969],[-0.5319341525289276,42.93131921212785],[-0.5411036675412135,42.93101723656831]]]}},{"type":"Feature","properties":{"category":"observed_front","snapshot_index":10,"pass_time_utc":"2026-09-04T15:16:00+00:00","dt_local":"2026-09-04T17:16:00+02:00","area_km2":3.375,"label":"Activité observée","coherence_level":"indisponible","coherence_fraction":0.0,"projection_displayed":false,"model_version":"fire_progression_arrival_v1"},"geometry":{"type":"Polygon","coordinates":[[[-0.5411036675412135,42.93101723656831],[-0.5409665114042465,42.928771270746616],[-0.5470792322011409,42.928569527273474],[-0.5469418505658262,42.926323573934255],[-0.553054292710026,42.92612149098841],[-0.5523663637422146,42.914891829620665],[-0.5431994550000108,42.91519476202557],[-0.5430622551543862,42.912948830292876],[-0.5369511655583376,42.913150342515735],[-0.5370881293950461,42.9153962824476],[-0.5279210615042884,42.91569791129925],[-0.5280576818919195,42.91794386779775],[-0.5250018534167553,42.918044241021875],[-0.5254114239211739,42.92478214850391],[-0.5284676065081823,42.924681763027124],[-0.5287409424757687,42.92917371459238],[-0.531797350601967,42.92907323401969],[-0.5319341525289276,42.93131921212785],[-0.5411036675412135,42.93101723656831]]]}},{"type":"Feature","properties":{"category":"historical_support","snapshot_index":11,"pass_time_utc":"2026-09-05T01:28:00+00:00","dt_local":"2026-09-05T03:28:00+02:00","area_km2":5.812,"label":"Isoline temporelle","coherence_level":"indisponible","coherence_fraction":0.0,"projection_displayed":false,"model_version":"fire_progression_arrival_v1"},"geometry":{"type":"Polygon","coordinates":[[[-0.5411036675412135,42.93101723656831],[-0.5409665114042465,42.928771270746616],[-0.5562482336074922,42.928266260136645],[-0.5561104978079763,42.92602031913631],[-0.5591666922443598,42.925919060365416],[-0.5590288490632509,42.92367312776151],[-0.5620849147870444,42.92357178619566],[-0.5615331766678245,42.91458811510094],[-0.5584775830207357,42.91468944017504],[-0.5583397931743987,42.91244352900196],[-0.5522288098924586,42.91264591021316],[-0.5520912666877563,42.910399995101905],[-0.5490358770657076,42.91050105124882],[-0.5491733022793616,42.912746970471815],[-0.5400067156606988,42.91304962985433],[-0.5398696444275893,42.91080369831724],[-0.5368142123212059,42.910904406881016],[-0.5366772696824219,42.90865847554667],[-0.5275112637775845,42.90896006758306],[-0.5276478524483471,42.91120601118865],[-0.5245923780031413,42.911306372161675],[-0.5247288592440777,42.91355232415169],[-0.5216732562347884,42.91365260230586],[-0.5220824092807315,42.920390496290764],[-0.5251383663509483,42.920290205895576],[-0.5254114239211739,42.92478214850391],[-0.5284676065081823,42.924681763027124],[-0.5287409424757687,42.92917371459238],[-0.531797350601967,42.92907323401969],[-0.5319341525289276,42.93131921212785],[-0.5411036675412135,42.93101723656831]]]}},{"type":"Feature","properties":{"category":"observed_front","snapshot_index":11,"pass_time_utc":"2026-09-05T01:28:00+00:00","dt_local":"2026-09-05T03:28:00+02:00","area_km2":2.625,"label":"Activité observée","coherence_level":"indisponible","coherence_fraction":0.0,"projection_displayed":false,"model_version":"fire_progression_arrival_v1"},"geometry":{"type":"Polygon","coordinates":[[[-0.5562482336074922,42.928266260136645],[-0.5561104978079763,42.92602031913631],[-0.5591666922443598,42.925919060365416],[-0.5590288490632509,42.92367312776151],[-0.5620849147870444,42.92357178619566],[-0.5615331766678245,42.91458811510094],[-0.5584775830207357,42.91468944017504],[-0.5583397931743987,42.91244352900196],[-0.5522288098924586,42.91264591021316],[-0.5520912666877563,42.910399995101905],[-0.5490358770657076,42.91050105124882],[-0.5491733022793616,42.912746970471815],[-0.5430622551543862,42.912948830292876],[-0.5431994550000108,42.91519476202557],[-0.5401437975024808,42.915295565688375],[-0.5406922309809582,42.92427935192906],[-0.5437483605848323,42.9241785318592],[-0.5438856135377805,42.92642448502703],[-0.5469418505658262,42.926323573934255],[-0.5470792322011409,42.928569527273474],[-0.5562482336074922,42.928266260136645]]]}},{"type":"Feature","properties":{"category":"historical_support","snapshot_index":12,"pass_time_utc":"2026-09-05T02:04:00+00:00","dt_local":"2026-09-05T04:04:00+02:00","area_km2":5.812,"label":"Isoline temporelle","coherence_level":"indisponible","coherence_fraction":0.0,"projection_displayed":false,"model_version":"fire_progression_arrival_v1"},"geometry":{"type":"Polygon","coordinates":[[[-0.5411036675412135,42.93101723656831],[-0.5409665114042465,42.928771270746616],[-0.5562482336074922,42.928266260136645],[-0.5561104978079763,42.92602031913631],[-0.5591666922443598,42.925919060365416],[-0.5590288490632509,42.92367312776151],[-0.5620849147870444,42.92357178619566],[-0.5615331766678245,42.91458811510094],[-0.5584775830207357,42.91468944017504],[-0.5583397931743987,42.91244352900196],[-0.5522288098924586,42.91264591021316],[-0.5520912666877563,42.910399995101905],[-0.5490358770657076,42.91050105124882],[-0.5491733022793616,42.912746970471815],[-0.5400067156606988,42.91304962985433],[-0.5398696444275893,42.91080369831724],[-0.5368142123212059,42.910904406881016],[-0.5366772696824219,42.90865847554667],[-0.5275112637775845,42.90896006758306],[-0.5276478524483471,42.91120601118865],[-0.5245923780031413,42.911306372161675],[-0.5247288592440777,42.91355232415169],[-0.5216732562347884,42.91365260230586],[-0.5220824092807315,42.920390496290764],[-0.5251383663509483,42.920290205895576],[-0.5254114239211739,42.92478214850391],[-0.5284676065081823,42.924681763027124],[-0.5287409424757687,42.92917371459238],[-0.531797350601967,42.92907323401969],[-0.5319341525289276,42.93131921212785],[-0.5411036675412135,42.93101723656831]]]}},{"type":"Feature","properties":{"category":"observed_front","snapshot_index":12,"pass_time_utc":"2026-09-05T02:04:00+00:00","dt_local":"2026-09-05T04:04:00+02:00","area_km2":2.5,"label":"Activité observée","coherence_level":"indisponible","coherence_fraction":0.0,"projection_displayed":false,"model_version":"fire_progression_arrival_v1"},"geometry":{"type":"Polygon","coordinates":[[[-0.5531919104560442,42.92836743610524],[-0.553054292710026,42.92612149098841],[-0.5561104978079763,42.92602031913631],[-0.5558350581924083,42.92152844996864],[-0.5588910165515711,42.92142719943725],[-0.5587531947080844,42.91918127539592],[-0.555697354373883,42.919282521807816],[-0.5554219787091667,42.91479067834843],[-0.5523663637422146,42.914891829620665],[-0.5522288098924586,42.91264591021316],[-0.5400067156606988,42.91304962985433],[-0.5401437975024808,42.915295565688375],[-0.5370881293950461,42.9153962824476],[-0.5373620888721155,42.91988817518968],[-0.5343061741239781,42.91998881323397],[-0.5344430517332023,42.922234770132505],[-0.537499084514937,42.92213412799342],[-0.537773107615303,42.92662604644998],[-0.5408293658845721,42.926525309199114],[-0.5409665114042465,42.928771270746616],[-0.5531919104560442,42.92836743610524]]]}},{"type":"Feature","properties":{"category":"firms_extent_snapshot","snapshot_index":13,"pass_time_utc":"2026-09-05T02:24:00+00:00","dt_local":"2026-09-05T04:24:00+02:00","label":"Emprise FIRMS cumulée à ce passage","interpretation":"Enveloppe des détections FIRMS, pas une surface brûlée","cumulative":true,"point_count":31,"extent_method":"cumulative_detection_extent_smoothed_landmasked_web_v1","local_cluster_link_m":10000.0,"model_version":"fire_progression_arrival_v1"},"geometry":{"type":"MultiPolygon","coordinates":[[[[-0.487954269248704,42.902620992750506],[-0.4867480169324604,42.905564938915816],[-0.48524467191217097,42.90674661561667],[-0.4825310391718875,42.90701235540844],[-0.480247840535368,42.90572658501208],[-0.47990685372125896,42.90367869556188],[-0.48115345251789554,42.90134224392096],[-0.48248549123162277,42.900393376706084],[-0.48441317649691323,42.900045862519626],[-0.4861260924252205,42.90040665581214],[-0.4874452594505842,42.90136519332879],[-0.487954269248704,42.902620992750506]]],[[[-0.5571252485739525,42.92039863111426],[-0.5554630362574928,42.92356971651231],[-0.5549537433492722,42.92938651913654],[-0.5539331576138568,42.930525385125286],[-0.5523570105509178,42.93113837273909],[-0.5502295444924588,42.93105512603412],[-0.5473926171538179,42.929855777852616],[-0.5447039653512777,42.92975062885517],[-0.5403629874373214,42.93114898990173],[-0.5316116480088284,42.931124037083826],[-0.5276338373710416,42.929528416918586],[-0.5259887871116703,42.92803136348434],[-0.5249693276659128,42.92619975657993],[-0.5248095580886258,42.92357127502303],[-0.5260306120175451,42.921097942022],[-0.5283871164210622,42.919189985685406],[-0.5329839984857826,42.91697150308546],[-0.5347668471656535,42.91697718165154],[-0.5386010916152363,42.918039549017415],[-0.5436380036281593,42.91649200652491],[-0.5472879820770221,42.91638356238245],[-0.5518429064238533,42.917737416680865],[-0.5552938731594308,42.9181854374526],[-0.5566145862398402,42.9191431401748],[-0.5571252485739525,42.92039863111426]]]]}},{"type":"Feature","properties":{"category":"historical_support","snapshot_index":13,"pass_time_utc":"2026-09-05T02:24:00+00:00","dt_local":"2026-09-05T04:24:00+02:00","area_km2":5.812,"label":"Isoline temporelle","coherence_level":"indisponible","coherence_fraction":0.0,"projection_displayed":false,"model_version":"fire_progression_arrival_v1"},"geometry":{"type":"Polygon","coordinates":[[[-0.5411036675412135,42.93101723656831],[-0.5409665114042465,42.928771270746616],[-0.5562482336074922,42.928266260136645],[-0.5561104978079763,42.92602031913631],[-0.5591666922443598,42.925919060365416],[-0.5590288490632509,42.92367312776151],[-0.5620849147870444,42.92357178619566],[-0.5615331766678245,42.91458811510094],[-0.5584775830207357,42.91468944017504],[-0.5583397931743987,42.91244352900196],[-0.5522288098924586,42.91264591021316],[-0.5520912666877563,42.910399995101905],[-0.5490358770657076,42.91050105124882],[-0.5491733022793616,42.912746970471815],[-0.5400067156606988,42.91304962985433],[-0.5398696444275893,42.91080369831724],[-0.5368142123212059,42.910904406881016],[-0.5366772696824219,42.90865847554667],[-0.5275112637775845,42.90896006758306],[-0.5276478524483471,42.91120601118865],[-0.5245923780031413,42.911306372161675],[-0.5247288592440777,42.91355232415169],[-0.5216732562347884,42.91365260230586],[-0.5220824092807315,42.920390496290764],[-0.5251383663509483,42.920290205895576],[-0.5254114239211739,42.92478214850391],[-0.5284676065081823,42.924681763027124],[-0.5287409424757687,42.92917371459238],[-0.531797350601967,42.92907323401969],[-0.5319341525289276,42.93131921212785],[-0.5411036675412135,42.93101723656831]]]}},{"type":"Feature","properties":{"category":"observed_front","snapshot_index":13,"pass_time_utc":"2026-09-05T02:24:00+00:00","dt_local":"2026-09-05T04:24:00+02:00","area_km2":2.312,"label":"Activité observée","coherence_level":"indisponible","coherence_fraction":0.0,"projection_displayed":false,"model_version":"fire_progression_arrival_v1"},"geometry":{"type":"Polygon","coordinates":[[[-0.5501355766508922,42.928468525151004],[-0.5499980769596089,42.92622257592121],[-0.553054292710026,42.92612149098841],[-0.5529166856164742,42.923875550148345],[-0.5559727726700271,42.92377438241255],[-0.5555596612132148,42.91703659793332],[-0.552503928238258,42.91713775332117],[-0.5523663637422146,42.914891829620665],[-0.5493107381289737,42.91499289399125],[-0.5491733022793616,42.912746970471815],[-0.5400067156606988,42.91304962985433],[-0.5401437975024808,42.915295565688375],[-0.5370881293950461,42.9153962824476],[-0.5372251038325618,42.91764222667333],[-0.534169307108922,42.91774286062297],[-0.534579939937825,42.92448073131533],[-0.5376360907622555,42.92438008508125],[-0.537773107615303,42.92662604644998],[-0.5408293658845721,42.926525309199114],[-0.5409665114042465,42.928771270746616],[-0.5501355766508922,42.928468525151004]]]}},{"type":"Feature","properties":{"category":"firms_extent_snapshot","snapshot_index":14,"pass_time_utc":"2026-09-05T13:48:00+00:00","dt_local":"2026-09-05T15:48:00+02:00","label":"Emprise FIRMS cumulée à ce passage","interpretation":"Enveloppe des détections FIRMS, pas une surface brûlée","cumulative":true,"point_count":33,"extent_method":"cumulative_detection_extent_smoothed_landmasked_web_v1","local_cluster_link_m":10000.0,"model_version":"fire_progression_arrival_v1"},"geometry":{"type":"MultiPolygon","coordinates":[[[[-0.487954269248704,42.902620992750506],[-0.4867480169324604,42.905564938915816],[-0.48524467191217097,42.90674661561667],[-0.4825310391718875,42.90701235540844],[-0.480247840535368,42.90572658501208],[-0.47990685372125896,42.90367869556188],[-0.48115345251789554,42.90134224392096],[-0.48248549123162277,42.900393376706084],[-0.48441317649691323,42.900045862519626],[-0.4861260924252205,42.90040665581214],[-0.4874452594505842,42.90136519332879],[-0.487954269248704,42.902620992750506]]],[[[-0.5571252485739525,42.92039863111426],[-0.5554630362574928,42.92356971651231],[-0.5549537433492722,42.92938651913654],[-0.5539331576138568,42.930525385125286],[-0.5523570105509178,42.93113837273909],[-0.5502295444924588,42.93105512603412],[-0.5473926171538179,42.929855777852616],[-0.5447039653512777,42.92975062885517],[-0.5403629874373214,42.93114898990173],[-0.5316116480088284,42.931124037083826],[-0.5276338373710416,42.929528416918586],[-0.5259887871116703,42.92803136348434],[-0.5249693276659128,42.92619975657993],[-0.5248095580886258,42.92357127502303],[-0.5260306120175451,42.921097942022],[-0.5283871164210622,42.919189985685406],[-0.5329839984857826,42.91697150308546],[-0.5347668471656535,42.91697718165154],[-0.5386010916152363,42.918039549017415],[-0.5436380036281593,42.91649200652491],[-0.5472879820770221,42.91638356238245],[-0.5518429064238533,42.917737416680865],[-0.5552938731594308,42.9181854374526],[-0.5566145862398402,42.9191431401748],[-0.5571252485739525,42.92039863111426]]]]}},{"type":"Feature","properties":{"category":"historical_support","snapshot_index":14,"pass_time_utc":"2026-09-05T13:48:00+00:00","dt_local":"2026-09-05T15:48:00+02:00","area_km2":5.812,"label":"Isoline temporelle","coherence_level":"indisponible","coherence_fraction":0.0,"projection_displayed":false,"model_version":"fire_progression_arrival_v1"},"geometry":{"type":"Polygon","coordinates":[[[-0.5411036675412135,42.93101723656831],[-0.5409665114042465,42.928771270746616],[-0.5562482336074922,42.928266260136645],[-0.5561104978079763,42.92602031913631],[-0.5591666922443598,42.925919060365416],[-0.5590288490632509,42.92367312776151],[-0.5620849147870444,42.92357178619566],[-0.5615331766678245,42.91458811510094],[-0.5584775830207357,42.91468944017504],[-0.5583397931743987,42.91244352900196],[-0.5522288098924586,42.91264591021316],[-0.5520912666877563,42.910399995101905],[-0.5490358770657076,42.91050105124882],[-0.5491733022793616,42.912746970471815],[-0.5400067156606988,42.91304962985433],[-0.5398696444275893,42.91080369831724],[-0.5368142123212059,42.910904406881016],[-0.5366772696824219,42.90865847554667],[-0.5275112637775845,42.90896006758306],[-0.5276478524483471,42.91120601118865],[-0.5245923780031413,42.911306372161675],[-0.5247288592440777,42.91355232415169],[-0.5216732562347884,42.91365260230586],[-0.5220824092807315,42.920390496290764],[-0.5251383663509483,42.920290205895576],[-0.5254114239211739,42.92478214850391],[-0.5284676065081823,42.924681763027124],[-0.5287409424757687,42.92917371459238],[-0.531797350601967,42.92907323401969],[-0.5319341525289276,42.93131921212785],[-0.5411036675412135,42.93101723656831]]]}},{"type":"Feature","properties":{"category":"observed_front","snapshot_index":14,"pass_time_utc":"2026-09-05T13:48:00+00:00","dt_local":"2026-09-05T15:48:00+02:00","area_km2":2.312,"label":"Activité observée","coherence_level":"indisponible","coherence_fraction":0.0,"projection_displayed":false,"model_version":"fire_progression_arrival_v1"},"geometry":{"type":"Polygon","coordinates":[[[-0.5499980769596089,42.92622257592121],[-0.5498605879116901,42.92397663096835],[-0.5529166856164742,42.923875550148345],[-0.552641503381826,42.91938368131147],[-0.555697354373883,42.919282521807816],[-0.5555596612132148,42.91703659793332],[-0.552503928238258,42.91713775332117],[-0.5522288098924586,42.91264591021316],[-0.5400067156606988,42.91304962985433],[-0.5398696444275893,42.91080369831724],[-0.5368142123212059,42.910904406881016],[-0.5369511655583376,42.913150342515735],[-0.5338956048563993,42.91325096827668],[-0.534169307108922,42.91774286062297],[-0.5311134997923413,42.91784340766461],[-0.5312502487816708,42.92008936436671],[-0.5343061741239781,42.91998881323397],[-0.534579939937825,42.92448073131533],[-0.5376360907622555,42.92438008508125],[-0.537773107615303,42.92662604644998],[-0.5499980769596089,42.92622257592121]]]}},{"type":"Feature","properties":{"category":"historical_support","snapshot_index":15,"pass_time_utc":"2026-09-06T01:45:00+00:00","dt_local":"2026-09-06T03:45:00+02:00","area_km2":5.812,"label":"Isoline temporelle","coherence_level":"indisponible","coherence_fraction":0.0,"projection_displayed":false,"model_version":"fire_progression_arrival_v1"},"geometry":{"type":"Polygon","coordinates":[[[-0.5411036675412135,42.93101723656831],[-0.5409665114042465,42.928771270746616],[-0.5562482336074922,42.928266260136645],[-0.5561104978079763,42.92602031913631],[-0.5591666922443598,42.925919060365416],[-0.5590288490632509,42.92367312776151],[-0.5620849147870444,42.92357178619566],[-0.5615331766678245,42.91458811510094],[-0.5584775830207357,42.91468944017504],[-0.5583397931743987,42.91244352900196],[-0.5522288098924586,42.91264591021316],[-0.5520912666877563,42.910399995101905],[-0.5490358770657076,42.91050105124882],[-0.5491733022793616,42.912746970471815],[-0.5400067156606988,42.91304962985433],[-0.5398696444275893,42.91080369831724],[-0.5368142123212059,42.910904406881016],[-0.5366772696824219,42.90865847554667],[-0.5275112637775845,42.90896006758306],[-0.5276478524483471,42.91120601118865],[-0.5245923780031413,42.911306372161675],[-0.5247288592440777,42.91355232415169],[-0.5216732562347884,42.91365260230586],[-0.5220824092807315,42.920390496290764],[-0.5251383663509483,42.920290205895576],[-0.5254114239211739,42.92478214850391],[-0.5284676065081823,42.924681763027124],[-0.5287409424757687,42.92917371459238],[-0.531797350601967,42.92907323401969],[-0.5319341525289276,42.93131921212785],[-0.5411036675412135,42.93101723656831]]]}},{"type":"Feature","properties":{"category":"observed_front","snapshot_index":15,"pass_time_utc":"2026-09-06T01:45:00+00:00","dt_local":"2026-09-06T03:45:00+02:00","area_km2":2.375,"label":"Activité observée","coherence_level":"indisponible","coherence_fraction":0.0,"projection_displayed":false,"model_version":"fire_progression_arrival_v1"},"geometry":{"type":"Polygon","coordinates":[[[-0.5591666922443598,42.925919060365416],[-0.5590288490632509,42.92367312776151],[-0.5620849147870444,42.92357178619566],[-0.5615331766678245,42.91458811510094],[-0.5584775830207357,42.91468944017504],[-0.5583397931743987,42.91244352900196],[-0.5522288098924586,42.91264591021316],[-0.5520912666877563,42.910399995101905],[-0.5490358770657076,42.91050105124882],[-0.5491733022793616,42.912746970471815],[-0.5400067156606988,42.91304962985433],[-0.540555106692174,42.9220333989397],[-0.5436111182558134,42.92193258297187],[-0.5437483605848323,42.9241785318592],[-0.5468044795647761,42.92407762487213],[-0.5469418505658262,42.926323573934255],[-0.5591666922443598,42.925919060365416]]]}},{"type":"Feature","properties":{"category":"firms_extent_snapshot","snapshot_index":16,"pass_time_utc":"2026-09-06T02:04:00+00:00","dt_local":"2026-09-06T04:04:00+02:00","label":"Emprise FIRMS cumulée à ce passage","interpretation":"Enveloppe des détections FIRMS, pas une surface brûlée","cumulative":true,"point_count":41,"extent_method":"cumulative_detection_extent_smoothed_landmasked_web_v1","local_cluster_link_m":10000.0,"model_version":"fire_progression_arrival_v1"},"geometry":{"type":"MultiPolygon","coordinates":[[[[-0.487954269248704,42.902620992750506],[-0.4867480169324604,42.905564938915816],[-0.48524467191217097,42.90674661561667],[-0.4825310391718875,42.90701235540844],[-0.480247840535368,42.90572658501208],[-0.47990685372125896,42.90367869556188],[-0.48115345251789554,42.90134224392096],[-0.48248549123162277,42.900393376706084],[-0.48441317649691323,42.900045862519626],[-0.4861260924252205,42.90040665581214],[-0.4874452594505842,42.90136519332879],[-0.487954269248704,42.902620992750506]]],[[[-0.5601752699788194,42.92083852701764],[-0.5594017869756468,42.922618342676834],[-0.5565001607101491,42.924030587451256],[-0.5555483821467668,42.92500239042774],[-0.5548759869244391,42.92651002160527],[-0.5551442945244521,42.92866331888308],[-0.5546197094688946,42.92991573537862],[-0.5520775042351084,42.93117973014623],[-0.5502295444924588,42.93105512603412],[-0.5473926171538179,42.929855777852616],[-0.5449465228776863,42.9297512082901],[-0.5403629874373214,42.93114898990173],[-0.5316116480088284,42.931124037083826],[-0.5291281438740173,42.930358746742236],[-0.5270539849562923,42.929096615833366],[-0.5255678109100554,42.927446367704164],[-0.5248100773776714,42.925604513686785],[-0.5249891535442274,42.92292281649086],[-0.5265341674325908,42.92054934839565],[-0.5284464593306496,42.919156256292695],[-0.5332634499726201,42.91693019586143],[-0.5387527087153526,42.9179444493167],[-0.5402964191848784,42.91751488276504],[-0.5426882397626104,42.91590215333916],[-0.5449374012897,42.91566403778292],[-0.5472703287465998,42.91632440226184],[-0.5501291218952817,42.91649740487037],[-0.5528264818675089,42.917586709819986],[-0.5572320572897763,42.9177570880211],[-0.5594657066911395,42.91936243814113],[-0.5601752699788194,42.92083852701764]]]]}},{"type":"Feature","properties":{"category":"historical_support","snapshot_index":16,"pass_time_utc":"2026-09-06T02:04:00+00:00","dt_local":"2026-09-06T04:04:00+02:00","area_km2":5.812,"label":"Isoline temporelle","coherence_level":"indisponible","coherence_fraction":0.0,"projection_displayed":false,"model_version":"fire_progression_arrival_v1"},"geometry":{"type":"Polygon","coordinates":[[[-0.5411036675412135,42.93101723656831],[-0.5409665114042465,42.928771270746616],[-0.5562482336074922,42.928266260136645],[-0.5561104978079763,42.92602031913631],[-0.5591666922443598,42.925919060365416],[-0.5590288490632509,42.92367312776151],[-0.5620849147870444,42.92357178619566],[-0.5615331766678245,42.91458811510094],[-0.5584775830207357,42.91468944017504],[-0.5583397931743987,42.91244352900196],[-0.5522288098924586,42.91264591021316],[-0.5520912666877563,42.910399995101905],[-0.5490358770657076,42.91050105124882],[-0.5491733022793616,42.912746970471815],[-0.5400067156606988,42.91304962985433],[-0.5398696444275893,42.91080369831724],[-0.5368142123212059,42.910904406881016],[-0.5366772696824219,42.90865847554667],[-0.5275112637775845,42.90896006758306],[-0.5276478524483471,42.91120601118865],[-0.5245923780031413,42.911306372161675],[-0.5247288592440777,42.91355232415169],[-0.5216732562347884,42.91365260230586],[-0.5220824092807315,42.920390496290764],[-0.5251383663509483,42.920290205895576],[-0.5254114239211739,42.92478214850391],[-0.5284676065081823,42.924681763027124],[-0.5287409424757687,42.92917371459238],[-0.531797350601967,42.92907323401969],[-0.5319341525289276,42.93131921212785],[-0.5411036675412135,42.93101723656831]]]}},{"type":"Feature","properties":{"category":"observed_front","snapshot_index":16,"pass_time_utc":"2026-09-06T02:04:00+00:00","dt_local":"2026-09-06T04:04:00+02:00","area_km2":2.375,"label":"Activité observée","coherence_level":"indisponible","coherence_fraction":0.0,"projection_displayed":false,"model_version":"fire_progression_arrival_v1"},"geometry":{"type":"Polygon","coordinates":[[[-0.5561104978079763,42.92602031913631],[-0.5559727726700271,42.92377438241255],[-0.5590288490632509,42.92367312776151],[-0.5584775830207357,42.91468944017504],[-0.5554219787091667,42.91479067834843],[-0.5552843068605028,42.91254476305639],[-0.5522288098924586,42.91264591021316],[-0.5520912666877563,42.910399995101905],[-0.5490358770657076,42.91050105124882],[-0.5491733022793616,42.912746970471815],[-0.5369511655583376,42.913150342515735],[-0.537499084514937,42.92213412799342],[-0.540555106692174,42.9220333989397],[-0.5406922309809582,42.92427935192906],[-0.5437483605848323,42.9241785318592],[-0.5438856135377805,42.92642448502703],[-0.5561104978079763,42.92602031913631]]]}},{"type":"Feature","properties":{"category":"historical_support","snapshot_index":17,"pass_time_utc":"2026-09-07T01:45:00+00:00","dt_local":"2026-09-07T03:45:00+02:00","area_km2":5.812,"label":"Isoline temporelle","coherence_level":"indisponible","coherence_fraction":0.0,"projection_displayed":false,"model_version":"fire_progression_arrival_v1"},"geometry":{"type":"Polygon","coordinates":[[[-0.5411036675412135,42.93101723656831],[-0.5409665114042465,42.928771270746616],[-0.5562482336074922,42.928266260136645],[-0.5561104978079763,42.92602031913631],[-0.5591666922443598,42.925919060365416],[-0.5590288490632509,42.92367312776151],[-0.5620849147870444,42.92357178619566],[-0.5615331766678245,42.91458811510094],[-0.5584775830207357,42.91468944017504],[-0.5583397931743987,42.91244352900196],[-0.5522288098924586,42.91264591021316],[-0.5520912666877563,42.910399995101905],[-0.5490358770657076,42.91050105124882],[-0.5491733022793616,42.912746970471815],[-0.5400067156606988,42.91304962985433],[-0.5398696444275893,42.91080369831724],[-0.5368142123212059,42.910904406881016],[-0.5366772696824219,42.90865847554667],[-0.5275112637775845,42.90896006758306],[-0.5276478524483471,42.91120601118865],[-0.5245923780031413,42.911306372161675],[-0.5247288592440777,42.91355232415169],[-0.5216732562347884,42.91365260230586],[-0.5220824092807315,42.920390496290764],[-0.5251383663509483,42.920290205895576],[-0.5254114239211739,42.92478214850391],[-0.5284676065081823,42.924681763027124],[-0.5287409424757687,42.92917371459238],[-0.531797350601967,42.92907323401969],[-0.5319341525289276,42.93131921212785],[-0.5411036675412135,42.93101723656831]]]}},{"type":"Feature","properties":{"category":"observed_front","snapshot_index":17,"pass_time_utc":"2026-09-07T01:45:00+00:00","dt_local":"2026-09-07T03:45:00+02:00","area_km2":2.188,"label":"Activité observée","coherence_level":"indisponible","coherence_fraction":0.0,"projection_displayed":false,"model_version":"fire_progression_arrival_v1"},"geometry":{"type":"Polygon","coordinates":[[[-0.5411036675412135,42.93101723656831],[-0.5409665114042465,42.928771270746616],[-0.5501355766508922,42.928468525151004],[-0.5499980769596089,42.92622257592121],[-0.553054292710026,42.92612149098841],[-0.552641503381826,42.91938368131147],[-0.5495856417410093,42.919484753906424],[-0.5494481846157779,42.91723882180386],[-0.5463924303548708,42.917339803380905],[-0.5462551018785405,42.91509387145972],[-0.5370881293950461,42.9153962824476],[-0.5372251038325618,42.91764222667333],[-0.534169307108922,42.91774286062297],[-0.5343061741239781,42.91998881323397],[-0.5312502487816708,42.92008936436671],[-0.5316605592649895,42.92682726018624],[-0.5347168387390744,42.92672669677919],[-0.5348537481381811,42.92897266652084],[-0.5379101350753086,42.92887201209633],[-0.5380471731435045,42.93111798201704],[-0.5411036675412135,42.93101723656831]]]}},{"type":"Feature","properties":{"category":"historical_support","snapshot_index":18,"pass_time_utc":"2026-09-07T02:32:00+00:00","dt_local":"2026-09-07T04:32:00+02:00","area_km2":5.812,"label":"Isoline temporelle","coherence_level":"indisponible","coherence_fraction":0.0,"projection_displayed":false,"model_version":"fire_progression_arrival_v1"},"geometry":{"type":"Polygon","coordinates":[[[-0.5411036675412135,42.93101723656831],[-0.5409665114042465,42.928771270746616],[-0.5562482336074922,42.928266260136645],[-0.5561104978079763,42.92602031913631],[-0.5591666922443598,42.925919060365416],[-0.5590288490632509,42.92367312776151],[-0.5620849147870444,42.92357178619566],[-0.5615331766678245,42.91458811510094],[-0.5584775830207357,42.91468944017504],[-0.5583397931743987,42.91244352900196],[-0.5522288098924586,42.91264591021316],[-0.5520912666877563,42.910399995101905],[-0.5490358770657076,42.91050105124882],[-0.5491733022793616,42.912746970471815],[-0.5400067156606988,42.91304962985433],[-0.5398696444275893,42.91080369831724],[-0.5368142123212059,42.910904406881016],[-0.5366772696824219,42.90865847554667],[-0.5275112637775845,42.90896006758306],[-0.5276478524483471,42.91120601118865],[-0.5245923780031413,42.911306372161675],[-0.5247288592440777,42.91355232415169],[-0.5216732562347884,42.91365260230586],[-0.5220824092807315,42.920390496290764],[-0.5251383663509483,42.920290205895576],[-0.5254114239211739,42.92478214850391],[-0.5284676065081823,42.924681763027124],[-0.5287409424757687,42.92917371459238],[-0.531797350601967,42.92907323401969],[-0.5319341525289276,42.93131921212785],[-0.5411036675412135,42.93101723656831]]]}},{"type":"Feature","properties":{"category":"observed_front","snapshot_index":18,"pass_time_utc":"2026-09-07T02:32:00+00:00","dt_local":"2026-09-07T04:32:00+02:00","area_km2":2.5,"label":"Activité observée","coherence_level":"indisponible","coherence_fraction":0.0,"projection_displayed":false,"model_version":"fire_progression_arrival_v1"},"geometry":{"type":"Polygon","coordinates":[[[-0.5501355766508922,42.928468525151004],[-0.5499980769596089,42.92622257592121],[-0.553054292710026,42.92612149098841],[-0.552503928238258,42.91713775332117],[-0.5494481846157779,42.91723882180386],[-0.5493107381289737,42.91499289399125],[-0.5431994550000108,42.91519476202557],[-0.5430622551543862,42.912948830292876],[-0.5369511655583376,42.913150342515735],[-0.5370881293950461,42.9153962824476],[-0.5340324506868057,42.91549691230282],[-0.534169307108922,42.91774286062297],[-0.5311134997923413,42.91784340766461],[-0.5316605592649895,42.92682726018624],[-0.5347168387390744,42.92672669677919],[-0.5348537481381811,42.92897266652084],[-0.5501355766508922,42.928468525151004]]]}},{"type":"Feature","properties":{"category":"firms_extent_snapshot","snapshot_index":19,"pass_time_utc":"2026-09-07T03:08:00+00:00","dt_local":"2026-09-07T05:08:00+02:00","label":"Emprise FIRMS cumulée à ce passage","interpretation":"Enveloppe des détections FIRMS, pas une surface brûlée","cumulative":true,"point_count":45,"extent_method":"cumulative_detection_extent_smoothed_landmasked_web_v1","local_cluster_link_m":10000.0,"model_version":"fire_progression_arrival_v1"},"geometry":{"type":"MultiPolygon","coordinates":[[[[-0.487954269248704,42.902620992750506],[-0.486093592384105,42.906260451218316],[-0.481200026750208,42.90915975406785],[-0.47877352818516944,42.90950525658232],[-0.47576331158705565,42.90906430758408],[-0.4741242147138104,42.90798451444009],[-0.47244141281212093,42.90485801036997],[-0.472074739630746,42.90094076914142],[-0.4737608113930113,42.89889976124864],[-0.4765465184624744,42.8983747778998],[-0.48066322701806735,42.90026556518891],[-0.48587457168496606,42.900308177455415],[-0.48740544957817994,42.90131846805114],[-0.487954269248704,42.902620992750506]]],[[[-0.5601752699788194,42.92083852701764],[-0.55926787037075,42.92273728918218],[-0.555646648792958,42.92484578213371],[-0.5548451665012367,42.92668308358954],[-0.5550358527007411,42.929185887114386],[-0.5536538523071397,42.930692424411475],[-0.5510010656747776,42.931192654859515],[-0.5473926171538179,42.929855777852616],[-0.5439833754701107,42.92981926453071],[-0.5390060687239259,42.931525908408744],[-0.5367026931070731,42.93362578391545],[-0.5348467462929678,42.93427983315806],[-0.5321123184989949,42.93381081553569],[-0.5285614813101894,42.9311201884583],[-0.5256012469502228,42.92749572595527],[-0.5248100773776714,42.925604513686785],[-0.5250094843896335,42.92286974396889],[-0.5271084525010934,42.920039668335086],[-0.534823429205339,42.91572058934862],[-0.5381885740458643,42.91482476174584],[-0.5410286610925953,42.9148336564784],[-0.5472703287465998,42.91632440226184],[-0.5498561593616569,42.916437055579216],[-0.553060627498259,42.91762609489129],[-0.5568999846285011,42.91765483522769],[-0.5594657066911395,42.91936243814113],[-0.5601752699788194,42.92083852701764]]]]}},{"type":"Feature","properties":{"category":"historical_support","snapshot_index":19,"pass_time_utc":"2026-09-07T03:08:00+00:00","dt_local":"2026-09-07T05:08:00+02:00","area_km2":5.812,"label":"Isoline temporelle","coherence_level":"indisponible","coherence_fraction":0.0,"projection_displayed":false,"model_version":"fire_progression_arrival_v1"},"geometry":{"type":"Polygon","coordinates":[[[-0.5411036675412135,42.93101723656831],[-0.5409665114042465,42.928771270746616],[-0.5562482336074922,42.928266260136645],[-0.5561104978079763,42.92602031913631],[-0.5591666922443598,42.925919060365416],[-0.5590288490632509,42.92367312776151],[-0.5620849147870444,42.92357178619566],[-0.5615331766678245,42.91458811510094],[-0.5584775830207357,42.91468944017504],[-0.5583397931743987,42.91244352900196],[-0.5522288098924586,42.91264591021316],[-0.5520912666877563,42.910399995101905],[-0.5490358770657076,42.91050105124882],[-0.5491733022793616,42.912746970471815],[-0.5400067156606988,42.91304962985433],[-0.5398696444275893,42.91080369831724],[-0.5368142123212059,42.910904406881016],[-0.5366772696824219,42.90865847554667],[-0.5275112637775845,42.90896006758306],[-0.5276478524483471,42.91120601118865],[-0.5245923780031413,42.911306372161675],[-0.5247288592440777,42.91355232415169],[-0.5216732562347884,42.91365260230586],[-0.5220824092807315,42.920390496290764],[-0.5251383663509483,42.920290205895576],[-0.5254114239211739,42.92478214850391],[-0.5284676065081823,42.924681763027124],[-0.5287409424757687,42.92917371459238],[-0.531797350601967,42.92907323401969],[-0.5319341525289276,42.93131921212785],[-0.5411036675412135,42.93101723656831]]]}},{"type":"Feature","properties":{"category":"observed_front","snapshot_index":19,"pass_time_utc":"2026-09-07T03:08:00+00:00","dt_local":"2026-09-07T05:08:00+02:00","area_km2":2.188,"label":"Activité observée","coherence_level":"indisponible","coherence_fraction":0.0,"projection_displayed":false,"model_version":"fire_progression_arrival_v1"},"geometry":{"type":"Polygon","coordinates":[[[-0.5411036675412135,42.93101723656831],[-0.5409665114042465,42.928771270746616],[-0.5501355766508922,42.928468525151004],[-0.5499980769596089,42.92622257592121],[-0.553054292710026,42.92612149098841],[-0.552641503381826,42.91938368131147],[-0.5495856417410093,42.919484753906424],[-0.5494481846157779,42.91723882180386],[-0.5463924303548708,42.917339803380905],[-0.5462551018785405,42.91509387145972],[-0.5370881293950461,42.9153962824476],[-0.5372251038325618,42.91764222667333],[-0.534169307108922,42.91774286062297],[-0.5343061741239781,42.91998881323397],[-0.5312502487816708,42.92008936436671],[-0.5316605592649895,42.92682726018624],[-0.5347168387390744,42.92672669677919],[-0.5348537481381811,42.92897266652084],[-0.5379101350753086,42.92887201209633],[-0.5380471731435045,42.93111798201704],[-0.5411036675412135,42.93101723656831]]]}}]}